[{"id":"1102132001","district_id":"1102132","postal_code":"24660","name":"Salang Baru"},{"id":"1102132002","district_id":"1102132","postal_code":"24660","name":"Ranto Dior"},{"id":"1102132003","district_id":"1102132","postal_code":"24660","name":"Lembah Alas"},{"id":"1102132004","district_id":"1102132","postal_code":"24660","name":"Tenembak Lang-lang"},{"id":"1102132005","district_id":"1102132","postal_code":"24660","name":"Salang Sigotom"},{"id":"1102132006","district_id":"1102132","postal_code":"24660","name":"Tualang Lama"},{"id":"1102132007","district_id":"1102132","postal_code":"24660","name":"Gusung Batu"},{"id":"1102132008","district_id":"1102132","postal_code":"24660","name":"Kaya Pangur"},{"id":"1102132009","district_id":"1102132","postal_code":"24660","name":"Sepakat"},{"id":"1102132010","district_id":"1102132","postal_code":"24660","name":"Lawe Pangkat"},{"id":"1102132011","district_id":"1102132","postal_code":"24660","name":"Bunga Melur"},{"id":"1102132012","district_id":"1102132","postal_code":"24660","name":"Penampaan"},{"id":"1102132013","district_id":"1102132","postal_code":"24660","name":"Terutung Mbelang"},{"id":"1102132014","district_id":"1102132","postal_code":"24660","name":"Salang Muara"},{"id":"1102132015","district_id":"1102132","postal_code":"24660","name":"Lawe Hakhum"},{"id":"1102132016","district_id":"1102132","postal_code":"24660","name":"Tanoh Khukahen"},{"id":"1102132017","district_id":"1102132","postal_code":"24660","name":"Tading Ni Ulihi"},{"id":"1102132018","district_id":"1102132","postal_code":"24660","name":"Peseluk Pesimbe"},{"id":"1102132019","district_id":"1102132","postal_code":"24660","name":"Kane Lot"},{"id":"1102132020","district_id":"1102132","postal_code":"24660","name":"Muhajirin"},{"id":"1102132021","district_id":"1102132","postal_code":"24660","name":"Beriring Naru"},{"id":"1102132022","district_id":"1102132","postal_code":"24660","name":"Kati Jeroh"}]