[{"id":"1102042001","district_id":"1102042","postal_code":"24664","name":"Kota Kutacane"},{"id":"1102042002","district_id":"1102042","postal_code":"24664","name":"Perapat Hilir"},{"id":"1102042003","district_id":"1102042","postal_code":"24664","name":"Perapat Hulu"},{"id":"1102042004","district_id":"1102042","postal_code":"24664","name":"Muara Lawe Bulan"},{"id":"1102042005","district_id":"1102042","postal_code":"24664","name":"Mbarung"},{"id":"1102042006","district_id":"1102042","postal_code":"24664","name":"Batu Mbulan Asli"},{"id":"1102042007","district_id":"1102042","postal_code":"24664","name":"Batu Mbulan I"},{"id":"1102042008","district_id":"1102042","postal_code":"24664","name":"Batu Mbulan Ii"},{"id":"1102042009","district_id":"1102042","postal_code":"24664","name":"Kampung Raja"},{"id":"1102042010","district_id":"1102042","postal_code":"24664","name":"Pulonas"},{"id":"1102042011","district_id":"1102042","postal_code":"24664","name":"Kampung Melayu Gabungan"},{"id":"1102042012","district_id":"1102042","postal_code":"24664","name":"Terutung Pedi"},{"id":"1102042013","district_id":"1102042","postal_code":"24664","name":"Kute Rih"},{"id":"1102042014","district_id":"1102042","postal_code":"24664","name":"Gumpang Jaya"},{"id":"1102042015","district_id":"1102042","postal_code":"24664","name":"Pulo Latong"},{"id":"1102042016","district_id":"1102042","postal_code":"24664","name":"Kutacane Lama"},{"id":"1102042017","district_id":"1102042","postal_code":"24664","name":"Batu Mbulan Mbaru"},{"id":"1102042018","district_id":"1102042","postal_code":"24664","name":"Pulo Peding"},{"id":"1102042019","district_id":"1102042","postal_code":"24664","name":"Mendabe"},{"id":"1102042020","district_id":"1102042","postal_code":"24664","name":"Ujung Barat"},{"id":"1102042021","district_id":"1102042","postal_code":"24664","name":"Pekhapat Titi Panjang"},{"id":"1102042022","district_id":"1102042","postal_code":"24664","name":"Pekhapat Sepakat"},{"id":"1102042023","district_id":"1102042","postal_code":"24664","name":"Alas Marantcar"},{"id":"1102042024","district_id":"1102042","postal_code":"24664","name":"Batu Mbulan Sepakat"},{"id":"1102042025","district_id":"1102042","postal_code":"24664","name":"Pulo Sanggakh"},{"id":"1102042026","district_id":"1102042","postal_code":"24664","name":"Melayu I"},{"id":"1102042027","district_id":"1102042","postal_code":"24664","name":"Mbarung Datuk Saudane"}]