[{"id":"1103142001","district_id":"1103142","postal_code":"24443","name":"Seuneubok Buloh"},{"id":"1103142002","district_id":"1103142","postal_code":"24443","name":"Seuneubok Baro"},{"id":"1103142003","district_id":"1103142","postal_code":"24443","name":"Seuneubok Meureudu"},{"id":"1103142004","district_id":"1103142","postal_code":"24443","name":"Seuneubok Teupin Panah"},{"id":"1103142005","district_id":"1103142","postal_code":"24443","name":"Teupin Panah"},{"id":"1103142006","district_id":"1103142","postal_code":"24443","name":"Gampong Keumuneng"},{"id":"1103142007","district_id":"1103142","postal_code":"24443","name":"Keude Keumuneng"},{"id":"1103142008","district_id":"1103142","postal_code":"24443","name":"Keumuneng Lhok"},{"id":"1103142009","district_id":"1103142","postal_code":"24443","name":"Paya Awee"},{"id":"1103142010","district_id":"1103142","postal_code":"24443","name":"Paya Gaboh"},{"id":"1103142011","district_id":"1103142","postal_code":"24443","name":"Padang Kasah"},{"id":"1103142012","district_id":"1103142","postal_code":"24443","name":"Buket Teukuh"},{"id":"1103142013","district_id":"1103142","postal_code":"24443","name":"Buket Puuk"},{"id":"1103142014","district_id":"1103142","postal_code":"24443","name":"Blang Minjei"},{"id":"1103142015","district_id":"1103142","postal_code":"24443","name":"Alue Kumbang A"},{"id":"1103142016","district_id":"1103142","postal_code":"24443","name":"Alue Kumbang M"},{"id":"1103142017","district_id":"1103142","postal_code":"24443","name":"Alue Lhok"},{"id":"1103142018","district_id":"1103142","postal_code":"24443","name":"Seuneubok Buya"},{"id":"1103142019","district_id":"1103142","postal_code":"24443","name":"Seuneubok Drien"},{"id":"1103142020","district_id":"1103142","postal_code":"24443","name":"Bantayan Barat"},{"id":"1103142021","district_id":"1103142","postal_code":"24443","name":"Blang Guci"},{"id":"1103142022","district_id":"1103142","postal_code":"24443","name":"Buket Rumiya"},{"id":"1103142023","district_id":"1103142","postal_code":"24443","name":"Seuneubok Punti"},{"id":"1103142024","district_id":"1103142","postal_code":"24443","name":"Seuneubok Jalan"},{"id":"1103142025","district_id":"1103142","postal_code":"24443","name":"Seuneubok Dalam"}]