[{"id":"1103092001","district_id":"1103092","postal_code":"24465","name":"Peulalu"},{"id":"1103092002","district_id":"1103092","postal_code":"24465","name":"Nicah Awe"},{"id":"1103092003","district_id":"1103092","postal_code":"24465","name":"Alue Buloh Sa"},{"id":"1103092004","district_id":"1103092","postal_code":"24465","name":"Alue Buloh Dua"},{"id":"1103092005","district_id":"1103092","postal_code":"24465","name":"Teupin Breuh"},{"id":"1103092006","district_id":"1103092","postal_code":"24465","name":"Matang Rayeuk"},{"id":"1103092007","district_id":"1103092","postal_code":"24465","name":"Matang Kumbang"},{"id":"1103092008","district_id":"1103092","postal_code":"24465","name":"Blang Nie"},{"id":"1103092010","district_id":"1103092","postal_code":"24465","name":"Bantayan"},{"id":"1103092011","district_id":"1103092","postal_code":"24465","name":"Matang Weng"},{"id":"1103092012","district_id":"1103092","postal_code":"24465","name":"Alue Mulieng"},{"id":"1103092013","district_id":"1103092","postal_code":"24465","name":"Pucok Alue Dua"},{"id":"1103092014","district_id":"1103092","postal_code":"24465","name":"Gampong Blang"},{"id":"1103092015","district_id":"1103092","postal_code":"24465","name":"Keude Tuha"},{"id":"1103092016","district_id":"1103092","postal_code":"24465","name":"Kuala Simpang Ulim"},{"id":"1103092017","district_id":"1103092","postal_code":"24465","name":"Lampoh Rayeuk"},{"id":"1103092018","district_id":"1103092","postal_code":"24465","name":"Teupin Mamplam"},{"id":"1103092019","district_id":"1103092","postal_code":"24465","name":"Titi Baroh"},{"id":"1103092020","district_id":"1103092","postal_code":"24465","name":"Pucok Alue Sa"},{"id":"1103092021","district_id":"1103092","postal_code":"24465","name":"Pucok Alue Barat"},{"id":"1103092022","district_id":"1103092","postal_code":"24465","name":"Arakundo"},{"id":"1103092023","district_id":"1103092","postal_code":"24465","name":"Gampong Baro"},{"id":"1103092024","district_id":"1103092","postal_code":"24465","name":"Matang Seupeng"}]