[{"id":"1105082001","district_id":"1105082","postal_code":"23680","name":"Seumara"},{"id":"1105082002","district_id":"1105082","postal_code":"23680","name":"Babah Leung"},{"id":"1105082003","district_id":"1105082","postal_code":"23680","name":"Babah Iseung"},{"id":"1105082004","district_id":"1105082","postal_code":"23680","name":"Seumantok"},{"id":"1105082005","district_id":"1105082","postal_code":"23680","name":"Alue Keumang"},{"id":"1105082006","district_id":"1105082","postal_code":"23680","name":"Meunuang Kinco"},{"id":"1105082007","district_id":"1105082","postal_code":"23680","name":"Lango"},{"id":"1105082008","district_id":"1105082","postal_code":"23680","name":"Sikundo"},{"id":"1105082009","district_id":"1105082","postal_code":"23680","name":"Lawet"},{"id":"1105082010","district_id":"1105082","postal_code":"23680","name":"Canggai"},{"id":"1105082011","district_id":"1105082","postal_code":"23680","name":"Manjeng"},{"id":"1105082012","district_id":"1105082","postal_code":"23680","name":"Keutambang"},{"id":"1105082013","district_id":"1105082","postal_code":"23680","name":"Pante Ceuremen"},{"id":"1105082014","district_id":"1105082","postal_code":"23680","name":"Pulo Teungoh Manjeng"},{"id":"1105082015","district_id":"1105082","postal_code":"23680","name":"Jambak"},{"id":"1105082016","district_id":"1105082","postal_code":"23680","name":"Tegal Sari"},{"id":"1105082017","district_id":"1105082","postal_code":"23680","name":"Gunong Tarok"},{"id":"1105082018","district_id":"1105082","postal_code":"23680","name":"Suak Awe"},{"id":"1105082019","district_id":"1105082","postal_code":"23680","name":"Kreung Beukah"},{"id":"1105082020","district_id":"1105082","postal_code":"23680","name":"Lhok Sari"},{"id":"1105082021","district_id":"1105082","postal_code":"23680","name":"Babah Krueng Tep Lep"},{"id":"1105082022","district_id":"1105082","postal_code":"23680","name":"Berdikari"},{"id":"1105082023","district_id":"1105082","postal_code":"23680","name":"Lhok Guci"},{"id":"1105082024","district_id":"1105082","postal_code":"23680","name":"Keude Suak Awe"},{"id":"1105082025","district_id":"1105082","postal_code":"23680","name":"Sawang Rambot"}]