[{"id":"1107162001","district_id":"1107162","postal_code":"24151","name":"Tijue"},{"id":"1107162002","district_id":"1107162","postal_code":"24151","name":"Lampeudue Tunong"},{"id":"1107162003","district_id":"1107162","postal_code":"24151","name":"Puuk"},{"id":"1107162004","district_id":"1107162","postal_code":"24151","name":"Lampeudue Baroh"},{"id":"1107162005","district_id":"1107162","postal_code":"24151","name":"Paya"},{"id":"1107162006","district_id":"1107162","postal_code":"24151","name":"Mesjid Reuntoh"},{"id":"1107162007","district_id":"1107162","postal_code":"24151","name":"Dayah Teungoh"},{"id":"1107162008","district_id":"1107162","postal_code":"24151","name":"Baroh"},{"id":"1107162009","district_id":"1107162","postal_code":"24151","name":"Dayah Tanoh"},{"id":"1107162010","district_id":"1107162","postal_code":"24151","name":"Cot Geunduk"},{"id":"1107162011","district_id":"1107162","postal_code":"24151","name":"Tumpok Laweung"},{"id":"1107162012","district_id":"1107162","postal_code":"24151","name":"Ulee Ceue"},{"id":"1107162013","district_id":"1107162","postal_code":"24151","name":"Keude Keulibeut"},{"id":"1107162014","district_id":"1107162","postal_code":"24151","name":"Ulee Tutue"},{"id":"1107162015","district_id":"1107162","postal_code":"24151","name":"Dayah Tutong"},{"id":"1107162016","district_id":"1107162","postal_code":"24151","name":"Lampoh Lada"},{"id":"1107162017","district_id":"1107162","postal_code":"24151","name":"Keuniree"},{"id":"1107162018","district_id":"1107162","postal_code":"24151","name":"Tumpok 40"},{"id":"1107162019","district_id":"1107162","postal_code":"24151","name":"Cot Teungoh"},{"id":"1107162020","district_id":"1107162","postal_code":"24151","name":"Cot Rheng"},{"id":"1107162021","district_id":"1107162","postal_code":"24151","name":"Labui"},{"id":"1107162022","district_id":"1107162","postal_code":"24151","name":"Meunasah Gampong"},{"id":"1107162023","district_id":"1107162","postal_code":"24151","name":"Pulo Pisang"},{"id":"1107162024","district_id":"1107162","postal_code":"24151","name":"Lam Kuta"},{"id":"1107162025","district_id":"1107162","postal_code":"24151","name":"Kampong Pukat"},{"id":"1107162026","district_id":"1107162","postal_code":"24151","name":"Kampong Barat"},{"id":"1107162027","district_id":"1107162","postal_code":"24151","name":"Paloh"},{"id":"1107162028","district_id":"1107162","postal_code":"24151","name":"Gampong Baro"},{"id":"1107162029","district_id":"1107162","postal_code":"24151","name":"Pulo Bubee"},{"id":"1107162030","district_id":"1107162","postal_code":"24151","name":"Tibang"},{"id":"1107162031","district_id":"1107162","postal_code":"24151","name":"Rawa"},{"id":"1107162032","district_id":"1107162","postal_code":"24151","name":"Peukan Baro"},{"id":"1107162033","district_id":"1107162","postal_code":"24151","name":"Mancang"},{"id":"1107162034","district_id":"1107162","postal_code":"24151","name":"Gajah Aye"},{"id":"1107162035","district_id":"1107162","postal_code":"24151","name":"Lhok Keutapang"},{"id":"1107162036","district_id":"1107162","postal_code":"24151","name":"Dalueng"},{"id":"1107162037","district_id":"1107162","postal_code":"24151","name":"Ulee Ceue"},{"id":"1107162038","district_id":"1107162","postal_code":"24151","name":"Meucat"},{"id":"1107162039","district_id":"1107162","postal_code":"24151","name":"Dayah Teubeng"},{"id":"1107162040","district_id":"1107162","postal_code":"24151","name":"Tanjong"},{"id":"1107162041","district_id":"1107162","postal_code":"24151","name":"Jawa"},{"id":"1107162042","district_id":"1107162","postal_code":"24151","name":"Bayu"},{"id":"1107162043","district_id":"1107162","postal_code":"24151","name":"Abo"},{"id":"1107162044","district_id":"1107162","postal_code":"24151","name":"Keutapang"},{"id":"1107162045","district_id":"1107162","postal_code":"24151","name":"Krueng Dhoe"},{"id":"1107162046","district_id":"1107162","postal_code":"24151","name":"Sirong"},{"id":"1107162047","district_id":"1107162","postal_code":"24151","name":"Keutumbu"},{"id":"1107162048","district_id":"1107162","postal_code":"24151","name":"Jeumpa"},{"id":"1107162049","district_id":"1107162","postal_code":"24151","name":"Raya Sanggeue"},{"id":"1107162050","district_id":"1107162","postal_code":"24151","name":"Jeuleupee"},{"id":"1107162051","district_id":"1107162","postal_code":"24151","name":"Ujong Langgoe"},{"id":"1107162052","district_id":"1107162","postal_code":"24151","name":"Cot Glumpang"},{"id":"1107162053","district_id":"1107162","postal_code":"24151","name":"Seriweuk"},{"id":"1107162054","district_id":"1107162","postal_code":"24151","name":"Mesjid Utue"},{"id":"1107162055","district_id":"1107162","postal_code":"24151","name":"Leubue"},{"id":"1107162056","district_id":"1107162","postal_code":"24151","name":"Batee"},{"id":"1107162057","district_id":"1107162","postal_code":"24151","name":"Raya Uteu"},{"id":"1107162058","district_id":"1107162","postal_code":"24151","name":"Seukembrok"},{"id":"1107162059","district_id":"1107162","postal_code":"24151","name":"Bie"},{"id":"1107162060","district_id":"1107162","postal_code":"24151","name":"Blang Kula"},{"id":"1107162061","district_id":"1107162","postal_code":"24151","name":"Alue"},{"id":"1107162062","district_id":"1107162","postal_code":"24151","name":"Seuke"},{"id":"1107162063","district_id":"1107162","postal_code":"24151","name":"Paya Linteung"},{"id":"1107162064","district_id":"1107162","postal_code":"24151","name":"Puli"}]