[{"id":"1107252001","district_id":"1107252","postal_code":"24150","name":"Gintong"},{"id":"1107252002","district_id":"1107252","postal_code":"24150","name":"Mesjid Beureuleung"},{"id":"1107252003","district_id":"1107252","postal_code":"24150","name":"Beureuleung"},{"id":"1107252004","district_id":"1107252","postal_code":"24150","name":"Baroh"},{"id":"1107252005","district_id":"1107252","postal_code":"24150","name":"Meunasah Mee"},{"id":"1107252006","district_id":"1107252","postal_code":"24150","name":"Paya"},{"id":"1107252007","district_id":"1107252","postal_code":"24150","name":"Teungoh"},{"id":"1107252008","district_id":"1107252","postal_code":"24150","name":"Pangge Pilok"},{"id":"1107252009","district_id":"1107252","postal_code":"24150","name":"Karieng"},{"id":"1107252010","district_id":"1107252","postal_code":"24150","name":"Grong-grong"},{"id":"1107252011","district_id":"1107252","postal_code":"24150","name":"Nicah"},{"id":"1107252012","district_id":"1107252","postal_code":"24150","name":"Mesj. Memeuaneuk"},{"id":"1107252013","district_id":"1107252","postal_code":"24150","name":"Daka"},{"id":"1107252014","district_id":"1107252","postal_code":"24150","name":"Sentosa"},{"id":"1107252015","district_id":"1107252","postal_code":"24150","name":"Sukon"}]