[{"id":"1107292001","district_id":"1107292","postal_code":"24180","name":"U. Bungkok"},{"id":"1107292002","district_id":"1107292","postal_code":"24180","name":"Meuteumpeun"},{"id":"1107292003","district_id":"1107292","postal_code":"24180","name":"Kumbang Unoe"},{"id":"1107292004","district_id":"1107292","postal_code":"24180","name":"Sagoe"},{"id":"1107292005","district_id":"1107292","postal_code":"24180","name":"Geunteng"},{"id":"1107292006","district_id":"1107292","postal_code":"24180","name":"Jurong Baro"},{"id":"1107292007","district_id":"1107292","postal_code":"24180","name":"Sukon Paku"},{"id":"1107292008","district_id":"1107292","postal_code":"24180","name":"Pulo Iboih"},{"id":"1107292009","district_id":"1107292","postal_code":"24180","name":"Sangget"},{"id":"1107292010","district_id":"1107292","postal_code":"24180","name":"Blang Baroh"},{"id":"1107292011","district_id":"1107292","postal_code":"24180","name":"Manyang"},{"id":"1107292012","district_id":"1107292","postal_code":"24180","name":"Pulo Panjoe"},{"id":"1107292013","district_id":"1107292","postal_code":"24180","name":"Bale Gantung"},{"id":"1107292014","district_id":"1107292","postal_code":"24180","name":"Daboih"},{"id":"1107292015","district_id":"1107292","postal_code":"24180","name":"Seureukui Cebrek"},{"id":"1107292016","district_id":"1107292","postal_code":"24180","name":"Glumpang Bungkok"},{"id":"1107292017","district_id":"1107292","postal_code":"24180","name":"Ukee"},{"id":"1107292018","district_id":"1107292","postal_code":"24180","name":"Kumbang Trung Campli"},{"id":"1107292019","district_id":"1107292","postal_code":"24180","name":"Palong"},{"id":"1107292020","district_id":"1107292","postal_code":"24180","name":"Seuke"},{"id":"1107292021","district_id":"1107292","postal_code":"24180","name":"Bungong"}]