[{"id":"1108072001","district_id":"1108072","postal_code":"24372","name":"Dayah Bluek"},{"id":"1108072002","district_id":"1108072","postal_code":"24372","name":"Mesjid Bluek"},{"id":"1108072003","district_id":"1108072","postal_code":"24372","name":"Meuria Bluek"},{"id":"1108072004","district_id":"1108072","postal_code":"24372","name":"Rheng Bluek"},{"id":"1108072005","district_id":"1108072","postal_code":"24372","name":"Pulo Bluek"},{"id":"1108072006","district_id":"1108072","postal_code":"24372","name":"Rangkileh"},{"id":"1108072007","district_id":"1108072","postal_code":"24372","name":"Rayeuk Matang"},{"id":"1108072008","district_id":"1108072","postal_code":"24372","name":"Ulee Meuria"},{"id":"1108072009","district_id":"1108072","postal_code":"24372","name":"Tanjong"},{"id":"1108072010","district_id":"1108072","postal_code":"24372","name":"Keude Karieng"},{"id":"1108072011","district_id":"1108072","postal_code":"24372","name":"Manyang"},{"id":"1108072012","district_id":"1108072","postal_code":"24372","name":"Ulee Ceubrek"},{"id":"1108072013","district_id":"1108072","postal_code":"24372","name":"Teumpok Teungku"},{"id":"1108072014","district_id":"1108072","postal_code":"24372","name":"Geulumpang"},{"id":"1108072015","district_id":"1108072","postal_code":"24372","name":"Reudeup"},{"id":"1108072016","district_id":"1108072","postal_code":"24372","name":"Barat Paya Itek"},{"id":"1108072017","district_id":"1108072","postal_code":"24372","name":"Paya Kambuk"},{"id":"1108072018","district_id":"1108072","postal_code":"24372","name":"Paya Bili"},{"id":"1108072019","district_id":"1108072","postal_code":"24372","name":"Meunasah Mee"},{"id":"1108072020","district_id":"1108072","postal_code":"24372","name":"Meunasah Nga"},{"id":"1108072021","district_id":"1108072","postal_code":"24372","name":"Ubit Paya Itek"},{"id":"1108072022","district_id":"1108072","postal_code":"24372","name":"Rayeuk Paya Itek"},{"id":"1108072023","district_id":"1108072","postal_code":"24372","name":"Blang Cut"},{"id":"1108072024","district_id":"1108072","postal_code":"24372","name":"Keeh"},{"id":"1108072025","district_id":"1108072","postal_code":"24372","name":"Kumbang"},{"id":"1108072026","district_id":"1108072","postal_code":"24372","name":"Pri Keutapang"},{"id":"1108072027","district_id":"1108072","postal_code":"24372","name":"Mesjid"},{"id":"1108072028","district_id":"1108072","postal_code":"24372","name":"Teungoh Reuba"},{"id":"1108072029","district_id":"1108072","postal_code":"24372","name":"Blang Reuma"},{"id":"1108072030","district_id":"1108072","postal_code":"24372","name":"Drien Puntong"},{"id":"1108072031","district_id":"1108072","postal_code":"24372","name":"Pulo Kitou"},{"id":"1108072032","district_id":"1108072","postal_code":"24372","name":"Ceubrek"},{"id":"1108072033","district_id":"1108072","postal_code":"24372","name":"Meunye Peut"},{"id":"1108072034","district_id":"1108072","postal_code":"24372","name":"Beuringen"},{"id":"1108072035","district_id":"1108072","postal_code":"24372","name":"Nibong"},{"id":"1108072036","district_id":"1108072","postal_code":"24372","name":"Tualang"},{"id":"1108072037","district_id":"1108072","postal_code":"24372","name":"Pulo Drien Beukah"},{"id":"1108072038","district_id":"1108072","postal_code":"24372","name":"Teungoh Kuta Batee"},{"id":"1108072039","district_id":"1108072","postal_code":"24372","name":"Ujung Kuta Batee"},{"id":"1108072040","district_id":"1108072","postal_code":"24372","name":"Pulo Blang"},{"id":"1108072041","district_id":"1108072","postal_code":"24372","name":"Leubok Tuwe"},{"id":"1108072042","district_id":"1108072","postal_code":"24372","name":"Baroh Kuta Batee"},{"id":"1108072043","district_id":"1108072","postal_code":"24372","name":"Gampong Teungoh"},{"id":"1108072044","district_id":"1108072","postal_code":"24372","name":"Ranto"},{"id":"1108072045","district_id":"1108072","postal_code":"24372","name":"Meunye Payong"},{"id":"1108072046","district_id":"1108072","postal_code":"24372","name":"Ujong Reuba"},{"id":"1108072047","district_id":"1108072","postal_code":"24372","name":"Paya Sutra"},{"id":"1108072048","district_id":"1108072","postal_code":"24372","name":"Baree Blang"},{"id":"1108072049","district_id":"1108072","postal_code":"24372","name":"Keude Jungka Gajah"},{"id":"1108072050","district_id":"1108072","postal_code":"24372","name":"Saramaba"}]