[{"id":"1108192001","district_id":"1108192","postal_code":"24396","name":"Keude Sampoiniet"},{"id":"1108192002","district_id":"1108192","postal_code":"24396","name":"Lhok Iboh"},{"id":"1108192003","district_id":"1108192","postal_code":"24396","name":"Matang Bayu"},{"id":"1108192004","district_id":"1108192","postal_code":"24396","name":"Lang Nibong"},{"id":"1108192005","district_id":"1108192","postal_code":"24396","name":"Blang Seunong"},{"id":"1108192006","district_id":"1108192","postal_code":"24396","name":"Singgah Mata"},{"id":"1108192007","district_id":"1108192","postal_code":"24396","name":"Matang Panyang"},{"id":"1108192008","district_id":"1108192","postal_code":"24396","name":"Matang Ceubrek"},{"id":"1108192009","district_id":"1108192","postal_code":"24396","name":"Matang Teungoh"},{"id":"1108192010","district_id":"1108192","postal_code":"24396","name":"Cot Paya"},{"id":"1108192011","district_id":"1108192","postal_code":"24396","name":"Cot Kupok"},{"id":"1108192012","district_id":"1108192","postal_code":"24396","name":"Matang Raya Blang Sialet"},{"id":"1108192013","district_id":"1108192","postal_code":"24396","name":"Pucok Alue Buket"},{"id":"1108192014","district_id":"1108192","postal_code":"24396","name":"Matang Sijuek Timu"},{"id":"1108192015","district_id":"1108192","postal_code":"24396","name":"Matang Sijuek Teungoh"},{"id":"1108192016","district_id":"1108192","postal_code":"24396","name":"Matang Sijuek Barat"},{"id":"1108192017","district_id":"1108192","postal_code":"24396","name":"Cot Laba"},{"id":"1108192018","district_id":"1108192","postal_code":"24396","name":"Meunasah Pante"},{"id":"1108192019","district_id":"1108192","postal_code":"24396","name":"Meurandeh Paya"},{"id":"1108192020","district_id":"1108192","postal_code":"24396","name":"Cot Murong"},{"id":"1108192021","district_id":"1108192","postal_code":"24396","name":"Matang Paya"},{"id":"1108192022","district_id":"1108192","postal_code":"24396","name":"Lhok Euncien"},{"id":"1108192023","district_id":"1108192","postal_code":"24396","name":"Cot Usen"},{"id":"1108192024","district_id":"1108192","postal_code":"24396","name":"Meunasah Hagu"},{"id":"1108192025","district_id":"1108192","postal_code":"24396","name":"Blang Rheue"},{"id":"1108192026","district_id":"1108192","postal_code":"24396","name":"Paya Bateung"}]