[{"id":"1108122001","district_id":"1108122","postal_code":"24387","name":"Pulo Blang"},{"id":"1108122002","district_id":"1108122","postal_code":"24387","name":"Matang Ben"},{"id":"1108122003","district_id":"1108122","postal_code":"24387","name":"Matang Cibrek"},{"id":"1108122004","district_id":"1108122","postal_code":"24387","name":"Deng"},{"id":"1108122005","district_id":"1108122","postal_code":"24387","name":"Rawa"},{"id":"1108122006","district_id":"1108122","postal_code":"24387","name":"Punti Pulo Agam"},{"id":"1108122007","district_id":"1108122","postal_code":"24387","name":"Alue Pangkat"},{"id":"1108122008","district_id":"1108122","postal_code":"24387","name":"Teungoh Pulo Agam"},{"id":"1108122009","district_id":"1108122","postal_code":"24387","name":"Hueng"},{"id":"1108122010","district_id":"1108122","postal_code":"24387","name":"Pulo U"},{"id":"1108122011","district_id":"1108122","postal_code":"24387","name":"Alue Keujruen"},{"id":"1108122012","district_id":"1108122","postal_code":"24387","name":"Paya Beurandang"},{"id":"1108122013","district_id":"1108122","postal_code":"24387","name":"Manyang Tunong"},{"id":"1108122014","district_id":"1108122","postal_code":"24387","name":"Meunasah Tutong"},{"id":"1108122015","district_id":"1108122","postal_code":"24387","name":"Ampeh"},{"id":"1108122016","district_id":"1108122","postal_code":"24387","name":"Alue"},{"id":"1108122017","district_id":"1108122","postal_code":"24387","name":"Teungku Dibalee"},{"id":"1108122018","district_id":"1108122","postal_code":"24387","name":"Keude Blang Jruen"},{"id":"1108122019","district_id":"1108122","postal_code":"24387","name":"Blang Jruen"},{"id":"1108122020","district_id":"1108122","postal_code":"24387","name":"Ujong Baroh Berghang"},{"id":"1108122021","district_id":"1108122","postal_code":"24387","name":"Jeumpa Berghang"},{"id":"1108122022","district_id":"1108122","postal_code":"24387","name":"Teungoh Berghang"},{"id":"1108122023","district_id":"1108122","postal_code":"24387","name":"Pante Berghang"},{"id":"1108122024","district_id":"1108122","postal_code":"24387","name":"Serba Jaman"},{"id":"1108122025","district_id":"1108122","postal_code":"24387","name":"Rayeuk Naleung"},{"id":"1108122026","district_id":"1108122","postal_code":"24387","name":"Rangkaya"},{"id":"1108122027","district_id":"1108122","postal_code":"24387","name":"Paya"},{"id":"1108122028","district_id":"1108122","postal_code":"24387","name":"Blang Bidok"},{"id":"1108122029","district_id":"1108122","postal_code":"24387","name":"Rayeuk Kuta"},{"id":"1108122030","district_id":"1108122","postal_code":"24387","name":"Rayeuk Munye"},{"id":"1108122031","district_id":"1108122","postal_code":"24387","name":"Ujong Baroh Sb"},{"id":"1108122032","district_id":"1108122","postal_code":"24387","name":"Trieng"},{"id":"1108122033","district_id":"1108122","postal_code":"24387","name":"Manyang Sb"},{"id":"1108122034","district_id":"1108122","postal_code":"24387","name":"Cibrek"},{"id":"1108122035","district_id":"1108122","postal_code":"24387","name":"Keutapang"},{"id":"1108122036","district_id":"1108122","postal_code":"24387","name":"Matang Mane"},{"id":"1108122037","district_id":"1108122","postal_code":"24387","name":"Alue Gampong"},{"id":"1108122038","district_id":"1108122","postal_code":"24387","name":"Bayi"},{"id":"1108122039","district_id":"1108122","postal_code":"24387","name":"Tumpok Aceh"},{"id":"1108122040","district_id":"1108122","postal_code":"24387","name":"Ulee Buket"},{"id":"1108122041","district_id":"1108122","postal_code":"24387","name":"Cot Dah"},{"id":"1108122042","district_id":"1108122","postal_code":"24387","name":"Leupon Siren"},{"id":"1108122043","district_id":"1108122","postal_code":"24387","name":"Blang Trieng"},{"id":"1108122044","district_id":"1108122","postal_code":"24387","name":"Alue Sijuek"},{"id":"1108122045","district_id":"1108122","postal_code":"24387","name":"Hagu"},{"id":"1108122046","district_id":"1108122","postal_code":"24387","name":"Teupin Mee"},{"id":"1108122047","district_id":"1108122","postal_code":"24387","name":"Plu Pakam"},{"id":"1108122048","district_id":"1108122","postal_code":"24387","name":"Blang Pie"},{"id":"1108122049","district_id":"1108122","postal_code":"24387","name":"Punti Seuleumak Barat"},{"id":"1108122050","district_id":"1108122","postal_code":"24387","name":"Serba Jaman Tunong"},{"id":"1108122051","district_id":"1108122","postal_code":"24387","name":"Leuhong"},{"id":"1108122052","district_id":"1108122","postal_code":"24387","name":"Blang"},{"id":"1108122053","district_id":"1108122","postal_code":"24387","name":"Tanjong Mesjid"},{"id":"1108122054","district_id":"1108122","postal_code":"24387","name":"Serba Jaman Baroh"},{"id":"1108122055","district_id":"1108122","postal_code":"24387","name":"Cot Barat"},{"id":"1108122056","district_id":"1108122","postal_code":"24387","name":"Matang Baloy"},{"id":"1108122057","district_id":"1108122","postal_code":"24387","name":"Buket Makarti"}]