[{"id":"1109062001","district_id":"1109062","postal_code":"23892","name":"Layabaung"},{"id":"1109062002","district_id":"1109062","postal_code":"23892","name":"Sembilan"},{"id":"1109062003","district_id":"1109062","postal_code":"23892","name":"Sigulai"},{"id":"1109062004","district_id":"1109062","postal_code":"23892","name":"Sinar Bahagia"},{"id":"1109062005","district_id":"1109062","postal_code":"23892","name":"Lamamek"},{"id":"1109062006","district_id":"1109062","postal_code":"23892","name":"Batu Ragi"},{"id":"1109062007","district_id":"1109062","postal_code":"23892","name":"Malasin"},{"id":"1109062008","district_id":"1109062","postal_code":"23892","name":"Babul Makmur"},{"id":"1109062009","district_id":"1109062","postal_code":"23892","name":"Amabaan"},{"id":"1109062010","district_id":"1109062","postal_code":"23892","name":"Miteum"},{"id":"1109062011","district_id":"1109062","postal_code":"23892","name":"Lhok Bikhau"},{"id":"1109062012","district_id":"1109062","postal_code":"23892","name":"Ujung Harapan"},{"id":"1109062013","district_id":"1109062","postal_code":"23892","name":"Sanggiran"},{"id":"1109062014","district_id":"1109062","postal_code":"23892","name":"Lhok Makmur"}]