[{"id":"1111012001","district_id":"1111012","postal_code":"24264","name":"Keude Aceh"},{"id":"1111012002","district_id":"1111012","postal_code":"24264","name":"Sangso"},{"id":"1111012003","district_id":"1111012","postal_code":"24264","name":"Pante Rheng"},{"id":"1111012004","district_id":"1111012","postal_code":"24264","name":"Meuliek"},{"id":"1111012005","district_id":"1111012","postal_code":"24264","name":"Namploh Baro"},{"id":"1111012006","district_id":"1111012","postal_code":"24264","name":"Namploh Manyang"},{"id":"1111012007","district_id":"1111012","postal_code":"24264","name":"Namploh Blanggarang"},{"id":"1111012008","district_id":"1111012","postal_code":"24264","name":"Namploh Krueng"},{"id":"1111012009","district_id":"1111012","postal_code":"24264","name":"Namploh Papeun"},{"id":"1111012010","district_id":"1111012","postal_code":"24264","name":"Meunasah Lueng"},{"id":"1111012011","district_id":"1111012","postal_code":"24264","name":"Lhok Seumira"},{"id":"1111012012","district_id":"1111012","postal_code":"24264","name":"Ulee Jeumatan"},{"id":"1111012013","district_id":"1111012","postal_code":"24264","name":"Lancok"},{"id":"1111012014","district_id":"1111012","postal_code":"24264","name":"Paloh"},{"id":"1111012015","district_id":"1111012","postal_code":"24264","name":"Mesjid Baro"},{"id":"1111012016","district_id":"1111012","postal_code":"24264","name":"Batee Iliek"},{"id":"1111012017","district_id":"1111012","postal_code":"24264","name":"Pulo Baroh"},{"id":"1111012018","district_id":"1111012","postal_code":"24264","name":"Matang Wakeuh"},{"id":"1111012019","district_id":"1111012","postal_code":"24264","name":"Darussalam"},{"id":"1111012020","district_id":"1111012","postal_code":"24264","name":"Matang Jereung"},{"id":"1111012021","district_id":"1111012","postal_code":"24264","name":"Matang"},{"id":"1111012022","district_id":"1111012","postal_code":"24264","name":"Cot Mane"},{"id":"1111012023","district_id":"1111012","postal_code":"24264","name":"Alue Barat"},{"id":"1111012024","district_id":"1111012","postal_code":"24264","name":"Cot Siren"},{"id":"1111012025","district_id":"1111012","postal_code":"24264","name":"Ulee Alue"},{"id":"1111012026","district_id":"1111012","postal_code":"24264","name":"Pineung Siribee"},{"id":"1111012027","district_id":"1111012","postal_code":"24264","name":"Gampong Baro"},{"id":"1111012028","district_id":"1111012","postal_code":"24264","name":"Kandang"},{"id":"1111012029","district_id":"1111012","postal_code":"24264","name":"Gampong Putoh"},{"id":"1111012030","district_id":"1111012","postal_code":"24264","name":"Mideun Jok"},{"id":"1111012031","district_id":"1111012","postal_code":"24264","name":"Mideun Geudong"},{"id":"1111012032","district_id":"1111012","postal_code":"24264","name":"Lueng Keubeu"},{"id":"1111012033","district_id":"1111012","postal_code":"24264","name":"Glumpang Bungkok"},{"id":"1111012034","district_id":"1111012","postal_code":"24264","name":"Glumpang Meulum"},{"id":"1111012035","district_id":"1111012","postal_code":"24264","name":"Cot Meurak Baroh"},{"id":"1111012036","district_id":"1111012","postal_code":"24264","name":"Cot Meurak Blang"},{"id":"1111012037","district_id":"1111012","postal_code":"24264","name":"Meurah"},{"id":"1111012038","district_id":"1111012","postal_code":"24264","name":"Ulee Ue"},{"id":"1111012039","district_id":"1111012","postal_code":"24264","name":"Matang Teungoh"},{"id":"1111012040","district_id":"1111012","postal_code":"24264","name":"Tanjong Baro"},{"id":"1111012041","district_id":"1111012","postal_code":"24264","name":"Angkieng Barat"},{"id":"1111012042","district_id":"1111012","postal_code":"24264","name":"Meunasah Lincah"},{"id":"1111012043","district_id":"1111012","postal_code":"24264","name":"Meunasah Lancok"},{"id":"1111012044","district_id":"1111012","postal_code":"24264","name":"Meunasah Puuk"},{"id":"1111012045","district_id":"1111012","postal_code":"24264","name":"Tonjongan Idem"},{"id":"1111012084","district_id":"1111012","postal_code":"24264","name":"Geulumpang Payong"}]