[{"id":"1111092001","district_id":"1111092","postal_code":"24250","name":"Juli Cot Mesjid"},{"id":"1111092002","district_id":"1111092","postal_code":"24250","name":"Juli Seutuy"},{"id":"1111092003","district_id":"1111092","postal_code":"24250","name":"Juli Tambo Tanjong"},{"id":"1111092004","district_id":"1111092","postal_code":"24250","name":"Juli Keude Dua"},{"id":"1111092005","district_id":"1111092","postal_code":"24250","name":"Juli Tgk Dilampoh"},{"id":"1111092006","district_id":"1111092","postal_code":"24250","name":"Glumpang Meu Jim Jim"},{"id":"1111092007","district_id":"1111092","postal_code":"24250","name":"Alue Unoe"},{"id":"1111092008","district_id":"1111092","postal_code":"24250","name":"Batee Raya"},{"id":"1111092009","district_id":"1111092","postal_code":"24250","name":"Seuneubok Peureraden"},{"id":"1111092010","district_id":"1111092","postal_code":"24250","name":"Juli Mee Teungoh"},{"id":"1111092011","district_id":"1111092","postal_code":"24250","name":"Seuneubok Gunci"},{"id":"1111092012","district_id":"1111092","postal_code":"24250","name":"Mane Meujingki"},{"id":"1111092013","district_id":"1111092","postal_code":"24250","name":"Abeuk Budi"},{"id":"1111092014","district_id":"1111092","postal_code":"24250","name":"Blang Ketumba"},{"id":"1111092015","district_id":"1111092","postal_code":"24250","name":"Pante Baro"},{"id":"1111092016","district_id":"1111092","postal_code":"24250","name":"Beunyot"},{"id":"1111092017","district_id":"1111092","postal_code":"24250","name":"Paya Cut"},{"id":"1111092018","district_id":"1111092","postal_code":"24250","name":"Teupin Mane"},{"id":"1111092019","district_id":"1111092","postal_code":"24250","name":"Simpang Jaya"},{"id":"1111092020","district_id":"1111092","postal_code":"24250","name":"Krueng Simpo"},{"id":"1111092021","district_id":"1111092","postal_code":"24250","name":"Suka Tani"},{"id":"1111092022","district_id":"1111092","postal_code":"24250","name":"Juli Seupeng"},{"id":"1111092023","district_id":"1111092","postal_code":"24250","name":"Bukit Mulia"},{"id":"1111092024","district_id":"1111092","postal_code":"24250","name":"Juli Meunasah Tambo"},{"id":"1111092025","district_id":"1111092","postal_code":"24250","name":"Alue Rambong"},{"id":"1111092026","district_id":"1111092","postal_code":"24250","name":"Juli Meunasah Teungoh"},{"id":"1111092027","district_id":"1111092","postal_code":"24250","name":"Juli Payaru"},{"id":"1111092028","district_id":"1111092","postal_code":"24250","name":"Paseh"},{"id":"1111092029","district_id":"1111092","postal_code":"24250","name":"Juli Cot Meurak"},{"id":"1111092030","district_id":"1111092","postal_code":"24250","name":"Pante Peusangan"},{"id":"1111092031","district_id":"1111092","postal_code":"24250","name":"Bale Panah"},{"id":"1111092032","district_id":"1111092","postal_code":"24250","name":"Ranto Panyang"},{"id":"1111092033","district_id":"1111092","postal_code":"24250","name":"Simpang Mulia"},{"id":"1111092034","district_id":"1111092","postal_code":"24250","name":"Seuneubok Dalam"},{"id":"1111092035","district_id":"1111092","postal_code":"24250","name":"Juli Meunasah Jok"},{"id":"1111092036","district_id":"1111092","postal_code":"24250","name":"Juli Uruek Anoe"}]