[{"id":"1112082001","district_id":"1112082","postal_code":"23769","name":"Baru"},{"id":"1112082002","district_id":"1112082","postal_code":"23769","name":"Alue Rambot"},{"id":"1112082003","district_id":"1112082","postal_code":"23769","name":"Kuta Jeumpa"},{"id":"1112082004","district_id":"1112082","postal_code":"23769","name":"Alue Sungai Pinang"},{"id":"1112082005","district_id":"1112082","postal_code":"23769","name":"Cot Mane"},{"id":"1112082006","district_id":"1112082","postal_code":"23769","name":"Ladang Neubok"},{"id":"1112082007","district_id":"1112082","postal_code":"23769","name":"Asoe Nanggroe"},{"id":"1112082008","district_id":"1112082","postal_code":"23769","name":"Padang Geulumpang"},{"id":"1112082009","district_id":"1112082","postal_code":"23769","name":"Ikue Lhung"},{"id":"1112082010","district_id":"1112082","postal_code":"23769","name":"Kuta Makmur"},{"id":"1112082011","district_id":"1112082","postal_code":"23769","name":"Jeumpa Barat"},{"id":"1112082012","district_id":"1112082","postal_code":"23769","name":"Alue Seulaseh"}]