[{"id":"1115022001","district_id":"1115022","postal_code":"23671","name":"Jeuram"},{"id":"1115022002","district_id":"1115022","postal_code":"23671","name":"Pante Ceureumen"},{"id":"1115022003","district_id":"1115022","postal_code":"23671","name":"Kuta Baro Jeuram"},{"id":"1115022004","district_id":"1115022","postal_code":"23671","name":"Parom"},{"id":"1115022005","district_id":"1115022","postal_code":"23671","name":"Peureulak"},{"id":"1115022006","district_id":"1115022","postal_code":"23671","name":"Kuta Sayeh"},{"id":"1115022007","district_id":"1115022","postal_code":"23671","name":"Blang Baro"},{"id":"1115022008","district_id":"1115022","postal_code":"23671","name":"Padang"},{"id":"1115022009","district_id":"1115022","postal_code":"23671","name":"Alue Tho"},{"id":"1115022010","district_id":"1115022","postal_code":"23671","name":"Lhok Parom"},{"id":"1115022011","district_id":"1115022","postal_code":"23671","name":"Sapek"},{"id":"1115022012","district_id":"1115022","postal_code":"23671","name":"Alue Dodok"},{"id":"1115022013","district_id":"1115022","postal_code":"23671","name":"Cot Kumbang"},{"id":"1115022014","district_id":"1115022","postal_code":"23671","name":"Kuta Kumbang"},{"id":"1115022015","district_id":"1115022","postal_code":"23671","name":"Nigan"},{"id":"1115022016","district_id":"1115022","postal_code":"23671","name":"Gampong Cot"},{"id":"1115022017","district_id":"1115022","postal_code":"23671","name":"Blang Pateuk"},{"id":"1115022018","district_id":"1115022","postal_code":"23671","name":"Blang Puuk Nigan"},{"id":"1115022019","district_id":"1115022","postal_code":"23671","name":"Krueng Ceh"},{"id":"1115022020","district_id":"1115022","postal_code":"23671","name":"Bantan"},{"id":"1115022021","district_id":"1115022","postal_code":"23671","name":"Cot Lhe-lhe"},{"id":"1115022022","district_id":"1115022","postal_code":"23671","name":"Rambong Rayeuk"},{"id":"1115022023","district_id":"1115022","postal_code":"23671","name":"Paya Udeung"},{"id":"1115022024","district_id":"1115022","postal_code":"23671","name":"Alue Buloh"},{"id":"1115022025","district_id":"1115022","postal_code":"23671","name":"Kuta Paya"},{"id":"1115022026","district_id":"1115022","postal_code":"23671","name":"Krueng Ceuko"},{"id":"1115022027","district_id":"1115022","postal_code":"23671","name":"Lhok Padang"},{"id":"1115022028","district_id":"1115022","postal_code":"23671","name":"Kuta Aceh"},{"id":"1115022029","district_id":"1115022","postal_code":"23671","name":"Krueng Mangkom"},{"id":"1115022030","district_id":"1115022","postal_code":"23671","name":"Latong"},{"id":"1115022031","district_id":"1115022","postal_code":"23671","name":"Paya Undan"},{"id":"1115022032","district_id":"1115022","postal_code":"23671","name":"Blang Puuk Kulu"},{"id":"1115022033","district_id":"1115022","postal_code":"23671","name":"Blang Murong"},{"id":"1115022034","district_id":"1115022","postal_code":"23671","name":"Kulu"},{"id":"1115022035","district_id":"1115022","postal_code":"23671","name":"Rambong Cut"}]