[{"id":"1118022001","district_id":"1118022","postal_code":"24187","name":"Dayah Baroh"},{"id":"1118022002","district_id":"1118022","postal_code":"24187","name":"Reuleut"},{"id":"1118022003","district_id":"1118022","postal_code":"24187","name":"Sambungan Baro"},{"id":"1118022004","district_id":"1118022","postal_code":"24187","name":"Tijien Husen"},{"id":"1118022005","district_id":"1118022","postal_code":"24187","name":"Meunasah Krueng"},{"id":"1118022006","district_id":"1118022","postal_code":"24187","name":"Geulanggang"},{"id":"1118022007","district_id":"1118022","postal_code":"24187","name":"Mesjid Ulim Baroh"},{"id":"1118022008","district_id":"1118022","postal_code":"24187","name":"Pulo Lhok"},{"id":"1118022009","district_id":"1118022","postal_code":"24187","name":"Dayah Leubue"},{"id":"1118022010","district_id":"1118022","postal_code":"24187","name":"Tijien Daboh"},{"id":"1118022011","district_id":"1118022","postal_code":"24187","name":"Keude Ulim"},{"id":"1118022012","district_id":"1118022","postal_code":"24187","name":"Meunasah Bueng"},{"id":"1118022013","district_id":"1118022","postal_code":"24187","name":"Balee Ulim"},{"id":"1118022014","district_id":"1118022","postal_code":"24187","name":"Grong Grong Capa"},{"id":"1118022015","district_id":"1118022","postal_code":"24187","name":"Meunasah Kumbang"},{"id":"1118022016","district_id":"1118022","postal_code":"24187","name":"Tanjong Ulim"},{"id":"1118022017","district_id":"1118022","postal_code":"24187","name":"Mesjid Ulim Tunong"},{"id":"1118022018","district_id":"1118022","postal_code":"24187","name":"Pulo Ulim"},{"id":"1118022019","district_id":"1118022","postal_code":"24187","name":"Siblah Coh"},{"id":"1118022020","district_id":"1118022","postal_code":"24187","name":"Bidok"},{"id":"1118022021","district_id":"1118022","postal_code":"24187","name":"Pantang Cot Baloi"},{"id":"1118022022","district_id":"1118022","postal_code":"24187","name":"Meunasah Pupu"},{"id":"1118022023","district_id":"1118022","postal_code":"24187","name":"Nangrhoe Barat"},{"id":"1118022024","district_id":"1118022","postal_code":"24187","name":"Nangrhoe Timu"},{"id":"1118022025","district_id":"1118022","postal_code":"24187","name":"Meunasah Mesjid"},{"id":"1118022026","district_id":"1118022","postal_code":"24187","name":"Blang Rheue"},{"id":"1118022027","district_id":"1118022","postal_code":"24187","name":"Cot Seutui"},{"id":"1118022028","district_id":"1118022","postal_code":"24187","name":"Lhok Gajah"},{"id":"1118022029","district_id":"1118022","postal_code":"24187","name":"Alue Keumiki"},{"id":"1118022030","district_id":"1118022","postal_code":"24187","name":"Blang Cari"}]