[{"id":"1202152001","district_id":"1202152","postal_code":"22476","name":"Hutanagodang"},{"id":"1202152002","district_id":"1202152","postal_code":"22476","name":"Unte Mungkur"},{"id":"1202152003","district_id":"1202152","postal_code":"22476","name":"Hutalontung"},{"id":"1202152004","district_id":"1202152","postal_code":"22476","name":"Hutaginjang"},{"id":"1202152005","district_id":"1202152","postal_code":"22476","name":"Dolok Matumbur"},{"id":"1202152006","district_id":"1202152","postal_code":"22476","name":"Mariba Ni Aek"},{"id":"1202152007","district_id":"1202152","postal_code":"22476","name":"Sampuran"},{"id":"1202152008","district_id":"1202152","postal_code":"22476","name":"Silando"},{"id":"1202152009","district_id":"1202152","postal_code":"22476","name":"Sibandang"},{"id":"1202152010","district_id":"1202152","postal_code":"22476","name":"Simatupang"},{"id":"1202152011","district_id":"1202152","postal_code":"22476","name":"Silali Toruan"},{"id":"1202152012","district_id":"1202152","postal_code":"22476","name":"Batubinumbun"},{"id":"1202152013","district_id":"1202152","postal_code":"22476","name":"Sitanggor"},{"id":"1202152014","district_id":"1202152","postal_code":"22476","name":"Papande"},{"id":"1202152015","district_id":"1202152","postal_code":"22476","name":"Aritonang"}]