[{"id":"1204062006","district_id":"1204062","postal_code":"22871","name":"Hiliotalua"},{"id":"1204062008","district_id":"1204062","postal_code":"22871","name":"Akhelauwe"},{"id":"1204062016","district_id":"1204062","postal_code":"22871","name":"Hilisebua"},{"id":"1204062017","district_id":"1204062","postal_code":"22871","name":"Somi"},{"id":"1204062018","district_id":"1204062","postal_code":"22871","name":"Sirete"},{"id":"1204062019","district_id":"1204062","postal_code":"22871","name":"Heliweto Gido"},{"id":"1204062020","district_id":"1204062","postal_code":"22871","name":"Loloanaa Gido"},{"id":"1204062022","district_id":"1204062","postal_code":"22871","name":"Sisobahili"},{"id":"1204062023","district_id":"1204062","postal_code":"22871","name":"Lahemo"},{"id":"1204062024","district_id":"1204062","postal_code":"22871","name":"Ladea"},{"id":"1204062027","district_id":"1204062","postal_code":"22871","name":"Umbu"},{"id":"1204062028","district_id":"1204062","postal_code":"22871","name":"Soewe"},{"id":"1204062029","district_id":"1204062","postal_code":"22871","name":"Lolozasai"},{"id":"1204062030","district_id":"1204062","postal_code":"22871","name":"Lazara Idanoi"},{"id":"1204062050","district_id":"1204062","postal_code":"22871","name":"Lasela"},{"id":"1204062051","district_id":"1204062","postal_code":"22871","name":"Ladea Orahua"},{"id":"1204062052","district_id":"1204062","postal_code":"22871","name":"Tulumbaho Saloo"},{"id":"1204062053","district_id":"1204062","postal_code":"22871","name":"Nifoloo Lauru"},{"id":"1204062054","district_id":"1204062","postal_code":"22871","name":"Hilizoi"},{"id":"1204062055","district_id":"1204062","postal_code":"22871","name":"Somi Botogoo"},{"id":"1204062056","district_id":"1204062","postal_code":"22871","name":"Olindrawa Sisarahili"}]