[{"id":"1205022002","district_id":"1205022","postal_code":"20777","name":"Perk. Tj. Keliling"},{"id":"1205022004","district_id":"1205022","postal_code":"20777","name":"Perk.gelugur Langkat"},{"id":"1205022005","district_id":"1205022","postal_code":"20777","name":"Perkebunan Tambunan"},{"id":"1205022006","district_id":"1205022","postal_code":"20777","name":"Perkebunan Bandar Telu"},{"id":"1205022008","district_id":"1205022","postal_code":"20777","name":"Naman Jahe"},{"id":"1205022009","district_id":"1205022","postal_code":"20777","name":"Turangi"},{"id":"1205022010","district_id":"1205022","postal_code":"20777","name":"Ujung Teran"},{"id":"1205022011","district_id":"1205022","postal_code":"20777","name":"Pamah Tambunan"},{"id":"1205022014","district_id":"1205022","postal_code":"20777","name":"Minta Kasih"},{"id":"1205022019","district_id":"1205022","postal_code":"20777","name":"Ujung Bandar"},{"id":"1205022020","district_id":"1205022","postal_code":"20777","name":"Lau Tepu"},{"id":"1205022021","district_id":"1205022","postal_code":"20777","name":"Parangguam"},{"id":"1205022023","district_id":"1205022","postal_code":"20777","name":"Ponco Warno"},{"id":"1205022024","district_id":"1205022","postal_code":"20777","name":"Adin Tengah"},{"id":"1205022025","district_id":"1205022","postal_code":"20777","name":"Lau Lugur"},{"id":"1205022026","district_id":"1205022","postal_code":"20777","name":"Pancur Ido"}]