[{"id":"1205032002","district_id":"1205032","postal_code":"20772","name":"Dalan Naman"},{"id":"1205032003","district_id":"1205032","postal_code":"20772","name":"Balai Kasih"},{"id":"1205032004","district_id":"1205032","postal_code":"20772","name":"Bekiung"},{"id":"1205032005","district_id":"1205032","postal_code":"20772","name":"Blankahan"},{"id":"1205032006","district_id":"1205032","postal_code":"20772","name":"Besadi"},{"id":"1205032007","district_id":"1205032","postal_code":"20772","name":"Beruam"},{"id":"1205032009","district_id":"1205032","postal_code":"20772","name":"Raja Tengah"},{"id":"1205032011","district_id":"1205032","postal_code":"20772","name":"Namo Mbelin"},{"id":"1205032012","district_id":"1205032","postal_code":"20772","name":"Parit Bindu"},{"id":"1205032013","district_id":"1205032","postal_code":"20772","name":"Sei Penjara"},{"id":"1205032015","district_id":"1205032","postal_code":"20772","name":"Perkebunan Bekiun"},{"id":"1205032016","district_id":"1205032","postal_code":"20772","name":"Garunggang"},{"id":"1205032017","district_id":"1205032","postal_code":"20772","name":"Suka Damai"},{"id":"1205032018","district_id":"1205032","postal_code":"20772","name":"Sido Makmur"}]