[{"id":"1206122005","district_id":"1206122","postal_code":"22150","name":"Kutatengah"},{"id":"1206122006","district_id":"1206122","postal_code":"22150","name":"Tigapancur"},{"id":"1206122007","district_id":"1206122","postal_code":"22150","name":"Pintumbesi"},{"id":"1206122009","district_id":"1206122","postal_code":"22150","name":"Gamber"},{"id":"1206122012","district_id":"1206122","postal_code":"22150","name":"Sirumbia"},{"id":"1206122014","district_id":"1206122","postal_code":"22150","name":"Ndokumsiroga"},{"id":"1206122016","district_id":"1206122","postal_code":"22150","name":"Linggajulu"},{"id":"1206122017","district_id":"1206122","postal_code":"22150","name":"Gajah"},{"id":"1206122018","district_id":"1206122","postal_code":"22150","name":"Lingga"},{"id":"1206122019","district_id":"1206122","postal_code":"22150","name":"Nangbelawan"},{"id":"1206122022","district_id":"1206122","postal_code":"22150","name":"Beganding"},{"id":"1206122024","district_id":"1206122","postal_code":"22150","name":"Torong"},{"id":"1206122025","district_id":"1206122","postal_code":"22150","name":"Berastepu"},{"id":"1206122026","district_id":"1206122","postal_code":"22150","name":"Surbakti"},{"id":"1206122028","district_id":"1206122","postal_code":"22150","name":"Jeraya"},{"id":"1206122030","district_id":"1206122","postal_code":"22150","name":"Perteguhen"},{"id":"1206122035","district_id":"1206122","postal_code":"22150","name":"Bulanbaru"}]