[{"id":"1207062001","district_id":"1207062","postal_code":"20356","name":"Deli Tua"},{"id":"1207062002","district_id":"1207062","postal_code":"20356","name":"Jati Kesuma"},{"id":"1207062003","district_id":"1207062","postal_code":"20356","name":"Namo Rambe"},{"id":"1207062004","district_id":"1207062","postal_code":"20356","name":"Gunung Kelawas"},{"id":"1207062005","district_id":"1207062","postal_code":"20356","name":"Ujung Labuhan"},{"id":"1207062006","district_id":"1207062","postal_code":"20356","name":"Lubang Ido"},{"id":"1207062007","district_id":"1207062","postal_code":"20356","name":"Siluelue"},{"id":"1207062008","district_id":"1207062","postal_code":"20356","name":"Timbang Lawan"},{"id":"1207062009","district_id":"1207062","postal_code":"20356","name":"Batu Mbelin"},{"id":"1207062010","district_id":"1207062","postal_code":"20356","name":"Namo Batang"},{"id":"1207062011","district_id":"1207062","postal_code":"20356","name":"Tanjung Selamat"},{"id":"1207062012","district_id":"1207062","postal_code":"20356","name":"Bekukul"},{"id":"1207062013","district_id":"1207062","postal_code":"20356","name":"Namo Pakam"},{"id":"1207062014","district_id":"1207062","postal_code":"20356","name":"Sukamulia Hilir"},{"id":"1207062015","district_id":"1207062","postal_code":"20356","name":"Sukamulia Hulu"},{"id":"1207062016","district_id":"1207062","postal_code":"20356","name":"Rumah Mbacang"},{"id":"1207062017","district_id":"1207062","postal_code":"20356","name":"Cinta Rakyat"},{"id":"1207062018","district_id":"1207062","postal_code":"20356","name":"Batu Penjemuran"},{"id":"1207062019","district_id":"1207062","postal_code":"20356","name":"Kuta Tengah"},{"id":"1207062020","district_id":"1207062","postal_code":"20356","name":"Namo Landur"},{"id":"1207062021","district_id":"1207062","postal_code":"20356","name":"Gunung Berita"},{"id":"1207062022","district_id":"1207062","postal_code":"20356","name":"Tangkahan"},{"id":"1207062023","district_id":"1207062","postal_code":"20356","name":"Uruk Gedang"},{"id":"1207062024","district_id":"1207062","postal_code":"20356","name":"Rumah Keben"},{"id":"1207062025","district_id":"1207062","postal_code":"20356","name":"Namo Pinang"},{"id":"1207062026","district_id":"1207062","postal_code":"20356","name":"Sudirejo"},{"id":"1207062027","district_id":"1207062","postal_code":"20356","name":"Jaba"},{"id":"1207062028","district_id":"1207062","postal_code":"20356","name":"Kuta Tualah"},{"id":"1207062029","district_id":"1207062","postal_code":"20356","name":"Kwala Simeme"},{"id":"1207062030","district_id":"1207062","postal_code":"20356","name":"Batu Gemuk"},{"id":"1207062031","district_id":"1207062","postal_code":"20356","name":"Lau Mulgab"},{"id":"1207062032","district_id":"1207062","postal_code":"20356","name":"Batu Rejo"},{"id":"1207062033","district_id":"1207062","postal_code":"20356","name":"Salang Tungir"},{"id":"1207062034","district_id":"1207062","postal_code":"20356","name":"Namo Mbaru"},{"id":"1207062035","district_id":"1207062","postal_code":"20356","name":"Rimo Mungkur"},{"id":"1207062036","district_id":"1207062","postal_code":"20356","name":"Namo Mbelin"}]