[{"id":"1208262001","district_id":"1208262","postal_code":"21168","name":"Cingkes"},{"id":"1208262002","district_id":"1208262","postal_code":"21168","name":"Paribuan"},{"id":"1208262003","district_id":"1208262","postal_code":"21168","name":"Saran Padang"},{"id":"1208262004","district_id":"1208262","postal_code":"21168","name":"Mariah Dolok"},{"id":"1208262005","district_id":"1208262","postal_code":"21168","name":"Marubun Lokkung"},{"id":"1208262006","district_id":"1208262","postal_code":"21168","name":"Dolok Mariah"},{"id":"1208262007","district_id":"1208262","postal_code":"21168","name":"Bawang"},{"id":"1208262008","district_id":"1208262","postal_code":"21168","name":"Huta Saing"},{"id":"1208262009","district_id":"1208262","postal_code":"21168","name":"Togur"},{"id":"1208262010","district_id":"1208262","postal_code":"21168","name":"Perasmian"},{"id":"1208262011","district_id":"1208262","postal_code":"21168","name":"Tanjung Purba"},{"id":"1208262012","district_id":"1208262","postal_code":"21168","name":"Silau Marawan"},{"id":"1208262013","district_id":"1208262","postal_code":"21168","name":"Bosi Sinumbah"},{"id":"1208262014","district_id":"1208262","postal_code":"21168","name":"Ujung Bawang"}]