[{"id":"1211062001","district_id":"1211062","postal_code":"22253","name":"Sukadame"},{"id":"1211062002","district_id":"1211062","postal_code":"22253","name":"Gunung Tua"},{"id":"1211062003","district_id":"1211062","postal_code":"22253","name":"Harapan"},{"id":"1211062004","district_id":"1211062","postal_code":"22253","name":"Lau Primbon"},{"id":"1211062005","district_id":"1211062","postal_code":"22253","name":"Kuta Gamber"},{"id":"1211062006","district_id":"1211062","postal_code":"22253","name":"Kempawa"},{"id":"1211062007","district_id":"1211062","postal_code":"22253","name":"Tanah Pinem"},{"id":"1211062008","district_id":"1211062","postal_code":"22253","name":"Pamah"},{"id":"1211062009","district_id":"1211062","postal_code":"22253","name":"Kuta Buluh"},{"id":"1211062010","district_id":"1211062","postal_code":"22253","name":"Pasir Tengah"},{"id":"1211062011","district_id":"1211062","postal_code":"22253","name":"Renun"},{"id":"1211062012","district_id":"1211062","postal_code":"22253","name":"Lau Tawar"},{"id":"1211062013","district_id":"1211062","postal_code":"22253","name":"Balandua"},{"id":"1211062014","district_id":"1211062","postal_code":"22253","name":"Mangan Molih"},{"id":"1211062015","district_id":"1211062","postal_code":"22253","name":"Liang Jering"},{"id":"1211062016","district_id":"1211062","postal_code":"22253","name":"Alur Subur"},{"id":"1211062017","district_id":"1211062","postal_code":"22253","name":"Lau Njuhar I"},{"id":"1211062018","district_id":"1211062","postal_code":"22253","name":"Pasir Mbelang"},{"id":"1211062019","district_id":"1211062","postal_code":"22253","name":"Sinar Pagi"}]