[{"id":"1212012003","district_id":"1212012","postal_code":"22312","name":"Hutanamora"},{"id":"1212012004","district_id":"1212012","postal_code":"22312","name":"Hutagaol Peatalun"},{"id":"1212012005","district_id":"1212012","postal_code":"22312","name":"Hinalang Bagasan"},{"id":"1212012006","district_id":"1212012","postal_code":"22312","name":"Matio"},{"id":"1212012007","district_id":"1212012","postal_code":"22312","name":"Lumban Pea"},{"id":"1212012008","district_id":"1212012","postal_code":"22312","name":"Hutabulu Mejan"},{"id":"1212012010","district_id":"1212012","postal_code":"22312","name":"Lumban Gaol"},{"id":"1212012011","district_id":"1212012","postal_code":"22312","name":"Parsuratan"},{"id":"1212012012","district_id":"1212012","postal_code":"22312","name":"Baruara"},{"id":"1212012013","district_id":"1212012","postal_code":"22312","name":"Aek Bolon Julu"},{"id":"1212012014","district_id":"1212012","postal_code":"22312","name":"Sibolahotang Sas"},{"id":"1212012015","district_id":"1212012","postal_code":"22312","name":"Lumban Bulbul"},{"id":"1212012016","district_id":"1212012","postal_code":"22312","name":"Sianipar Sihailhail"},{"id":"1212012017","district_id":"1212012","postal_code":"22312","name":"Silalahi Pagar Batu"},{"id":"1212012018","district_id":"1212012","postal_code":"22312","name":"Lumban Silintong"},{"id":"1212012019","district_id":"1212012","postal_code":"22312","name":"Saribu Raja Janji Maria"},{"id":"1212012022","district_id":"1212012","postal_code":"22312","name":"Longat"},{"id":"1212012023","district_id":"1212012","postal_code":"22316","name":"Balige Ii"},{"id":"1212012024","district_id":"1212012","postal_code":"22312","name":"Aek Bolon Jae"},{"id":"1212012025","district_id":"1212012","postal_code":"22312","name":"Lumban Gorat"},{"id":"1212012026","district_id":"1212012","postal_code":"22312","name":"Sibuntuon"},{"id":"1212012027","district_id":"1212012","postal_code":"22312","name":"Siboruon"},{"id":"1212012028","district_id":"1212012","postal_code":"22312","name":"Paindoan"},{"id":"1212012029","district_id":"1212012","postal_code":"22312","name":"Bonan Dolok I"},{"id":"1212012030","district_id":"1212012","postal_code":"22312","name":"Bonan Dolok Ii"},{"id":"1212012031","district_id":"1212012","postal_code":"22312","name":"Bonan Dolok Iii"},{"id":"1212012032","district_id":"1212012","postal_code":"22312","name":"Huta Dame"},{"id":"1212012040","district_id":"1212012","postal_code":"22312","name":"Lumban Pea Timur"},{"id":"1212012041","district_id":"1212012","postal_code":"22312","name":"Tambunan Sunge"}]