[{"id":"1214052001","district_id":"1214052","postal_code":"22882","name":"Hiliotalua"},{"id":"1214052002","district_id":"1214052","postal_code":"22882","name":"Bawodobara"},{"id":"1214052003","district_id":"1214052","postal_code":"22882","name":"Bawoamahelato"},{"id":"1214052004","district_id":"1214052","postal_code":"22882","name":"Bawoomasio"},{"id":"1214052005","district_id":"1214052","postal_code":"22882","name":"Loboi"},{"id":"1214052006","district_id":"1214052","postal_code":"22882","name":"Hiliamaodula"},{"id":"1214052007","district_id":"1214052","postal_code":"22882","name":"Baruyu Lasara"},{"id":"1214052008","district_id":"1214052","postal_code":"22882","name":"Sifitu Ewali"},{"id":"1214052009","district_id":"1214052","postal_code":"22882","name":"Rapa-rapa Melayu"},{"id":"1214052010","district_id":"1214052","postal_code":"22882","name":"Sinauru"},{"id":"1214052011","district_id":"1214052","postal_code":"22882","name":"Siofa Ewali"},{"id":"1214052012","district_id":"1214052","postal_code":"22882","name":"Simaluaya"},{"id":"1214052013","district_id":"1214052","postal_code":"22882","name":"Silima Ewali"},{"id":"1214052014","district_id":"1214052","postal_code":"22882","name":"Sidua Ewali"},{"id":"1214052027","district_id":"1214052","postal_code":"22882","name":"Balogia"},{"id":"1214052029","district_id":"1214052","postal_code":"22882","name":"Lasonde"},{"id":"1214052041","district_id":"1214052","postal_code":"22882","name":"Koto"},{"id":"1214052048","district_id":"1214052","postal_code":"22882","name":"Onaya"},{"id":"1214052049","district_id":"1214052","postal_code":"22882","name":"Sisarahili"},{"id":"1214052051","district_id":"1214052","postal_code":"22882","name":"Sebuasi"},{"id":"1214052054","district_id":"1214052","postal_code":"22882","name":"Orahili"}]