[{"id":"1214262001","district_id":"1214262","postal_code":"22874","name":"Sifitubanua"},{"id":"1214262002","district_id":"1214262","postal_code":"22874","name":"Siwalu Banua"},{"id":"1214262003","district_id":"1214262","postal_code":"22874","name":"Sitolu Banua"},{"id":"1214262004","district_id":"1214262","postal_code":"22874","name":"Silima Banua"},{"id":"1214262005","district_id":"1214262","postal_code":"22874","name":"Mehaga"},{"id":"1214262006","district_id":"1214262","postal_code":"22874","name":"Sihareo"},{"id":"1214262007","district_id":"1214262","postal_code":"22874","name":"Golambanua Ii"},{"id":"1214262008","district_id":"1214262","postal_code":"22874","name":"Oladano"},{"id":"1214262009","district_id":"1214262","postal_code":"22874","name":"Fanedanu"},{"id":"1214262010","district_id":"1214262","postal_code":"22874","name":"Hiliorahua Tasua"},{"id":"1214262011","district_id":"1214262","postal_code":"22874","name":"Somambawa"},{"id":"1214262012","district_id":"1214262","postal_code":"22874","name":"Gabungan Tasua"},{"id":"1214262013","district_id":"1214262","postal_code":"22874","name":"Hilialawa"},{"id":"1214262014","district_id":"1214262","postal_code":"22874","name":"Sinar Susua"}]