[{"id":"1214062006","district_id":"1214062","postal_code":"22865","name":"Hiligeho"},{"id":"1214062007","district_id":"1214062","postal_code":"22865","name":"Hilitobara"},{"id":"1214062009","district_id":"1214062","postal_code":"22865","name":"Bawonifaoso"},{"id":"1214062010","district_id":"1214062","postal_code":"22865","name":"Bawozaua"},{"id":"1214062011","district_id":"1214062","postal_code":"22865","name":"Hiliganowo"},{"id":"1214062023","district_id":"1214062","postal_code":"22865","name":"Bawodobara"},{"id":"1214062024","district_id":"1214062","postal_code":"22865","name":"Bawolowalani"},{"id":"1214062025","district_id":"1214062","postal_code":"22865","name":"Hilisaootoniha"},{"id":"1214062026","district_id":"1214062","postal_code":"22865","name":"Hilisondrekha"},{"id":"1214062040","district_id":"1214062","postal_code":"22865","name":"Hiliamuri"},{"id":"1214062042","district_id":"1214062","postal_code":"22865","name":"Hilianaa"},{"id":"1214062043","district_id":"1214062","postal_code":"22865","name":"Hiliganowo Saloo"},{"id":"1214062044","district_id":"1214062","postal_code":"22865","name":"Ganowo Saua"},{"id":"1214062045","district_id":"1214062","postal_code":"22865","name":"Nanowa"},{"id":"1214062046","district_id":"1214062","postal_code":"22865","name":"Hililaza"}]