[{"id":"1214302001","district_id":"1214302","postal_code":"22885","name":"Siofa Banua Lorang"},{"id":"1214302002","district_id":"1214302","postal_code":"22885","name":"Silima Banua Marit"},{"id":"1214302003","district_id":"1214302","postal_code":"22885","name":"Zia Biang"},{"id":"1214302004","district_id":"1214302","postal_code":"22885","name":"Limo Biang"},{"id":"1214302005","district_id":"1214302","postal_code":"22885","name":"Memong"},{"id":"1214302006","district_id":"1214302","postal_code":"22885","name":"Bale-bale"},{"id":"1214302007","district_id":"1214302","postal_code":"22885","name":"Teluk Limo"},{"id":"1214302008","district_id":"1214302","postal_code":"22885","name":"Wawa"},{"id":"1214302009","district_id":"1214302","postal_code":"22885","name":"Marit Baru"},{"id":"1214302010","district_id":"1214302","postal_code":"22885","name":"Majino Lorang"},{"id":"1214302011","district_id":"1214302","postal_code":"22885","name":"Afore Gobo"},{"id":"1214302012","district_id":"1214302","postal_code":"22885","name":"Bale-bale Sibohou"}]