[{"id":"1218072001","district_id":"1218072","postal_code":"20993","name":"Nagaraja I"},{"id":"1218072002","district_id":"1218072","postal_code":"20993","name":"Panglong"},{"id":"1218072003","district_id":"1218072","postal_code":"20993","name":"Bandarawan"},{"id":"1218072004","district_id":"1218072","postal_code":"20993","name":"Gunung Para Ii"},{"id":"1218072005","district_id":"1218072","postal_code":"20993","name":"Limbong"},{"id":"1218072006","district_id":"1218072","postal_code":"20993","name":"Dolok Merawan"},{"id":"1218072007","district_id":"1218072","postal_code":"20993","name":"Paritokan"},{"id":"1218072008","district_id":"1218072","postal_code":"20993","name":"Kalembak"},{"id":"1218072009","district_id":"1218072","postal_code":"20993","name":"Afd. Vi Dolok Ilir"},{"id":"1218072010","district_id":"1218072","postal_code":"20993","name":"Pabatu I"},{"id":"1218072011","district_id":"1218072","postal_code":"20993","name":"Afd. Vii Dolok Ilir"},{"id":"1218072012","district_id":"1218072","postal_code":"20993","name":"Pabatu Ii"},{"id":"1218072013","district_id":"1218072","postal_code":"20993","name":"Mainu Tengah"},{"id":"1218072014","district_id":"1218072","postal_code":"20993","name":"Bahdamar"},{"id":"1218072015","district_id":"1218072","postal_code":"20993","name":"Pabatu Iii"},{"id":"1218072016","district_id":"1218072","postal_code":"20993","name":"Pabatu Vi"},{"id":"1218072017","district_id":"1218072","postal_code":"20993","name":"Korajim"}]