[{"id":"1218032001","district_id":"1218032","postal_code":"20997","name":"Sei Buluh"},{"id":"1218032002","district_id":"1218032","postal_code":"20997","name":"Liberia"},{"id":"1218032003","district_id":"1218032","postal_code":"20997","name":"Mata Pao"},{"id":"1218032004","district_id":"1218032","postal_code":"20997","name":"Pematang Setrak"},{"id":"1218032005","district_id":"1218032","postal_code":"20997","name":"Makmur"},{"id":"1218032006","district_id":"1218032","postal_code":"20997","name":"Pasar Baru"},{"id":"1218032007","district_id":"1218032","postal_code":"20997","name":"Pekan Sialang Buah"},{"id":"1218032008","district_id":"1218032","postal_code":"20997","name":"Pematang Guntung"},{"id":"1218032009","district_id":"1218032","postal_code":"20997","name":"Sialang Buah"},{"id":"1218032010","district_id":"1218032","postal_code":"20997","name":"Sentang"},{"id":"1218032011","district_id":"1218032","postal_code":"20997","name":"Bogak Besar"},{"id":"1218032012","district_id":"1218032","postal_code":"20997","name":"Pematang Kuala"}]