[{"id":"1219012003","district_id":"1219012","postal_code":"21258","name":"Aek Nauli"},{"id":"1219012004","district_id":"1219012","postal_code":"21258","name":"Durian"},{"id":"1219012005","district_id":"1219012","postal_code":"21258","name":"Lalang"},{"id":"1219012006","district_id":"1219012","postal_code":"21258","name":"Medang"},{"id":"1219012007","district_id":"1219012","postal_code":"21258","name":"Pakam"},{"id":"1219012008","district_id":"1219012","postal_code":"21258","name":"Pakam Raya"},{"id":"1219012009","district_id":"1219012","postal_code":"21258","name":"Pematang Cengkering"},{"id":"1219012010","district_id":"1219012","postal_code":"21258","name":"Sei Buah Keras"},{"id":"1219012011","district_id":"1219012","postal_code":"21258","name":"Sei Rakyat"},{"id":"1219012012","district_id":"1219012","postal_code":"21258","name":"Sidomulyo"},{"id":"1219012013","district_id":"1219012","postal_code":"21258","name":"Tanjung Sigoni"},{"id":"1219012014","district_id":"1219012","postal_code":"21258","name":"Nenas Siam"},{"id":"1219012015","district_id":"1219012","postal_code":"21258","name":"Pakam Raya Selatan"},{"id":"1219012016","district_id":"1219012","postal_code":"21258","name":"Mandarsah"},{"id":"1219012017","district_id":"1219012","postal_code":"21258","name":"Medang Baru"},{"id":"1219012018","district_id":"1219012","postal_code":"21258","name":"Pematang Nibung"},{"id":"1219012019","district_id":"1219012","postal_code":"21258","name":"Cengkering Pekan"},{"id":"1219012020","district_id":"1219012","postal_code":"21258","name":"Sei Raja"}]