[{"id":"1220042008","district_id":"1220042","postal_code":"22754","name":"Lubuk Torop"},{"id":"1220042012","district_id":"1220042","postal_code":"22754","name":"Tanjung Marulak"},{"id":"1220042013","district_id":"1220042","postal_code":"22754","name":"Ambasang Natigor"},{"id":"1220042014","district_id":"1220042","postal_code":"22754","name":"Napagadung Laut"},{"id":"1220042015","district_id":"1220042","postal_code":"22754","name":"Rampa Jae"},{"id":"1220042016","district_id":"1220042","postal_code":"22754","name":"Rampa Julu"},{"id":"1220042017","district_id":"1220042","postal_code":"22754","name":"Mananti"},{"id":"1220042018","district_id":"1220042","postal_code":"22754","name":"Paran Padang"},{"id":"1220042019","district_id":"1220042","postal_code":"22754","name":"Rahuning Jae"},{"id":"1220042020","district_id":"1220042","postal_code":"22754","name":"Botung"},{"id":"1220042021","district_id":"1220042","postal_code":"22754","name":"Sigimbal"},{"id":"1220042022","district_id":"1220042","postal_code":"22754","name":"Dolok Sae"},{"id":"1220042023","district_id":"1220042","postal_code":"22754","name":"Simasi"},{"id":"1220042024","district_id":"1220042","postal_code":"22754","name":"Sihapas Hapas"},{"id":"1220042025","district_id":"1220042","postal_code":"22754","name":"Sungai Tolang"},{"id":"1220042026","district_id":"1220042","postal_code":"22754","name":"Losung Batu"},{"id":"1220042027","district_id":"1220042","postal_code":"22754","name":"Batu Mamak"},{"id":"1220042028","district_id":"1220042","postal_code":"22754","name":"Sampuran"},{"id":"1220042029","district_id":"1220042","postal_code":"22754","name":"Gunung Tua Baru"},{"id":"1220042030","district_id":"1220042","postal_code":"22754","name":"Sibatang Kayu"},{"id":"1220042031","district_id":"1220042","postal_code":"22754","name":"Aek Suhat"},{"id":"1220042038","district_id":"1220042","postal_code":"22754","name":"Gunung Tua Tonga"},{"id":"1220042039","district_id":"1220042","postal_code":"22754","name":"Gunung Tua Jae"},{"id":"1220042040","district_id":"1220042","postal_code":"22754","name":"Gunung Tua Julu"},{"id":"1220042041","district_id":"1220042","postal_code":"22754","name":"Hutalombang"},{"id":"1220042042","district_id":"1220042","postal_code":"22754","name":"Batang Baruhar Julu"},{"id":"1220042043","district_id":"1220042","postal_code":"22754","name":"Batang Baruhar Jae"},{"id":"1220042044","district_id":"1220042","postal_code":"22754","name":"Purba Sinomba"},{"id":"1220042045","district_id":"1220042","postal_code":"22754","name":"Hambiri"},{"id":"1220042046","district_id":"1220042","postal_code":"22754","name":"Sosopan"},{"id":"1220042047","district_id":"1220042","postal_code":"22754","name":"Pagaran Singkam"},{"id":"1220042048","district_id":"1220042","postal_code":"22754","name":"Pagaran Tonga"},{"id":"1220042049","district_id":"1220042","postal_code":"22754","name":"Sibagasi"},{"id":"1220042050","district_id":"1220042","postal_code":"22754","name":"Batu Tambun"},{"id":"1220042051","district_id":"1220042","postal_code":"22754","name":"Tanjung Tiram"},{"id":"1220042052","district_id":"1220042","postal_code":"22754","name":"Garoga"},{"id":"1220042053","district_id":"1220042","postal_code":"22754","name":"Hajoran"},{"id":"1220042054","district_id":"1220042","postal_code":"22754","name":"Batu Sundung"},{"id":"1220042055","district_id":"1220042","postal_code":"22754","name":"Garonggang"},{"id":"1220042056","district_id":"1220042","postal_code":"22754","name":"Nabonggal"},{"id":"1220042057","district_id":"1220042","postal_code":"22754","name":"Liang Hasona"},{"id":"1220042058","district_id":"1220042","postal_code":"22754","name":"Simandiangin Dolok"},{"id":"1220042059","district_id":"1220042","postal_code":"22754","name":"Simandiangin Lombang"},{"id":"1220042060","district_id":"1220042","postal_code":"22754","name":"Padang Garugur"},{"id":"1220042061","district_id":"1220042","postal_code":"22754","name":"Simanosor"},{"id":"1220042062","district_id":"1220042","postal_code":"22754","name":"Sigama"},{"id":"1220042063","district_id":"1220042","postal_code":"22754","name":"Sigama Ujung Gading"},{"id":"1220042064","district_id":"1220042","postal_code":"22754","name":"Parlimbatan"},{"id":"1220042065","district_id":"1220042","postal_code":"22754","name":"Saba Sitahul Tahul"},{"id":"1220042066","district_id":"1220042","postal_code":"22754","name":"Saba Bangunan"},{"id":"1220042067","district_id":"1220042","postal_code":"22754","name":"Sidingkat"},{"id":"1220042069","district_id":"1220042","postal_code":"22754","name":"Gunung Manaon Ii"},{"id":"1220042070","district_id":"1220042","postal_code":"22754","name":"Purba Tua"},{"id":"1220042071","district_id":"1220042","postal_code":"22754","name":"Sungai Durian"},{"id":"1220042072","district_id":"1220042","postal_code":"22754","name":"Sungai Orosan"},{"id":"1220042073","district_id":"1220042","postal_code":"22754","name":"Hutaimbaru Ii"},{"id":"1220042074","district_id":"1220042","postal_code":"22754","name":"Siombob"},{"id":"1220042075","district_id":"1220042","postal_code":"22754","name":"Aek Gambir"},{"id":"1220042076","district_id":"1220042","postal_code":"22754","name":"Bukit Raya Sordang"},{"id":"1220042077","district_id":"1220042","postal_code":"22754","name":"Aek Jangkang"},{"id":"1220042078","district_id":"1220042","postal_code":"22754","name":"Simbolon"}]