[{"id":"1225022001","district_id":"1225022","postal_code":"22863","name":"Bawosaloo"},{"id":"1225022002","district_id":"1225022","postal_code":"22863","name":"Imana"},{"id":"1225022003","district_id":"1225022","postal_code":"22863","name":"Tuwa Tuwa"},{"id":"1225022004","district_id":"1225022","postal_code":"22863","name":"Kafo Kafo"},{"id":"1225022005","district_id":"1225022","postal_code":"22863","name":"Bawasawa"},{"id":"1225022006","district_id":"1225022","postal_code":"22863","name":"Pulau Bogi"},{"id":"1225022007","district_id":"1225022","postal_code":"22863","name":"Halamona"},{"id":"1225022008","district_id":"1225022","postal_code":"22863","name":"Hanofa"},{"id":"1225022009","district_id":"1225022","postal_code":"22863","name":"Lahawa"},{"id":"1225022010","district_id":"1225022","postal_code":"22863","name":"Hinako"},{"id":"1225022011","district_id":"1225022","postal_code":"22863","name":"Sineneeto"},{"id":"1225022012","district_id":"1225022","postal_code":"22863","name":"Balowondrate"},{"id":"1225022013","district_id":"1225022","postal_code":"22863","name":"Hilimberuanaa"},{"id":"1225022014","district_id":"1225022","postal_code":"22863","name":"Lahusa"},{"id":"1225022015","district_id":"1225022","postal_code":"22863","name":"Ombolata"},{"id":"1225022016","district_id":"1225022","postal_code":"22863","name":"Tetehosi"},{"id":"1225022017","district_id":"1225022","postal_code":"22863","name":"Togimbogi"},{"id":"1225022018","district_id":"1225022","postal_code":"22863","name":"Sisobandrao"},{"id":"1225022019","district_id":"1225022","postal_code":"22863","name":"Fadoro"},{"id":"1225022020","district_id":"1225022","postal_code":"22863","name":"Tugala Gawu"},{"id":"1225022021","district_id":"1225022","postal_code":"22863","name":"Sirombu"},{"id":"1225022022","district_id":"1225022","postal_code":"22863","name":"Togideu"},{"id":"1225022023","district_id":"1225022","postal_code":"22863","name":"Tugala"},{"id":"1225022024","district_id":"1225022","postal_code":"22863","name":"Orahili"},{"id":"1225022025","district_id":"1225022","postal_code":"22863","name":"Gunungcahaya"}]