[{"id":"1277021001","district_id":"1277021","postal_code":"22723","name":"Wek V"},{"id":"1277021002","district_id":"1277021","postal_code":"22724","name":"Wek Vi"},{"id":"1277021003","district_id":"1277021","postal_code":"22722","name":"Losung"},{"id":"1277021004","district_id":"1277021","postal_code":"22723","name":"Sitamiang"},{"id":"1277021005","district_id":"1277021","postal_code":"22725","name":"Ujung Padang"},{"id":"1277021006","district_id":"1277021","postal_code":"22726","name":"Aek Tampang"},{"id":"1277021007","district_id":"1277021","postal_code":"22727","name":"Padang Matinggi"},{"id":"1277021008","district_id":"1277021","postal_code":"22728","name":"Silandit"},{"id":"1277021009","district_id":"1277021","postal_code":"22721","name":"Sidangkal"},{"id":"1277021010","district_id":"1277021","postal_code":"22721","name":"Hanopan"},{"id":"1277021011","district_id":"1277021","postal_code":"22727","name":"Padang Matinggi Lestari"},{"id":"1277021012","district_id":"1277021","postal_code":"22723","name":"Sitamiang Baru"}]