[{"id":"1278022001","district_id":"1278022","postal_code":"22851","name":"Ononamolo I Lot"},{"id":"1278022002","district_id":"1278022","postal_code":"22851","name":"Fodo"},{"id":"1278022003","district_id":"1278022","postal_code":"22851","name":"Faekhu"},{"id":"1278022004","district_id":"1278022","postal_code":"22851","name":"Lolofaoso Tabaloho"},{"id":"1278022005","district_id":"1278022","postal_code":"22851","name":"Lolomboli"},{"id":"1278022006","district_id":"1278022","postal_code":"22851","name":"Mazingo Tabaloho"},{"id":"1278022007","district_id":"1278022","postal_code":"22851","name":"Onozitoli Tabaloho"},{"id":"1278022008","district_id":"1278022","postal_code":"22851","name":"Lololakha"},{"id":"1278022009","district_id":"1278022","postal_code":"22851","name":"Sihareo I Tabaloho"},{"id":"1278022010","district_id":"1278022","postal_code":"22851","name":"Ombolata Simenari"},{"id":"1278022011","district_id":"1278022","postal_code":"22851","name":"Hiligara"},{"id":"1278022012","district_id":"1278022","postal_code":"22851","name":"Luahalaraga"},{"id":"1278022013","district_id":"1278022","postal_code":"22851","name":"Sisobahili Ii Tanoseo"},{"id":"1278022014","district_id":"1278022","postal_code":"22851","name":"Hiligodu Ombolata"},{"id":"1278022015","district_id":"1278022","postal_code":"22851","name":"Tetehosi Ombolata"}]