[{"id":"1371061001","district_id":"1371061","postal_code":"25225","name":"Cangkeh Nan Xx"},{"id":"1371061002","district_id":"1371061","postal_code":"25225","name":"Kampung Baru Nan Xx"},{"id":"1371061003","district_id":"1371061","postal_code":"25224","name":"Tanah Sirah Piai Nan Xx"},{"id":"1371061004","district_id":"1371061","postal_code":"25224","name":"Tanjung Saba Pitamen Nan Xx"},{"id":"1371061005","district_id":"1371061","postal_code":"25221","name":"Lubuk Begalung Nan Xx"},{"id":"1371061006","district_id":"1371061","postal_code":"25221","name":"Gurun Laweh Nan Xx"},{"id":"1371061007","district_id":"1371061","postal_code":"25222","name":"Tanjung Aua Nan Xx"},{"id":"1371061008","district_id":"1371061","postal_code":"25227","name":"Koto Baru Nan Xx"},{"id":"1371061009","district_id":"1371061","postal_code":"25222","name":"Banuaran Nan Xx"},{"id":"1371061010","district_id":"1371061","postal_code":"25223","name":"Parak Laweh Pulau Aia Nan Xx"},{"id":"1371061011","district_id":"1371061","postal_code":"25223","name":"Batung Taba Nan Xx"},{"id":"1371061012","district_id":"1371061","postal_code":"25226","name":"Pagambiran Ampalu Nan Xx"},{"id":"1371061013","district_id":"1371061","postal_code":"25227","name":"Pampangan Nan Xx"},{"id":"1371061014","district_id":"1371061","postal_code":"25227","name":"Gates Nan Xx"},{"id":"1371061015","district_id":"1371061","postal_code":"25225","name":"Kampung Jua Nan Xx"}]