[{"id":"1377042001","district_id":"1377042","postal_code":"25523","name":"Talago Sarik"},{"id":"1377042002","district_id":"1377042","postal_code":"25524","name":"Pakasai"},{"id":"1377042003","district_id":"1377042","postal_code":"25524","name":"Kampung Baru Padusunan"},{"id":"1377042004","district_id":"1377042","postal_code":"25523","name":"Kampung Gadang"},{"id":"1377042005","district_id":"1377042","postal_code":"25519","name":"Koto Marapak"},{"id":"1377042006","district_id":"1377042","postal_code":"25519","name":"Batang Kabung"},{"id":"1377042007","district_id":"1377042","postal_code":"25519","name":"Bato"},{"id":"1377042008","district_id":"1377042","postal_code":"25531","name":"Air Santok"},{"id":"1377042009","district_id":"1377042","postal_code":"25516","name":"Cubadak Mentawai"},{"id":"1377042010","district_id":"1377042","postal_code":"25516","name":"Sungai Sirah"},{"id":"1377042011","district_id":"1377042","postal_code":"25516","name":"Sungai Pasak"},{"id":"1377042012","district_id":"1377042","postal_code":"25535","name":"Bungo Tanjung"},{"id":"1377042013","district_id":"1377042","postal_code":"25535","name":"Kampung Tangah"},{"id":"1377042014","district_id":"1377042","postal_code":"25536","name":"Kampung Kandang"},{"id":"1377042015","district_id":"1377042","postal_code":"25534","name":"Kaluat"},{"id":"1377042016","district_id":"1377042","postal_code":"25534","name":"Kajai"}]