[{"id":"1401112001","district_id":"1401112","postal_code":"28465","name":"Koto Garo"},{"id":"1401112002","district_id":"1401112","postal_code":"28465","name":"Sekijang"},{"id":"1401112003","district_id":"1401112","postal_code":"28465","name":"Beringin Lestari"},{"id":"1401112004","district_id":"1401112","postal_code":"28465","name":"Kota Bangun"},{"id":"1401112005","district_id":"1401112","postal_code":"28465","name":"Cinta Damai"},{"id":"1401112006","district_id":"1401112","postal_code":"28465","name":"Suka Maju"},{"id":"1401112007","district_id":"1401112","postal_code":"28465","name":"Kota Baru"},{"id":"1401112008","district_id":"1401112","postal_code":"28465","name":"Tebing Lestari"},{"id":"1401112009","district_id":"1401112","postal_code":"28465","name":"Tanah Tinggi"},{"id":"1401112010","district_id":"1401112","postal_code":"28465","name":"Koto Aman"},{"id":"1401112011","district_id":"1401112","postal_code":"28465","name":"Tapung Lestari"},{"id":"1401112012","district_id":"1401112","postal_code":"28465","name":"Tapung Makmur"},{"id":"1401112013","district_id":"1401112","postal_code":"28465","name":"Tandan Sari"},{"id":"1401112014","district_id":"1401112","postal_code":"28465","name":"Gerbang Sari"},{"id":"1401112015","district_id":"1401112","postal_code":"28465","name":"Kijang Jaya"},{"id":"1401112016","district_id":"1401112","postal_code":"28465","name":"Kijang Makmur"}]