[{"id":"1401032001","district_id":"1401032","postal_code":"28468","name":"Tambang"},{"id":"1401032002","district_id":"1401032","postal_code":"28468","name":"Kuapan"},{"id":"1401032003","district_id":"1401032","postal_code":"28468","name":"Gobah"},{"id":"1401032004","district_id":"1401032","postal_code":"28468","name":"Teluk Kenidai"},{"id":"1401032005","district_id":"1401032","postal_code":"28468","name":"Aursati"},{"id":"1401032006","district_id":"1401032","postal_code":"28468","name":"Padang Luas"},{"id":"1401032007","district_id":"1401032","postal_code":"28468","name":"Terantang"},{"id":"1401032008","district_id":"1401032","postal_code":"28468","name":"Kualu"},{"id":"1401032009","district_id":"1401032","postal_code":"28468","name":"Rimbo Panjang"},{"id":"1401032010","district_id":"1401032","postal_code":"28468","name":"Parit Baru"},{"id":"1401032011","district_id":"1401032","postal_code":"28468","name":"Kemang Indah"},{"id":"1401032012","district_id":"1401032","postal_code":"28468","name":"Kualu Nenas"},{"id":"1401032013","district_id":"1401032","postal_code":"28468","name":"Tarai Bangun"},{"id":"1401032014","district_id":"1401032","postal_code":"28468","name":"Sungai Pinang"},{"id":"1401032015","district_id":"1401032","postal_code":"28468","name":"Balam Jaya"},{"id":"1401032016","district_id":"1401032","postal_code":"28468","name":"Pulaupermai"},{"id":"1401032017","district_id":"1401032","postal_code":"28468","name":"Palungraya"}]