[{"id":"1401062001","district_id":"1401062","postal_code":"28452","name":"Pangkalan Baru"},{"id":"1401062002","district_id":"1401062","postal_code":"28452","name":"Desa Baru"},{"id":"1401062003","district_id":"1401062","postal_code":"28452","name":"Teratak Buluh"},{"id":"1401062005","district_id":"1401062","postal_code":"28452","name":"Lubuk Siam"},{"id":"1401062006","district_id":"1401062","postal_code":"28452","name":"Buluh Cina"},{"id":"1401062007","district_id":"1401062","postal_code":"28452","name":"Buluh Nipis"},{"id":"1401062011","district_id":"1401062","postal_code":"28452","name":"Tanah Merah"},{"id":"1401062012","district_id":"1401062","postal_code":"28452","name":"Pandau Jaya"},{"id":"1401062013","district_id":"1401062","postal_code":"28452","name":"Tanjung Balam"},{"id":"1401062014","district_id":"1401062","postal_code":"28452","name":"Kepau Jaya"},{"id":"1401062015","district_id":"1401062","postal_code":"28452","name":"Pangkalan Serik"},{"id":"1401062016","district_id":"1401062","postal_code":"28452","name":"Kubang Jaya"}]