[{"id":"1402112001","district_id":"1402112","postal_code":"29363","name":"Morong"},{"id":"1402112002","district_id":"1402112","postal_code":"29363","name":"Pasir Bongkal"},{"id":"1402112003","district_id":"1402112","postal_code":"29363","name":"Pasir Selabu"},{"id":"1402112004","district_id":"1402112","postal_code":"29363","name":"Pasir Batu Mandi"},{"id":"1402112005","district_id":"1402112","postal_code":"29363","name":"Pasir Kelampaian"},{"id":"1402112006","district_id":"1402112","postal_code":"29363","name":"Kuala Lala"},{"id":"1402112007","district_id":"1402112","postal_code":"29363","name":"Sungai Lala"},{"id":"1402112008","district_id":"1402112","postal_code":"29363","name":"Kelawat"},{"id":"1402112009","district_id":"1402112","postal_code":"29363","name":"Perkebunan Sungai Parit"},{"id":"1402112010","district_id":"1402112","postal_code":"29363","name":"Perkebunan Sungai Lala"},{"id":"1402112011","district_id":"1402112","postal_code":"29363","name":"Tanjung Danau"},{"id":"1402112012","district_id":"1402112","postal_code":"29363","name":"Sungai Air Putih"}]