[{"id":"1403162001","district_id":"1403162","postal_code":"28785","name":"Petani"},{"id":"1403162002","district_id":"1403162","postal_code":"28785","name":"Airkulim"},{"id":"1403162003","district_id":"1403162","postal_code":"28785","name":"Buluhmanis"},{"id":"1403162004","district_id":"1403162","postal_code":"28785","name":"Bumbung"},{"id":"1403162005","district_id":"1403162","postal_code":"28785","name":"Pamesi"},{"id":"1403162006","district_id":"1403162","postal_code":"28785","name":"Kesumboampai"},{"id":"1403162007","district_id":"1403162","postal_code":"28785","name":"Bathinsobanga"},{"id":"1403162008","district_id":"1403162","postal_code":"28785","name":"Sebangar"},{"id":"1403162009","district_id":"1403162","postal_code":"28785","name":"Boncahmahang"},{"id":"1403162010","district_id":"1403162","postal_code":"28785","name":"Balaimakam"},{"id":"1403162011","district_id":"1403162","postal_code":"28785","name":"Tambusaibatangdui"},{"id":"1403162012","district_id":"1403162","postal_code":"28785","name":"Simpangpadang"},{"id":"1403162013","district_id":"1403162","postal_code":"28785","name":"Pematangobo"}]