[{"id":"1404072001","district_id":"1404072","postal_code":"29254","name":"Pulaucawan"},{"id":"1404072002","district_id":"1404072","postal_code":"29254","name":"Belaras"},{"id":"1404072003","district_id":"1404072","postal_code":"29254","name":"Bente"},{"id":"1404072005","district_id":"1404072","postal_code":"29254","name":"Igal"},{"id":"1404072006","district_id":"1404072","postal_code":"29254","name":"Pelanduk"},{"id":"1404072007","district_id":"1404072","postal_code":"29254","name":"Bakau Aceh"},{"id":"1404072008","district_id":"1404072","postal_code":"29254","name":"Batang Tumu"},{"id":"1404072009","district_id":"1404072","postal_code":"29254","name":"Bekawan"},{"id":"1404072010","district_id":"1404072","postal_code":"29254","name":"Bantayan"},{"id":"1404072011","district_id":"1404072","postal_code":"29254","name":"Batang Sari"},{"id":"1404072012","district_id":"1404072","postal_code":"29254","name":"Bolak Raya"},{"id":"1404072013","district_id":"1404072","postal_code":"29254","name":"Cahaya Baru"},{"id":"1404072014","district_id":"1404072","postal_code":"29254","name":"Belaras Barat"},{"id":"1404072015","district_id":"1404072","postal_code":"29254","name":"Sepakat Jaya"},{"id":"1404072016","district_id":"1404072","postal_code":"29254","name":"Suraya Mandiri"},{"id":"1404072017","district_id":"1404072","postal_code":"29254","name":"Bidari Tanjung Datuk"}]