[{"id":"1406082001","district_id":"1406082","postal_code":"28561","name":"Rambah Hilir"},{"id":"1406082002","district_id":"1406082","postal_code":"28561","name":"Rambah Hilir Tengah"},{"id":"1406082003","district_id":"1406082","postal_code":"28561","name":"Rambah Hilir Timur"},{"id":"1406082004","district_id":"1406082","postal_code":"28561","name":"Pasir Utama"},{"id":"1406082005","district_id":"1406082","postal_code":"28561","name":"Pasir Jaya"},{"id":"1406082006","district_id":"1406082","postal_code":"28561","name":"Rambah Muda"},{"id":"1406082007","district_id":"1406082","postal_code":"28561","name":"Sungai Sitolang"},{"id":"1406082008","district_id":"1406082","postal_code":"28561","name":"Lubuk Kerapat"},{"id":"1406082009","district_id":"1406082","postal_code":"28561","name":"Rambah"},{"id":"1406082010","district_id":"1406082","postal_code":"28561","name":"Serombou Indah"},{"id":"1406082011","district_id":"1406082","postal_code":"28561","name":"Sungai Dua Indah"},{"id":"1406082012","district_id":"1406082","postal_code":"28561","name":"Muara Musu"},{"id":"1406082013","district_id":"1406082","postal_code":"28561","name":"Sejati"}]