[{"id":"1501152001","district_id":"1501152","postal_code":"37163","name":"Sungairumpun"},{"id":"1501152002","district_id":"1501152","postal_code":"37163","name":"Sungaisikai"},{"id":"1501152003","district_id":"1501152","postal_code":"37163","name":"Tangkil"},{"id":"1501152004","district_id":"1501152","postal_code":"37163","name":"Pelompek"},{"id":"1501152005","district_id":"1501152","postal_code":"37163","name":"Jernih Jaya"},{"id":"1501152006","district_id":"1501152","postal_code":"37163","name":"Bengkolan Duo"},{"id":"1501152007","district_id":"1501152","postal_code":"37163","name":"Lubuk Pauh"},{"id":"1501152008","district_id":"1501152","postal_code":"37163","name":"Telun Berasap"},{"id":"1501152009","district_id":"1501152","postal_code":"37163","name":"Bumbun Duri"},{"id":"1501152010","district_id":"1501152","postal_code":"37163","name":"Pesisir Bukit"},{"id":"1501152011","district_id":"1501152","postal_code":"37163","name":"Pauh Tinggi"},{"id":"1501152012","district_id":"1501152","postal_code":"37163","name":"Sungaijernih"},{"id":"1501152013","district_id":"1501152","postal_code":"37163","name":"Pelompek Pasar Baru"}]