[{"id":"1501192001","district_id":"1501192","postal_code":"37165","name":"Batu Hampar"},{"id":"1501192002","district_id":"1501192","postal_code":"37165","name":"Sungairenah"},{"id":"1501192003","district_id":"1501192","postal_code":"37165","name":"Bedeng Delapan"},{"id":"1501192004","district_id":"1501192","postal_code":"37165","name":"Bedeng Dua"},{"id":"1501192005","district_id":"1501192","postal_code":"37165","name":"Sako Duo"},{"id":"1501192006","district_id":"1501192","postal_code":"37165","name":"Sungailintang"},{"id":"1501192007","district_id":"1501192","postal_code":"37165","name":"Kebun Baru"},{"id":"1501192008","district_id":"1501192","postal_code":"37165","name":"Patok Empat"},{"id":"1501192009","district_id":"1501192","postal_code":"37165","name":"Sungaijambu"},{"id":"1501192010","district_id":"1501192","postal_code":"37165","name":"Sungaikering"},{"id":"1501192011","district_id":"1501192","postal_code":"37165","name":"Giri Mulyo"},{"id":"1501192012","district_id":"1501192","postal_code":"37165","name":"Gununglabu"},{"id":"1501192013","district_id":"1501192","postal_code":"37165","name":"Bento"},{"id":"1501192014","district_id":"1501192","postal_code":"37165","name":"Kampung Baru"},{"id":"1501192015","district_id":"1501192","postal_code":"37165","name":"Sungaiasam"},{"id":"1501192016","district_id":"1501192","postal_code":"37165","name":"Pasar Minggu"},{"id":"1501192017","district_id":"1501192","postal_code":"37165","name":"Ensatu"}]