[{"id":"1503052001","district_id":"1503052","postal_code":"37482","name":"Penegah"},{"id":"1503052002","district_id":"1503052","postal_code":"37482","name":"Pelawan"},{"id":"1503052003","district_id":"1503052","postal_code":"37482","name":"Pulauaro"},{"id":"1503052004","district_id":"1503052","postal_code":"37482","name":"Bukit"},{"id":"1503052005","district_id":"1503052","postal_code":"37482","name":"Lubuk Sepuh"},{"id":"1503052006","district_id":"1503052","postal_code":"37482","name":"Rantanu Tenang"},{"id":"1503052007","district_id":"1503052","postal_code":"37482","name":"Muara Danau"},{"id":"1503052013","district_id":"1503052","postal_code":"37482","name":"Sungai Merah"},{"id":"1503052016","district_id":"1503052","postal_code":"37482","name":"Pematang Kulim"},{"id":"1503052017","district_id":"1503052","postal_code":"37482","name":"Batu Putih"},{"id":"1503052019","district_id":"1503052","postal_code":"37482","name":"Mekarsari"},{"id":"1503052021","district_id":"1503052","postal_code":"37482","name":"Pasar Pelawan"},{"id":"1503052022","district_id":"1503052","postal_code":"37482","name":"Pelawan Jaya"},{"id":"1503052023","district_id":"1503052","postal_code":"37482","name":"Lubuk Sayak"}]