[{"id":"1509052001","district_id":"1509052","postal_code":"37573","name":"Teluk Singkawang"},{"id":"1509052002","district_id":"1509052","postal_code":"37573","name":"Lembak Bungur"},{"id":"1509052003","district_id":"1509052","postal_code":"37573","name":"Teluk Langkap"},{"id":"1509052004","district_id":"1509052","postal_code":"37573","name":"Tambun Arang"},{"id":"1509052005","district_id":"1509052","postal_code":"37573","name":"Punti Kalo"},{"id":"1509052006","district_id":"1509052","postal_code":"37573","name":"Jati Belarik"},{"id":"1509052007","district_id":"1509052","postal_code":"37573","name":"Tuo Sumay"},{"id":"1509052008","district_id":"1509052","postal_code":"37573","name":"Teriti"},{"id":"1509052009","district_id":"1509052","postal_code":"37573","name":"Suo-suo"},{"id":"1509052010","district_id":"1509052","postal_code":"37573","name":"Muara Sekalo"},{"id":"1509052011","district_id":"1509052","postal_code":"37573","name":"Semambu"},{"id":"1509052012","district_id":"1509052","postal_code":"37573","name":"Pemayungan"}]