[{"id":"1604101031","district_id":"1604101","postal_code":"31419","name":"Lahat Tengah"},{"id":"1604101032","district_id":"1604101","postal_code":"31418","name":"Gunung Gajah"},{"id":"1604101033","district_id":"1604101","postal_code":"31417","name":"Pagar Agung"},{"id":"1604101037","district_id":"1604101","postal_code":"31416","name":"Talang Jawa"},{"id":"1604101038","district_id":"1604101","postal_code":"31411","name":"Pasar Baru"},{"id":"1604101040","district_id":"1604101","postal_code":"31415","name":"Kota Baru"},{"id":"1604101041","district_id":"1604101","postal_code":"31413","name":"Pasar Lama"},{"id":"1604101042","district_id":"1604101","postal_code":"31412","name":"Pasar Bawah"},{"id":"1604101043","district_id":"1604101","postal_code":"31419","name":"Rd. Pjka"},{"id":"1604101046","district_id":"1604101","postal_code":"31414","name":"Bandar Agung"},{"id":"1604101051","district_id":"1604101","postal_code":"31414","name":"Kota Negara"},{"id":"1604101052","district_id":"1604101","postal_code":"31412","name":"Kota Jaya"},{"id":"1604101054","district_id":"1604101","postal_code":"31419","name":"Rd. Pjka Bandar Agung"},{"id":"1604101058","district_id":"1604101","postal_code":"31419","name":"Sari Bunga Mas"},{"id":"1604101059","district_id":"1604101","postal_code":"31419","name":"Bandar Jaya"},{"id":"1604101060","district_id":"1604101","postal_code":"31416","name":"Talang Jawa Selatan"},{"id":"1604101061","district_id":"1604101","postal_code":"31416","name":"Talang Jawa Utara"}]