[{"id":"1606082001","district_id":"1606082","postal_code":"30754","name":"Tenggaro"},{"id":"1606082003","district_id":"1606082","postal_code":"30754","name":"Tanjung Dalam"},{"id":"1606082004","district_id":"1606082","postal_code":"30754","name":"Dawas"},{"id":"1606082005","district_id":"1606082","postal_code":"30754","name":"Mekar Jaya"},{"id":"1606082006","district_id":"1606082","postal_code":"30754","name":"Sumber Agung"},{"id":"1606082007","district_id":"1606082","postal_code":"30754","name":"Karya Maju"},{"id":"1606082008","district_id":"1606082","postal_code":"30754","name":"Tegal Mulyo"},{"id":"1606082009","district_id":"1606082","postal_code":"30754","name":"Cipta Praja"},{"id":"1606082010","district_id":"1606082","postal_code":"30754","name":"Loka Jaya"},{"id":"1606082011","district_id":"1606082","postal_code":"30754","name":"Mekar Sari"},{"id":"1606082012","district_id":"1606082","postal_code":"30754","name":"Sido Rejo"},{"id":"1606082013","district_id":"1606082","postal_code":"30754","name":"Mulyo Asih"},{"id":"1606082014","district_id":"1606082","postal_code":"30754","name":"Sridamai"}]