[{"id":"1606092006","district_id":"1606092","postal_code":"30756","name":"Muara Merang"},{"id":"1606092007","district_id":"1606092","postal_code":"30756","name":"Mangsang"},{"id":"1606092008","district_id":"1606092","postal_code":"30756","name":"Tampang Baru"},{"id":"1606092009","district_id":"1606092","postal_code":"30756","name":"Kali Berau"},{"id":"1606092010","district_id":"1606092","postal_code":"30756","name":"Sindang Marga"},{"id":"1606092011","district_id":"1606092","postal_code":"30756","name":"Telang"},{"id":"1606092012","district_id":"1606092","postal_code":"30756","name":"Pagar Desa"},{"id":"1606092013","district_id":"1606092","postal_code":"30756","name":"Mendis"},{"id":"1606092014","district_id":"1606092","postal_code":"30756","name":"Pulai Gading"},{"id":"1606092015","district_id":"1606092","postal_code":"30756","name":"Muara Medak"},{"id":"1606092017","district_id":"1606092","postal_code":"30756","name":"Sukajaya"},{"id":"1606092026","district_id":"1606092","postal_code":"30756","name":"Senawar Jaya"},{"id":"1606092048","district_id":"1606092","postal_code":"30756","name":"Simpang Bayat"},{"id":"1606092049","district_id":"1606092","postal_code":"30756","name":"Bayat Ilir"},{"id":"1606092050","district_id":"1606092","postal_code":"30756","name":"Pangkalan Bayat"},{"id":"1606092051","district_id":"1606092","postal_code":"30756","name":"Muara Bahar"},{"id":"1606092058","district_id":"1606092","postal_code":"30756","name":"Mekar Jaya"},{"id":"1606092059","district_id":"1606092","postal_code":"30756","name":"Mendis Jaya"},{"id":"1606092060","district_id":"1606092","postal_code":"30756","name":"Kepayang"},{"id":"1606092061","district_id":"1606092","postal_code":"30756","name":"Wono Rejo"},{"id":"1606092063","district_id":"1606092","postal_code":"30756","name":"Lubuk Harjo"}]