[{"id":"1607072001","district_id":"1607072","postal_code":"30975","name":"Muara Padang"},{"id":"1607072002","district_id":"1607072","postal_code":"30975","name":"Tanjungbaru"},{"id":"1607072003","district_id":"1607072","postal_code":"30975","name":"Karang Anyar"},{"id":"1607072006","district_id":"1607072","postal_code":"30975","name":"Purwodadi"},{"id":"1607072007","district_id":"1607072","postal_code":"30975","name":"Sumber Makmur"},{"id":"1607072008","district_id":"1607072","postal_code":"30975","name":"Air Gading"},{"id":"1607072009","district_id":"1607072","postal_code":"30975","name":"Tirto Raharjo"},{"id":"1607072010","district_id":"1607072","postal_code":"30975","name":"Daya Utama"},{"id":"1607072011","district_id":"1607072","postal_code":"30975","name":"Daya Makmur"},{"id":"1607072012","district_id":"1607072","postal_code":"30975","name":"Sido Mulyo 18"},{"id":"1607072013","district_id":"1607072","postal_code":"30975","name":"Sido Rejo"},{"id":"1607072018","district_id":"1607072","postal_code":"30975","name":"Sido Mulyo 20"},{"id":"1607072037","district_id":"1607072","postal_code":"30975","name":"Margo Mulyo 20"},{"id":"1607072038","district_id":"1607072","postal_code":"30975","name":"Margo Sugihan"},{"id":"1607072042","district_id":"1607072","postal_code":"30975","name":"Tirta Jaya"}]