[{"id":"1607062001","district_id":"1607062","postal_code":"30967","name":"Kebon Sahang"},{"id":"1607062002","district_id":"1607062","postal_code":"30967","name":"Siju"},{"id":"1607062003","district_id":"1607062","postal_code":"30967","name":"Tanah Lembak"},{"id":"1607062004","district_id":"1607062","postal_code":"30967","name":"Parit"},{"id":"1607062005","district_id":"1607062","postal_code":"30967","name":"Pelajau"},{"id":"1607062006","district_id":"1607062","postal_code":"30967","name":"Suka Pindah"},{"id":"1607062007","district_id":"1607062","postal_code":"30967","name":"Baru"},{"id":"1607062008","district_id":"1607062","postal_code":"30967","name":"Tanjungkerang"},{"id":"1607062009","district_id":"1607062","postal_code":"30967","name":"Rambutan"},{"id":"1607062010","district_id":"1607062","postal_code":"30967","name":"Tanjungmerbu"},{"id":"1607062011","district_id":"1607062","postal_code":"30967","name":"Sako"},{"id":"1607062012","district_id":"1607062","postal_code":"30967","name":"Gelebak Dalam"},{"id":"1607062013","district_id":"1607062","postal_code":"30967","name":"Menten"},{"id":"1607062014","district_id":"1607062","postal_code":"30967","name":"Pangkalan Gelebak"},{"id":"1607062015","district_id":"1607062","postal_code":"30967","name":"Sungaidua"},{"id":"1607062016","district_id":"1607062","postal_code":"30967","name":"Sungaipinang"},{"id":"1607062017","district_id":"1607062","postal_code":"30967","name":"Sungaikedukan"},{"id":"1607062019","district_id":"1607062","postal_code":"30967","name":"Durian Gadis"},{"id":"1607062020","district_id":"1607062","postal_code":"30967","name":"Pulauparang"}]