[{"id":"1607112001","district_id":"1607112","postal_code":"30968","name":"Muaraabab"},{"id":"1607112002","district_id":"1607112","postal_code":"30968","name":"Tanjungpasir"},{"id":"1607112003","district_id":"1607112","postal_code":"30968","name":"Tanjungtiga"},{"id":"1607112004","district_id":"1607112","postal_code":"30968","name":"Rantau Bayur"},{"id":"1607112005","district_id":"1607112","postal_code":"30968","name":"Pagar Bulan"},{"id":"1607112006","district_id":"1607112","postal_code":"30968","name":"Kemang Bajalu"},{"id":"1607112007","district_id":"1607112","postal_code":"30968","name":"Tanjungmenang"},{"id":"1607112008","district_id":"1607112","postal_code":"30968","name":"Sri Jaya"},{"id":"1607112009","district_id":"1607112","postal_code":"30968","name":"Sejagung"},{"id":"1607112010","district_id":"1607112","postal_code":"30968","name":"Sungaipinang"},{"id":"1607112011","district_id":"1607112","postal_code":"30968","name":"Semuntul"},{"id":"1607112012","district_id":"1607112","postal_code":"30968","name":"Lebung"},{"id":"1607112013","district_id":"1607112","postal_code":"30968","name":"Lubuk Rengas"},{"id":"1607112014","district_id":"1607112","postal_code":"30968","name":"Paldas"},{"id":"1607112015","district_id":"1607112","postal_code":"30968","name":"Tebing Abang"},{"id":"1607112016","district_id":"1607112","postal_code":"30968","name":"Talang Kemang"},{"id":"1607112017","district_id":"1607112","postal_code":"30968","name":"Rantau Harapan"},{"id":"1607112018","district_id":"1607112","postal_code":"30968","name":"Penandingan"},{"id":"1607112019","district_id":"1607112","postal_code":"30968","name":"Sungainaik"},{"id":"1607112020","district_id":"1607112","postal_code":"30968","name":"Sungaililin"},{"id":"1607112021","district_id":"1607112","postal_code":"30968","name":"Sukarela"}]