[{"id":"1608172001","district_id":"1608172","postal_code":"32380","name":"Rejosari"},{"id":"1608172002","district_id":"1608172","postal_code":"32380","name":"Sido Rejo"},{"id":"1608172003","district_id":"1608172","postal_code":"32380","name":"Banjar Rejo"},{"id":"1608172004","district_id":"1608172","postal_code":"32380","name":"Panca Tunggal"},{"id":"1608172005","district_id":"1608172","postal_code":"32380","name":"Marga Koyo"},{"id":"1608172006","district_id":"1608172","postal_code":"32380","name":"Sumber Agung"},{"id":"1608172007","district_id":"1608172","postal_code":"32380","name":"Karsa Jaya"},{"id":"1608172008","district_id":"1608172","postal_code":"32380","name":"Windusari"},{"id":"1608172009","district_id":"1608172","postal_code":"32380","name":"Karya Makmur"},{"id":"1608172010","district_id":"1608172","postal_code":"32380","name":"Giri Mulyo"},{"id":"1608172011","district_id":"1608172","postal_code":"32380","name":"Magugondo"},{"id":"1608172012","district_id":"1608172","postal_code":"32380","name":"Argomulyo"},{"id":"1608172013","district_id":"1608172","postal_code":"32380","name":"Rejosari Jaya"}]