[{"id":"1608072002","district_id":"1608072","postal_code":"32362","name":"Mendayun"},{"id":"1608072003","district_id":"1608072","postal_code":"32362","name":"Gunung Terang"},{"id":"1608072004","district_id":"1608072","postal_code":"32362","name":"Karta Mulya"},{"id":"1608072007","district_id":"1608072","postal_code":"32362","name":"Sp. Kerta Mulya"},{"id":"1608072014","district_id":"1608072","postal_code":"32362","name":"Harjo Mulyo"},{"id":"1608072015","district_id":"1608072","postal_code":"32362","name":"Jaya Bakti"},{"id":"1608072016","district_id":"1608072","postal_code":"32362","name":"Rasuan"},{"id":"1608072017","district_id":"1608072","postal_code":"32362","name":"Mengulak"},{"id":"1608072019","district_id":"1608072","postal_code":"32362","name":"Jati Sari"},{"id":"1608072021","district_id":"1608072","postal_code":"32362","name":"Tri Dadi"},{"id":"1608072022","district_id":"1608072","postal_code":"32362","name":"Agung Jati"},{"id":"1608072023","district_id":"1608072","postal_code":"32362","name":"Rasuan Darat"},{"id":"1608072024","district_id":"1608072","postal_code":"32362","name":"Harjo Mulyo Jaya"}]