[{"id":"1608122001","district_id":"1608122","postal_code":"32360","name":"Tanjung Mas"},{"id":"1608122002","district_id":"1608122","postal_code":"32360","name":"Tanjungsari"},{"id":"1608122003","district_id":"1608122","postal_code":"32360","name":"Toko Rejo"},{"id":"1608122004","district_id":"1608122","postal_code":"32360","name":"Sumber Asri"},{"id":"1608122005","district_id":"1608122","postal_code":"32360","name":"Suka Maju"},{"id":"1608122006","district_id":"1608122","postal_code":"32360","name":"Srikaton"},{"id":"1608122007","district_id":"1608122","postal_code":"32360","name":"Liman Sari"},{"id":"1608122008","district_id":"1608122","postal_code":"32360","name":"Sumber Harjo"},{"id":"1608122009","district_id":"1608122","postal_code":"32360","name":"Sumber Mulyo"},{"id":"1608122010","district_id":"1608122","postal_code":"32360","name":"Karang Tengah"},{"id":"1608122011","district_id":"1608122","postal_code":"32360","name":"Bangun Harjo"},{"id":"1608122012","district_id":"1608122","postal_code":"32360","name":"Tambak Boyo"},{"id":"1608122013","district_id":"1608122","postal_code":"32360","name":"Pengandonan"},{"id":"1608122014","district_id":"1608122","postal_code":"32360","name":"Rejo Dadi"},{"id":"1608122015","district_id":"1608122","postal_code":"32360","name":"Sukoharjo"},{"id":"1608122016","district_id":"1608122","postal_code":"32360","name":"Sumedang Sari"},{"id":"1608122017","district_id":"1608122","postal_code":"32360","name":"Rowodadi"},{"id":"1608122018","district_id":"1608122","postal_code":"32360","name":"Sukodadi"},{"id":"1608122019","district_id":"1608122","postal_code":"32360","name":"Kumpul Rejo"},{"id":"1608122020","district_id":"1608122","postal_code":"32360","name":"Metro Rejo"},{"id":"1608122021","district_id":"1608122","postal_code":"32360","name":"Kedu"},{"id":"1608122022","district_id":"1608122","postal_code":"32360","name":"Kedung Rejo"},{"id":"1608122023","district_id":"1608122","postal_code":"32360","name":"Banyumas Asri"},{"id":"1608122024","district_id":"1608122","postal_code":"32360","name":"Gumuk Rejo"},{"id":"1608122025","district_id":"1608122","postal_code":"32360","name":"Tanjung Mulya"},{"id":"1608122026","district_id":"1608122","postal_code":"32360","name":"Raman Agung"},{"id":"1608122027","district_id":"1608122","postal_code":"32360","name":"Bukit Mas"},{"id":"1608122028","district_id":"1608122","postal_code":"32360","name":"Tanjung Agung"},{"id":"1608122029","district_id":"1608122","postal_code":"32360","name":"Berasan Mulya"},{"id":"1608122030","district_id":"1608122","postal_code":"32360","name":"Sumber Tani"}]