[{"id":"1609132001","district_id":"1609132","postal_code":"32275","name":"Sukajaya"},{"id":"1609132002","district_id":"1609132","postal_code":"32275","name":"Kota Batu"},{"id":"1609132003","district_id":"1609132","postal_code":"32275","name":"Pagar Dewa"},{"id":"1609132004","district_id":"1609132","postal_code":"32275","name":"Tanjung Jati"},{"id":"1609132005","district_id":"1609132","postal_code":"32275","name":"Gunung Aji"},{"id":"1609132006","district_id":"1609132","postal_code":"32275","name":"Pilla"},{"id":"1609132007","district_id":"1609132","postal_code":"32275","name":"Gunung Raya"},{"id":"1609132008","district_id":"1609132","postal_code":"32275","name":"Remanam Jaya"},{"id":"1609132009","district_id":"1609132","postal_code":"32275","name":"Kiwis Raya"},{"id":"1609132010","district_id":"1609132","postal_code":"32275","name":"Segigok Raya"},{"id":"1609132011","district_id":"1609132","postal_code":"32275","name":"Bumi Agung"},{"id":"1609132012","district_id":"1609132","postal_code":"32275","name":"Mekar Sari"},{"id":"1609132013","district_id":"1609132","postal_code":"32275","name":"Bedeng Tiga"},{"id":"1609132014","district_id":"1609132","postal_code":"32275","name":"Gedung Ranau"},{"id":"1609132015","district_id":"1609132","postal_code":"32275","name":"Tanjung Baru"},{"id":"1609132016","district_id":"1609132","postal_code":"32275","name":"Way Wangi Seminung"}]