[{"id":"1610012005","district_id":"1610012","postal_code":"30865","name":"Munggu"},{"id":"1610012006","district_id":"1610012","postal_code":"30865","name":"Seri Menanti"},{"id":"1610012007","district_id":"1610012","postal_code":"30865","name":"Rantau Sialang"},{"id":"1610012008","district_id":"1610012","postal_code":"30865","name":"Kuang Anyar"},{"id":"1610012009","district_id":"1610012","postal_code":"30865","name":"Kasah"},{"id":"1610012012","district_id":"1610012","postal_code":"30865","name":"Tanabang Ulu"},{"id":"1610012013","district_id":"1610012","postal_code":"30865","name":"Seri Kembang"},{"id":"1610012014","district_id":"1610012","postal_code":"30865","name":"Nagasari"},{"id":"1610012015","district_id":"1610012","postal_code":"30865","name":"Suka Cinta"},{"id":"1610012016","district_id":"1610012","postal_code":"30865","name":"Kelampadu"},{"id":"1610012029","district_id":"1610012","postal_code":"30865","name":"Sukajadi"},{"id":"1610012030","district_id":"1610012","postal_code":"30865","name":"Ramakasih"},{"id":"1610012031","district_id":"1610012","postal_code":"30865","name":"Tanabang Ilir"}]