[{"id":"1611032001","district_id":"1611032","postal_code":"31597","name":"Air Kelincar"},{"id":"1611032002","district_id":"1611032","postal_code":"31597","name":"Talang Bengkulu"},{"id":"1611032003","district_id":"1611032","postal_code":"31597","name":"Kunduran"},{"id":"1611032004","district_id":"1611032","postal_code":"31597","name":"Simpang Perigi"},{"id":"1611032005","district_id":"1611032","postal_code":"31597","name":"Muara Kalangan"},{"id":"1611032006","district_id":"1611032","postal_code":"31597","name":"Batu Lintang"},{"id":"1611032007","district_id":"1611032","postal_code":"31597","name":"Padang Tepong"},{"id":"1611032008","district_id":"1611032","postal_code":"31597","name":"Muara Betung"},{"id":"1611032009","district_id":"1611032","postal_code":"31597","name":"Lb. Puding Baru"},{"id":"1611032010","district_id":"1611032","postal_code":"31597","name":"Pulau Kemang"},{"id":"1611032011","district_id":"1611032","postal_code":"31597","name":"Lb. Puding Lama"},{"id":"1611032012","district_id":"1611032","postal_code":"31597","name":"Batu Bidung"},{"id":"1611032024","district_id":"1611032","postal_code":"31597","name":"Tanjung Agung"},{"id":"1611032025","district_id":"1611032","postal_code":"31597","name":"Galang"}]