[{"id":"1611022001","district_id":"1611022","postal_code":"31598","name":"Jarakan"},{"id":"1611022002","district_id":"1611022","postal_code":"31598","name":"Bandar Agung"},{"id":"1611022003","district_id":"1611022","postal_code":"31598","name":"Lubuk Sepang"},{"id":"1611022004","district_id":"1611022","postal_code":"31598","name":"Lubuk Layang"},{"id":"1611022005","district_id":"1611022","postal_code":"31598","name":"Nanjungan"},{"id":"1611022006","district_id":"1611022","postal_code":"31598","name":"Tanjungeran"},{"id":"1611022007","district_id":"1611022","postal_code":"31598","name":"Tanjungraman"},{"id":"1611022020","district_id":"1611022","postal_code":"31598","name":"Bayau"},{"id":"1611022022","district_id":"1611022","postal_code":"31598","name":"Gn. Meraksa Baru"},{"id":"1611022023","district_id":"1611022","postal_code":"31598","name":"Landur"},{"id":"1611022024","district_id":"1611022","postal_code":"31598","name":"Muarakarang"},{"id":"1611022025","district_id":"1611022","postal_code":"31598","name":"Sarang Bulan"},{"id":"1611022026","district_id":"1611022","postal_code":"31598","name":"Tanjungbaru"},{"id":"1611022027","district_id":"1611022","postal_code":"31598","name":"Batu Cawang"},{"id":"1611022028","district_id":"1611022","postal_code":"31598","name":"Manggilan"},{"id":"1611022029","district_id":"1611022","postal_code":"31598","name":"Gn Merakasa Lama"}]