[{"id":"1709012001","district_id":"1709012","postal_code":"38382","name":"Taba Terunjam"},{"id":"1709012002","district_id":"1709012","postal_code":"38382","name":"Talang Empat"},{"id":"1709012003","district_id":"1709012","postal_code":"38382","name":"Padang Tambak"},{"id":"1709012004","district_id":"1709012","postal_code":"38382","name":"Durian Demang"},{"id":"1709012005","district_id":"1709012","postal_code":"38382","name":"Pelajau"},{"id":"1709012007","district_id":"1709012","postal_code":"38382","name":"Dusun Baru Ii"},{"id":"1709012008","district_id":"1709012","postal_code":"38382","name":"Penanding"},{"id":"1709012009","district_id":"1709012","postal_code":"38382","name":"Karang Tinggi"},{"id":"1709012010","district_id":"1709012","postal_code":"38382","name":"Renah Lebar"},{"id":"1709012011","district_id":"1709012","postal_code":"38382","name":"Kancing"},{"id":"1709012012","district_id":"1709012","postal_code":"38382","name":"Ujung Karang"},{"id":"1709012013","district_id":"1709012","postal_code":"38382","name":"Taba Mutung"},{"id":"1709012015","district_id":"1709012","postal_code":"38382","name":"Renah Semanek"}]