[{"id":"1709072001","district_id":"1709072","postal_code":"38386","name":"Jambu"},{"id":"1709072002","district_id":"1709072","postal_code":"38386","name":"Penembang"},{"id":"1709072003","district_id":"1709072","postal_code":"38386","name":"Talang Ambung"},{"id":"1709072004","district_id":"1709072","postal_code":"38386","name":"Taba Durian Sebakul"},{"id":"1709072005","district_id":"1709072","postal_code":"38386","name":"Lubuk Unen"},{"id":"1709072006","district_id":"1709072","postal_code":"38386","name":"Pungguk Ketupak"},{"id":"1709072007","district_id":"1709072","postal_code":"38386","name":"Pungguk Beringin"},{"id":"1709072008","district_id":"1709072","postal_code":"38386","name":"Ulak Lebar"},{"id":"1709072009","district_id":"1709072","postal_code":"38386","name":"Kelindang"},{"id":"1709072010","district_id":"1709072","postal_code":"38386","name":"Bajak Ii"},{"id":"1709072011","district_id":"1709072","postal_code":"38386","name":"Lubuk Unen Baru"},{"id":"1709072012","district_id":"1709072","postal_code":"38386","name":"Padang Kedeper"},{"id":"1709072013","district_id":"1709072","postal_code":"38386","name":"Kelindang Atas"}]