[{"id":"1801072001","district_id":"1801072","postal_code":"35352","name":"Bandar Dalam"},{"id":"1801072002","district_id":"1801072","postal_code":"35352","name":"Campang Tiga"},{"id":"1801072003","district_id":"1801072","postal_code":"35352","name":"Talang Baru"},{"id":"1801072004","district_id":"1801072","postal_code":"35352","name":"Suka Banjar"},{"id":"1801072005","district_id":"1801072","postal_code":"35352","name":"Kota Dalam"},{"id":"1801072006","district_id":"1801072","postal_code":"35352","name":"Budidaya"},{"id":"1801072007","district_id":"1801072","postal_code":"35352","name":"Siring Jaha"},{"id":"1801072008","district_id":"1801072","postal_code":"35352","name":"Suak"},{"id":"1801072009","district_id":"1801072","postal_code":"35352","name":"Sukamaju"},{"id":"1801072010","district_id":"1801072","postal_code":"35352","name":"Sukamarga"},{"id":"1801072011","district_id":"1801072","postal_code":"35352","name":"Seloretno"},{"id":"1801072012","district_id":"1801072","postal_code":"35352","name":"Sidodadi"},{"id":"1801072013","district_id":"1801072","postal_code":"35352","name":"Sidorejo"},{"id":"1801072014","district_id":"1801072","postal_code":"35352","name":"Sidomulyo"},{"id":"1801072015","district_id":"1801072","postal_code":"35352","name":"Sidowaluyo"},{"id":"1801072020","district_id":"1801072","postal_code":"35352","name":"Banjar Suri"}]