[{"id":"1806212001","district_id":"1806212","postal_code":"35379","name":"Banjar Negeri"},{"id":"1806212002","district_id":"1806212","postal_code":"35379","name":"Sukaraja"},{"id":"1806212003","district_id":"1806212","postal_code":"35379","name":"Banjar Agung"},{"id":"1806212004","district_id":"1806212","postal_code":"35379","name":"Kedaloman"},{"id":"1806212005","district_id":"1806212","postal_code":"35379","name":"Suka Banjar"},{"id":"1806212006","district_id":"1806212","postal_code":"35379","name":"Sukamernah"},{"id":"1806212007","district_id":"1806212","postal_code":"35379","name":"Ciherang"},{"id":"1806212008","district_id":"1806212","postal_code":"35379","name":"Pariaman"},{"id":"1806212009","district_id":"1806212","postal_code":"35379","name":"Sukadamai"},{"id":"1806212010","district_id":"1806212","postal_code":"35379","name":"Way Halom"},{"id":"1806212011","district_id":"1806212","postal_code":"35379","name":"Penanggungan"},{"id":"1806212012","district_id":"1806212","postal_code":"35379","name":"Darussalam"}]