[{"id":"1808112001","district_id":"1808112","postal_code":"34769","name":"Negara Batin"},{"id":"1808112002","district_id":"1808112","postal_code":"34769","name":"Purwa Agung"},{"id":"1808112003","district_id":"1808112","postal_code":"34769","name":"Purwa Negara"},{"id":"1808112004","district_id":"1808112","postal_code":"34769","name":"Setia Negara"},{"id":"1808112005","district_id":"1808112","postal_code":"34769","name":"Sri Mulyo"},{"id":"1808112006","district_id":"1808112","postal_code":"34769","name":"Sri Menanti"},{"id":"1808112007","district_id":"1808112","postal_code":"34769","name":"Karta Jaya"},{"id":"1808112008","district_id":"1808112","postal_code":"34769","name":"Gisting Jaya"},{"id":"1808112009","district_id":"1808112","postal_code":"34769","name":"Marga Jaya"},{"id":"1808112010","district_id":"1808112","postal_code":"34769","name":"Bumi Jaya"},{"id":"1808112011","district_id":"1808112","postal_code":"34769","name":"Gedung Jaya"},{"id":"1808112012","district_id":"1808112","postal_code":"34769","name":"Adi Jaya"},{"id":"1808112013","district_id":"1808112","postal_code":"34769","name":"Sari Jaya"},{"id":"1808112014","district_id":"1808112","postal_code":"34769","name":"Negara Mulya"},{"id":"1808112015","district_id":"1808112","postal_code":"34769","name":"Kota Jawa"}]