[{"id":"1809022001","district_id":"1809022","postal_code":"35353","name":"Kagungan Ratu"},{"id":"1809022002","district_id":"1809022","postal_code":"35353","name":"Kali Rejo"},{"id":"1809022003","district_id":"1809022","postal_code":"35353","name":"Purworejo"},{"id":"1809022004","district_id":"1809022","postal_code":"35353","name":"Pujo Rahayu"},{"id":"1809022005","district_id":"1809022","postal_code":"35353","name":"Negeri Katon"},{"id":"1809022006","district_id":"1809022","postal_code":"35353","name":"Ponco Kresno"},{"id":"1809022007","district_id":"1809022","postal_code":"35353","name":"Halangan Ratu"},{"id":"1809022008","district_id":"1809022","postal_code":"35353","name":"Pejambon"},{"id":"1809022009","district_id":"1809022","postal_code":"35353","name":"Negara Saka"},{"id":"1809022010","district_id":"1809022","postal_code":"35353","name":"Sinar Bandung"},{"id":"1809022011","district_id":"1809022","postal_code":"35353","name":"Tanjung Rejo"},{"id":"1809022012","district_id":"1809022","postal_code":"35353","name":"Rowo Rejo"},{"id":"1809022013","district_id":"1809022","postal_code":"35353","name":"Tresno Maju"},{"id":"1809022014","district_id":"1809022","postal_code":"35353","name":"Sidomulyo"},{"id":"1809022015","district_id":"1809022","postal_code":"35353","name":"Lumbirejo"},{"id":"1809022016","district_id":"1809022","postal_code":"35353","name":"Tri Rahayu"},{"id":"1809022017","district_id":"1809022","postal_code":"35353","name":"Bangun Sari"},{"id":"1809022018","district_id":"1809022","postal_code":"35353","name":"Karang Rejo"},{"id":"1809022019","district_id":"1809022","postal_code":"35353","name":"Negeri Ulangan Jaya"}]