[{"id":"3203192001","district_id":"3203192","postal_code":"43267","name":"Tanggeung"},{"id":"3203192002","district_id":"3203192","postal_code":"43267","name":"Rawagede"},{"id":"3203192003","district_id":"3203192","postal_code":"43267","name":"Cilongsong"},{"id":"3203192004","district_id":"3203192","postal_code":"43267","name":"Margaluyu"},{"id":"3203192005","district_id":"3203192","postal_code":"43267","name":"Karangtengah"},{"id":"3203192006","district_id":"3203192","postal_code":"43267","name":"Pagermaneuh"},{"id":"3203192007","district_id":"3203192","postal_code":"43267","name":"Bojongpetir"},{"id":"3203192009","district_id":"3203192","postal_code":"43267","name":"Pasirjambu"},{"id":"3203192010","district_id":"3203192","postal_code":"43267","name":"Sirnajaya"},{"id":"3203192013","district_id":"3203192","postal_code":"43267","name":"Kertajaya"},{"id":"3203192014","district_id":"3203192","postal_code":"43267","name":"Sukajaya"},{"id":"3203192015","district_id":"3203192","postal_code":"43267","name":"Padaluyu"}]