[{"id":"3206322001","district_id":"3206322","postal_code":"46153","name":"Cisayong"},{"id":"3206322002","district_id":"3206322","postal_code":"46153","name":"Sukajadi"},{"id":"3206322003","district_id":"3206322","postal_code":"46153","name":"Sukasukur"},{"id":"3206322004","district_id":"3206322","postal_code":"46153","name":"Sukamukti"},{"id":"3206322005","district_id":"3206322","postal_code":"46153","name":"Nusawangi"},{"id":"3206322006","district_id":"3206322","postal_code":"46153","name":"Cikadu"},{"id":"3206322007","district_id":"3206322","postal_code":"46153","name":"Cileuleus"},{"id":"3206322008","district_id":"3206322","postal_code":"46153","name":"Jatihurip"},{"id":"3206322009","district_id":"3206322","postal_code":"46153","name":"Sukasetia"},{"id":"3206322010","district_id":"3206322","postal_code":"46153","name":"Purwasari"},{"id":"3206322011","district_id":"3206322","postal_code":"46153","name":"Sukaraharja"},{"id":"3206322012","district_id":"3206322","postal_code":"46153","name":"Mekarwangi"},{"id":"3206322013","district_id":"3206322","postal_code":"46153","name":"Santanamekar"}]