[{"id":"3208312001","district_id":"3208312","postal_code":"45573","name":"Sindangsari"},{"id":"3208312002","district_id":"3208312","postal_code":"45573","name":"Kaduagung"},{"id":"3208312003","district_id":"3208312","postal_code":"45573","name":"Kertaungaran"},{"id":"3208312004","district_id":"3208312","postal_code":"45573","name":"Sindangagung"},{"id":"3208312005","district_id":"3208312","postal_code":"45573","name":"Balong"},{"id":"3208312006","district_id":"3208312","postal_code":"45573","name":"Kertayasa"},{"id":"3208312007","district_id":"3208312","postal_code":"45573","name":"Kertawangunan"},{"id":"3208312008","district_id":"3208312","postal_code":"45573","name":"Babakanreuma"},{"id":"3208312009","district_id":"3208312","postal_code":"45573","name":"Tirtawangunan"},{"id":"3208312010","district_id":"3208312","postal_code":"45573","name":"Dukuh Lor"},{"id":"3208312011","district_id":"3208312","postal_code":"45573","name":"Taraju"},{"id":"3208312012","district_id":"3208312","postal_code":"45573","name":"Mekarmukti"}]