[{"id":"3208062001","district_id":"3208062","postal_code":"45581","name":"Dukuhpicung"},{"id":"3208062002","district_id":"3208062","postal_code":"45581","name":"Walaharcageur"},{"id":"3208062003","district_id":"3208062","postal_code":"45581","name":"Wilanagara"},{"id":"3208062004","district_id":"3208062","postal_code":"45581","name":"Cigedang"},{"id":"3208062005","district_id":"3208062","postal_code":"45581","name":"Luragung Tonggoh"},{"id":"3208062006","district_id":"3208062","postal_code":"45581","name":"Sindangsari"},{"id":"3208062007","district_id":"3208062","postal_code":"45581","name":"Cirahayu"},{"id":"3208062008","district_id":"3208062","postal_code":"45581","name":"Margasari"},{"id":"3208062009","district_id":"3208062","postal_code":"45581","name":"Sindangsuka"},{"id":"3208062010","district_id":"3208062","postal_code":"45581","name":"Cikandang"},{"id":"3208062011","district_id":"3208062","postal_code":"45581","name":"Panyosogan"},{"id":"3208062012","district_id":"3208062","postal_code":"45581","name":"Gunungkarung"},{"id":"3208062013","district_id":"3208062","postal_code":"45581","name":"Luragung Landeuh"},{"id":"3208062014","district_id":"3208062","postal_code":"45581","name":"Dukuhmaja"},{"id":"3208062015","district_id":"3208062","postal_code":"45582","name":"Benda"},{"id":"3208062016","district_id":"3208062","postal_code":"45582","name":"Cikaduwetan"}]