[{"id":"3208112001","district_id":"3208112","postal_code":"45595","name":"Cihideung Girang"},{"id":"3208112002","district_id":"3208112","postal_code":"45595","name":"Cihideung Hilir"},{"id":"3208112003","district_id":"3208112","postal_code":"45595","name":"Cidahu"},{"id":"3208112004","district_id":"3208112","postal_code":"45595","name":"Kertawinangun"},{"id":"3208112005","district_id":"3208112","postal_code":"45595","name":"Datar"},{"id":"3208112006","district_id":"3208112","postal_code":"45595","name":"Legok"},{"id":"3208112007","district_id":"3208112","postal_code":"45595","name":"Cikeusik"},{"id":"3208112008","district_id":"3208112","postal_code":"45595","name":"Cieurih"},{"id":"3208112009","district_id":"3208112","postal_code":"45595","name":"Cibulan"},{"id":"3208112010","district_id":"3208112","postal_code":"45595","name":"Nanggela"},{"id":"3208112011","district_id":"3208112","postal_code":"45595","name":"Jatimulya"},{"id":"3208112012","district_id":"3208112","postal_code":"45595","name":"Bunder"}]