[{"id":"3209122001","district_id":"3209122","postal_code":"45173","name":"Setupatok"},{"id":"3209122002","district_id":"3209122","postal_code":"45173","name":"Penpen"},{"id":"3209122003","district_id":"3209122","postal_code":"45173","name":"Mundumesigit"},{"id":"3209122004","district_id":"3209122","postal_code":"45173","name":"Luwung"},{"id":"3209122005","district_id":"3209122","postal_code":"45173","name":"Waruduwur"},{"id":"3209122006","district_id":"3209122","postal_code":"45173","name":"Citemu"},{"id":"3209122007","district_id":"3209122","postal_code":"45173","name":"Bandengan"},{"id":"3209122008","district_id":"3209122","postal_code":"45173","name":"Mundupesisir"},{"id":"3209122009","district_id":"3209122","postal_code":"45173","name":"Suci"},{"id":"3209122010","district_id":"3209122","postal_code":"45173","name":"Banjarwangunan"},{"id":"3209122011","district_id":"3209122","postal_code":"45173","name":"Pamengkang"},{"id":"3209122012","district_id":"3209122","postal_code":"45173","name":"Sinar Rancang"}]