[{"id":"3211152001","district_id":"3211152","postal_code":"45360","name":"Cikeruh"},{"id":"3211152002","district_id":"3211152","postal_code":"45360","name":"Hegarmanah"},{"id":"3211152003","district_id":"3211152","postal_code":"45360","name":"Cibeusi"},{"id":"3211152004","district_id":"3211152","postal_code":"45360","name":"Cipacing"},{"id":"3211152005","district_id":"3211152","postal_code":"45360","name":"Sayang"},{"id":"3211152006","district_id":"3211152","postal_code":"45360","name":"Mekargalih"},{"id":"3211152007","district_id":"3211152","postal_code":"45360","name":"Cintamulya"},{"id":"3211152008","district_id":"3211152","postal_code":"45360","name":"Jatimukti"},{"id":"3211152009","district_id":"3211152","postal_code":"45360","name":"Cisempur"},{"id":"3211152010","district_id":"3211152","postal_code":"45360","name":"Jatiroke"},{"id":"3211152011","district_id":"3211152","postal_code":"45360","name":"Cileles"},{"id":"3211152012","district_id":"3211152","postal_code":"45360","name":"Cilayung"}]