[{"id":"3212132001","district_id":"3212132","postal_code":"45273","name":"Sukalila"},{"id":"3212132002","district_id":"3212132","postal_code":"45273","name":"Pilangsari"},{"id":"3212132003","district_id":"3212132","postal_code":"45273","name":"Jatibarang Baru"},{"id":"3212132004","district_id":"3212132","postal_code":"45273","name":"Bulak"},{"id":"3212132005","district_id":"3212132","postal_code":"45273","name":"Bulak Lor"},{"id":"3212132006","district_id":"3212132","postal_code":"45273","name":"Jatibarang"},{"id":"3212132007","district_id":"3212132","postal_code":"45273","name":"Kebulen"},{"id":"3212132008","district_id":"3212132","postal_code":"45273","name":"Pawidean"},{"id":"3212132009","district_id":"3212132","postal_code":"45273","name":"Jatisawit"},{"id":"3212132010","district_id":"3212132","postal_code":"45273","name":"Jatisawit Lor"},{"id":"3212132011","district_id":"3212132","postal_code":"45273","name":"Krasak"},{"id":"3212132012","district_id":"3212132","postal_code":"45273","name":"Kalimati"},{"id":"3212132013","district_id":"3212132","postal_code":"45273","name":"Malang Semirang"},{"id":"3212132014","district_id":"3212132","postal_code":"45273","name":"Lohbener"},{"id":"3212132015","district_id":"3212132","postal_code":"45273","name":"Lohbener Lor"}]