[{"id":"3301092001","district_id":"3301092","postal_code":"53251","name":"Grugu"},{"id":"3301092002","district_id":"3301092","postal_code":"53251","name":"Bringkeng"},{"id":"3301092003","district_id":"3301092","postal_code":"53251","name":"Ujungmanik"},{"id":"3301092004","district_id":"3301092","postal_code":"53251","name":"Kubangkangkung"},{"id":"3301092005","district_id":"3301092","postal_code":"53251","name":"Bojong"},{"id":"3301092006","district_id":"3301092","postal_code":"53251","name":"Mentasan"},{"id":"3301092007","district_id":"3301092","postal_code":"53251","name":"Kalijeruk"},{"id":"3301092008","district_id":"3301092","postal_code":"53251","name":"Kawunganten"},{"id":"3301092009","district_id":"3301092","postal_code":"53251","name":"Sarwadadi"},{"id":"3301092010","district_id":"3301092","postal_code":"53251","name":"Kawunganten Lor"},{"id":"3301092014","district_id":"3301092","postal_code":"53251","name":"Babakan"},{"id":"3301092015","district_id":"3301092","postal_code":"53251","name":"Sidaurip"}]