[{"id":"3302062001","district_id":"3302062","postal_code":"53194","name":"Grujugan"},{"id":"3302062002","district_id":"3302062","postal_code":"53194","name":"Sirau"},{"id":"3302062003","district_id":"3302062","postal_code":"53194","name":"Sibalung"},{"id":"3302062004","district_id":"3302062","postal_code":"53194","name":"Sibrama"},{"id":"3302062005","district_id":"3302062","postal_code":"53194","name":"Kedungpring"},{"id":"3302062006","district_id":"3302062","postal_code":"53194","name":"Kecila"},{"id":"3302062007","district_id":"3302062","postal_code":"53194","name":"Nusamangir"},{"id":"3302062008","district_id":"3302062","postal_code":"53194","name":"Karangjati"},{"id":"3302062009","district_id":"3302062","postal_code":"53194","name":"Kebarongan"},{"id":"3302062010","district_id":"3302062","postal_code":"53194","name":"Sidamulya"},{"id":"3302062011","district_id":"3302062","postal_code":"53194","name":"Pageralang"},{"id":"3302062012","district_id":"3302062","postal_code":"53194","name":"Alasmalang"},{"id":"3302062013","district_id":"3302062","postal_code":"53194","name":"Petarangan"},{"id":"3302062014","district_id":"3302062","postal_code":"53194","name":"Karanggintung"},{"id":"3302062015","district_id":"3302062","postal_code":"53194","name":"Karangsalam"}]