[{"id":"3306092001","district_id":"3306092","postal_code":"54212","name":"Kebondalem"},{"id":"3306092002","district_id":"3306092","postal_code":"54212","name":"Tuntungpait"},{"id":"3306092003","district_id":"3306092","postal_code":"54212","name":"Kiyangkongrejo"},{"id":"3306092004","district_id":"3306092","postal_code":"54212","name":"Suren"},{"id":"3306092005","district_id":"3306092","postal_code":"54212","name":"Karangwuluh"},{"id":"3306092006","district_id":"3306092","postal_code":"54212","name":"Purwosari"},{"id":"3306092007","district_id":"3306092","postal_code":"54212","name":"Kepuh"},{"id":"3306092008","district_id":"3306092","postal_code":"54212","name":"Majir"},{"id":"3306092011","district_id":"3306092","postal_code":"54212","name":"Kuwurejo"},{"id":"3306092012","district_id":"3306092","postal_code":"54212","name":"Pringgowijayan"},{"id":"3306092013","district_id":"3306092","postal_code":"54212","name":"Sidarum"},{"id":"3306092018","district_id":"3306092","postal_code":"54212","name":"Pacor"},{"id":"3306092019","district_id":"3306092","postal_code":"54212","name":"Tunggorono"},{"id":"3306092020","district_id":"3306092","postal_code":"54212","name":"Tepus Kulon"},{"id":"3306092021","district_id":"3306092","postal_code":"54212","name":"Sokoharjo"},{"id":"3306092022","district_id":"3306092","postal_code":"54212","name":"Kemadu Lor"},{"id":"3306092023","district_id":"3306092","postal_code":"54212","name":"Kaligesing"},{"id":"3306092024","district_id":"3306092","postal_code":"54212","name":"Tepus Wetan"},{"id":"3306092025","district_id":"3306092","postal_code":"54212","name":"Wirun"},{"id":"3306092026","district_id":"3306092","postal_code":"54212","name":"Karangrejo"},{"id":"3306092027","district_id":"3306092","postal_code":"54212","name":"Tursino"}]