[{"id":"3306142001","district_id":"3306142","postal_code":"54191","name":"Winongkidul"},{"id":"3306142002","district_id":"3306142","postal_code":"54191","name":"Seren"},{"id":"3306142004","district_id":"3306142","postal_code":"54191","name":"Gintungan"},{"id":"3306142005","district_id":"3306142","postal_code":"54191","name":"Bulus"},{"id":"3306142006","district_id":"3306142","postal_code":"54191","name":"Rendeng"},{"id":"3306142007","district_id":"3306142","postal_code":"54191","name":"Kroyo"},{"id":"3306142008","district_id":"3306142","postal_code":"54191","name":"Winonglor"},{"id":"3306142009","district_id":"3306142","postal_code":"54191","name":"Mlaran"},{"id":"3306142010","district_id":"3306142","postal_code":"54191","name":"Pelutan"},{"id":"3306142011","district_id":"3306142","postal_code":"54191","name":"Bendosari"},{"id":"3306142012","district_id":"3306142","postal_code":"54191","name":"Gebang"},{"id":"3306142013","district_id":"3306142","postal_code":"54191","name":"Salam"},{"id":"3306142014","district_id":"3306142","postal_code":"54191","name":"Pakem"},{"id":"3306142015","district_id":"3306142","postal_code":"54191","name":"Wonotopo"},{"id":"3306142016","district_id":"3306142","postal_code":"54191","name":"Sidoleren"},{"id":"3306142017","district_id":"3306142","postal_code":"54191","name":"Penungkulan"},{"id":"3306142018","district_id":"3306142","postal_code":"54191","name":"Redin"},{"id":"3306142019","district_id":"3306142","postal_code":"54191","name":"Tlogosono"},{"id":"3306142020","district_id":"3306142","postal_code":"54191","name":"Ngemplak"},{"id":"3306142021","district_id":"3306142","postal_code":"54191","name":"Kragilan"},{"id":"3306142022","district_id":"3306142","postal_code":"54191","name":"Prumben"},{"id":"3306142023","district_id":"3306142","postal_code":"54191","name":"Ngaglik"},{"id":"3306142024","district_id":"3306142","postal_code":"54262","name":"Kemiri"},{"id":"3306142025","district_id":"3306142","postal_code":"54191","name":"Kalitengkek"}]