[{"id":"3307122001","district_id":"3307122","postal_code":"56353","name":"Lengkong"},{"id":"3307122002","district_id":"3307122","postal_code":"56353","name":"Gemblengan"},{"id":"3307122003","district_id":"3307122","postal_code":"56353","name":"Sendangsari"},{"id":"3307122004","district_id":"3307122","postal_code":"56353","name":"Kayugiyang"},{"id":"3307122006","district_id":"3307122","postal_code":"56353","name":"Siwuran"},{"id":"3307122007","district_id":"3307122","postal_code":"56353","name":"Kuripan"},{"id":"3307122008","district_id":"3307122","postal_code":"56353","name":"Jengkol"},{"id":"3307122009","district_id":"3307122","postal_code":"56353","name":"Tlogo"},{"id":"3307122010","district_id":"3307122","postal_code":"56353","name":"Maron"},{"id":"3307122011","district_id":"3307122","postal_code":"56353","name":"Menjer"},{"id":"3307122012","district_id":"3307122","postal_code":"56353","name":"Mlandi"},{"id":"3307122013","district_id":"3307122","postal_code":"56353","name":"Laranganlor"},{"id":"3307122014","district_id":"3307122","postal_code":"56353","name":"Sitiharjo"},{"id":"3307122015","district_id":"3307122","postal_code":"56353","name":"Tegalsari"}]