[{"id":"3307132001","district_id":"3307132","postal_code":"56314","name":"Campursari"},{"id":"3307132002","district_id":"3307132","postal_code":"56354","name":"Sikunang"},{"id":"3307132003","district_id":"3307132","postal_code":"56354","name":"Sembungan"},{"id":"3307132004","district_id":"3307132","postal_code":"56354","name":"Kreo"},{"id":"3307132005","district_id":"3307132","postal_code":"56354","name":"Tambi"},{"id":"3307132006","district_id":"3307132","postal_code":"56354","name":"Buntu"},{"id":"3307132007","district_id":"3307132","postal_code":"56354","name":"Sigedang"},{"id":"3307132009","district_id":"3307132","postal_code":"56354","name":"Serang"},{"id":"3307132010","district_id":"3307132","postal_code":"56354","name":"Tieng"},{"id":"3307132011","district_id":"3307132","postal_code":"56354","name":"Parikesit"},{"id":"3307132012","district_id":"3307132","postal_code":"56354","name":"Jojogan"},{"id":"3307132013","district_id":"3307132","postal_code":"56354","name":"Dieng"},{"id":"3307132014","district_id":"3307132","postal_code":"56354","name":"Patakbanteng"},{"id":"3307132015","district_id":"3307132","postal_code":"56354","name":"Surengede"},{"id":"3307132016","district_id":"3307132","postal_code":"56354","name":"Igirmranak"}]