[{"id":"3312202001","district_id":"3312202","postal_code":"57691","name":"Tasikhargo"},{"id":"3312202002","district_id":"3312202","postal_code":"57691","name":"Sumberejo"},{"id":"3312202003","district_id":"3312202","postal_code":"57691","name":"Rejosari"},{"id":"3312202004","district_id":"3312202","postal_code":"57691","name":"Gondangsari"},{"id":"3312202005","district_id":"3312202","postal_code":"57691","name":"Sidorejo"},{"id":"3312202006","district_id":"3312202","postal_code":"57691","name":"Ngrompak"},{"id":"3312202007","district_id":"3312202","postal_code":"57691","name":"Semen"},{"id":"3312202008","district_id":"3312202","postal_code":"57691","name":"Pule"},{"id":"3312202010","district_id":"3312202","postal_code":"57691","name":"Sambirejo"},{"id":"3312202011","district_id":"3312202","postal_code":"57691","name":"Tanggulangin"},{"id":"3312202013","district_id":"3312202","postal_code":"57691","name":"Gunungsari"},{"id":"3312202014","district_id":"3312202","postal_code":"57691","name":"Jatisari"},{"id":"3312202015","district_id":"3312202","postal_code":"57691","name":"Jatisrono"},{"id":"3312202016","district_id":"3312202","postal_code":"57691","name":"Watangsono"},{"id":"3312202017","district_id":"3312202","postal_code":"57691","name":"Pandeyan"}]