[{"id":"3312072001","district_id":"3312072","postal_code":"57673","name":"Glesungrejo"},{"id":"3312072002","district_id":"3312072","postal_code":"57673","name":"Balepanjang"},{"id":"3312072003","district_id":"3312072","postal_code":"57673","name":"Watuagung"},{"id":"3312072004","district_id":"3312072","postal_code":"57673","name":"Belikurip"},{"id":"3312072005","district_id":"3312072","postal_code":"57673","name":"Baturetno"},{"id":"3312072006","district_id":"3312072","postal_code":"57673","name":"Gambiranom"},{"id":"3312072007","district_id":"3312072","postal_code":"57673","name":"Talunombo"},{"id":"3312072008","district_id":"3312072","postal_code":"57673","name":"Saradan"},{"id":"3312072009","district_id":"3312072","postal_code":"57673","name":"Temon"},{"id":"3312072010","district_id":"3312072","postal_code":"57673","name":"Setrorejo"},{"id":"3312072011","district_id":"3312072","postal_code":"57673","name":"Sendangrejo"},{"id":"3312072012","district_id":"3312072","postal_code":"57673","name":"Boto"},{"id":"3312072013","district_id":"3312072","postal_code":"57673","name":"Kedungombo"}]