[{"id":"3318172001","district_id":"3318172","postal_code":"59156","name":"Jrahi"},{"id":"3318172002","district_id":"3318172","postal_code":"59156","name":"Giling"},{"id":"3318172003","district_id":"3318172","postal_code":"59156","name":"Gulangpongge"},{"id":"3318172004","district_id":"3318172","postal_code":"59156","name":"Jepalo"},{"id":"3318172005","district_id":"3318172","postal_code":"59156","name":"Sidomulyo"},{"id":"3318172006","district_id":"3318172","postal_code":"59156","name":"Sampok"},{"id":"3318172007","district_id":"3318172","postal_code":"59156","name":"Pesagen"},{"id":"3318172008","district_id":"3318172","postal_code":"59156","name":"Gadu"},{"id":"3318172009","district_id":"3318172","postal_code":"59156","name":"Gajihan"},{"id":"3318172010","district_id":"3318172","postal_code":"59156","name":"Perdopo"},{"id":"3318172011","district_id":"3318172","postal_code":"59156","name":"Gunungwungkal"},{"id":"3318172012","district_id":"3318172","postal_code":"59156","name":"Bancak"},{"id":"3318172013","district_id":"3318172","postal_code":"59156","name":"Jembulwunut"},{"id":"3318172014","district_id":"3318172","postal_code":"59156","name":"Ngetuk"},{"id":"3318172015","district_id":"3318172","postal_code":"59156","name":"Sumberrejo"}]