[{"id":"3318192001","district_id":"3318192","postal_code":"59155","name":"Pondowan"},{"id":"3318192002","district_id":"3318192","postal_code":"59155","name":"Kedungsari"},{"id":"3318192003","district_id":"3318192","postal_code":"59155","name":"Margomulyo"},{"id":"3318192004","district_id":"3318192","postal_code":"59155","name":"Pakis"},{"id":"3318192005","district_id":"3318192","postal_code":"59155","name":"Sendangrejo"},{"id":"3318192006","district_id":"3318192","postal_code":"59155","name":"Jepat Kidul"},{"id":"3318192007","district_id":"3318192","postal_code":"59155","name":"Tunggulsari"},{"id":"3318192008","district_id":"3318192","postal_code":"59155","name":"Jepat Lor"},{"id":"3318192009","district_id":"3318192","postal_code":"59155","name":"Tendas"},{"id":"3318192010","district_id":"3318192","postal_code":"59155","name":"Keboromo"},{"id":"3318192011","district_id":"3318192","postal_code":"59155","name":"Sambiroto"},{"id":"3318192012","district_id":"3318192","postal_code":"59155","name":"Tayu Wetan"},{"id":"3318192013","district_id":"3318192","postal_code":"59155","name":"Tayu Kulon"},{"id":"3318192014","district_id":"3318192","postal_code":"59155","name":"Pundenrejo"},{"id":"3318192015","district_id":"3318192","postal_code":"59155","name":"Kedungbang"},{"id":"3318192016","district_id":"3318192","postal_code":"59155","name":"Bendokaton Kidul"},{"id":"3318192017","district_id":"3318192","postal_code":"59155","name":"Purwokerto"},{"id":"3318192018","district_id":"3318192","postal_code":"59155","name":"Bulungan"},{"id":"3318192019","district_id":"3318192","postal_code":"59155","name":"Luwang"},{"id":"3318192020","district_id":"3318192","postal_code":"59155","name":"Dororejo"},{"id":"3318192021","district_id":"3318192","postal_code":"59155","name":"Kalikalong"}]