[{"id":"3318082001","district_id":"3318082","postal_code":"59185","name":"Sejomulyo"},{"id":"3318082002","district_id":"3318082","postal_code":"59185","name":"Bringin"},{"id":"3318082003","district_id":"3318082","postal_code":"59185","name":"Ketip"},{"id":"3318082004","district_id":"3318082","postal_code":"59185","name":"Pekuwon"},{"id":"3318082005","district_id":"3318082","postal_code":"59185","name":"Karang"},{"id":"3318082006","district_id":"3318082","postal_code":"59185","name":"Karangrejo"},{"id":"3318082007","district_id":"3318082","postal_code":"59185","name":"Bumirejo"},{"id":"3318082008","district_id":"3318082","postal_code":"59185","name":"Kedungpancing"},{"id":"3318082009","district_id":"3318082","postal_code":"59185","name":"Jepuro"},{"id":"3318082010","district_id":"3318082","postal_code":"59185","name":"Tluwah"},{"id":"3318082011","district_id":"3318082","postal_code":"59185","name":"Doropayung"},{"id":"3318082012","district_id":"3318082","postal_code":"59185","name":"Mintomulyo"},{"id":"3318082013","district_id":"3318082","postal_code":"59185","name":"Gadingrejo"},{"id":"3318082014","district_id":"3318082","postal_code":"59185","name":"Margomulyo"},{"id":"3318082015","district_id":"3318082","postal_code":"59185","name":"Langgenharjo"},{"id":"3318082016","district_id":"3318082","postal_code":"59185","name":"Genengmulyo"},{"id":"3318082017","district_id":"3318082","postal_code":"59185","name":"Agungmulyo"},{"id":"3318082018","district_id":"3318082","postal_code":"59185","name":"Bakaran Kulon"},{"id":"3318082019","district_id":"3318082","postal_code":"59185","name":"Bakaran Wetan"},{"id":"3318082020","district_id":"3318082","postal_code":"59185","name":"Dukutalit"},{"id":"3318082021","district_id":"3318082","postal_code":"59185","name":"Growong Kidul"},{"id":"3318082022","district_id":"3318082","postal_code":"59185","name":"Growong Lor"},{"id":"3318082023","district_id":"3318082","postal_code":"59185","name":"Kauman"},{"id":"3318082024","district_id":"3318082","postal_code":"59185","name":"Pajeksan"},{"id":"3318082025","district_id":"3318082","postal_code":"59185","name":"Kudukeras"},{"id":"3318082026","district_id":"3318082","postal_code":"59185","name":"Kebonsawahan"},{"id":"3318082027","district_id":"3318082","postal_code":"59185","name":"Bajomulyo"},{"id":"3318082028","district_id":"3318082","postal_code":"59185","name":"Bendar"},{"id":"3318082029","district_id":"3318082","postal_code":"59185","name":"Trimulyo"}]