[{"id":"3319092001","district_id":"3319092","postal_code":"59353","name":"Samirejo"},{"id":"3319092002","district_id":"3319092","postal_code":"59353","name":"Cendono"},{"id":"3319092003","district_id":"3319092","postal_code":"59353","name":"Margorejo"},{"id":"3319092004","district_id":"3319092","postal_code":"59353","name":"Rejosari"},{"id":"3319092005","district_id":"3319092","postal_code":"59353","name":"Kandangmas"},{"id":"3319092006","district_id":"3319092","postal_code":"59353","name":"Glagah Kulon"},{"id":"3319092007","district_id":"3319092","postal_code":"59353","name":"Tergo"},{"id":"3319092008","district_id":"3319092","postal_code":"59353","name":"Cranggang"},{"id":"3319092009","district_id":"3319092","postal_code":"59353","name":"Lau"},{"id":"3319092010","district_id":"3319092","postal_code":"59353","name":"Piji"},{"id":"3319092011","district_id":"3319092","postal_code":"59353","name":"Puyoh"},{"id":"3319092012","district_id":"3319092","postal_code":"59353","name":"Soco"},{"id":"3319092013","district_id":"3319092","postal_code":"59353","name":"Ternadi"},{"id":"3319092014","district_id":"3319092","postal_code":"59353","name":"Kajar"},{"id":"3319092015","district_id":"3319092","postal_code":"59353","name":"Kuwukan"},{"id":"3319092016","district_id":"3319092","postal_code":"0","name":"Dukuhwaringin"},{"id":"3319092017","district_id":"3319092","postal_code":"59353","name":"Japan"},{"id":"3319092018","district_id":"3319092","postal_code":"59353","name":"Colo"}]