[{"id":"3319022002","district_id":"3319022","postal_code":"59316","name":"Janggalan"},{"id":"3319022003","district_id":"3319022","postal_code":"59317","name":"Demangan"},{"id":"3319022010","district_id":"3319022","postal_code":"59319","name":"Mlati Lor"},{"id":"3319022011","district_id":"3319022","postal_code":"59311","name":"Nganguk"},{"id":"3319022012","district_id":"3319022","postal_code":"59312","name":"Kramat"},{"id":"3319022013","district_id":"3319022","postal_code":"59313","name":"Demaan"},{"id":"3319022014","district_id":"3319022","postal_code":"59315","name":"Langgardalem"},{"id":"3319022015","district_id":"3319022","postal_code":"59315","name":"Kauman"},{"id":"3319022016","district_id":"3319022","postal_code":"59316","name":"Damaran"},{"id":"3319022019","district_id":"3319022","postal_code":"59314","name":"Krandon"},{"id":"3319022020","district_id":"3319022","postal_code":"59314","name":"Singocandi"},{"id":"3319022021","district_id":"3319022","postal_code":"59313","name":"Glantengan"},{"id":"3319022022","district_id":"3319022","postal_code":"59312","name":"Kaliputu"},{"id":"3319022023","district_id":"3319022","postal_code":"59312","name":"Barongan"},{"id":"3319022024","district_id":"3319022","postal_code":"59311","name":"Burikan"},{"id":"3319022025","district_id":"3319022","postal_code":"59311","name":"Rendeng"}]