[{"id":"3321112001","district_id":"3321112","postal_code":"59517","name":"Bolo"},{"id":"3321112002","district_id":"3321112","postal_code":"59517","name":"Bango"},{"id":"3321112003","district_id":"3321112","postal_code":"59517","name":"Kedondong"},{"id":"3321112004","district_id":"3321112","postal_code":"59517","name":"Sedo"},{"id":"3321112005","district_id":"3321112","postal_code":"59517","name":"Mulyorejo"},{"id":"3321112006","district_id":"3321112","postal_code":"59517","name":"Turirejo"},{"id":"3321112007","district_id":"3321112","postal_code":"59517","name":"Raji"},{"id":"3321112008","district_id":"3321112","postal_code":"59517","name":"Cabean"},{"id":"3321112009","district_id":"3321112","postal_code":"59517","name":"Tempuran"},{"id":"3321112010","district_id":"3321112","postal_code":"59517","name":"Karangmlati"},{"id":"3321112011","district_id":"3321112","postal_code":"59516","name":"Katonsari"},{"id":"3321112012","district_id":"3321112","postal_code":"59517","name":"Kalikondang"},{"id":"3321112013","district_id":"3321112","postal_code":"59517","name":"Donorojo"}]