[{"id":"3321082001","district_id":"3321082","postal_code":"59581","name":"Surodadi"},{"id":"3321082002","district_id":"3321082","postal_code":"59581","name":"Jatisono"},{"id":"3321082003","district_id":"3321082","postal_code":"59581","name":"Kedondong"},{"id":"3321082004","district_id":"3321082","postal_code":"59581","name":"Gedangalas"},{"id":"3321082005","district_id":"3321082","postal_code":"59581","name":"Sambiroto"},{"id":"3321082006","district_id":"3321082","postal_code":"59581","name":"Tanjunganyar"},{"id":"3321082007","district_id":"3321082","postal_code":"59581","name":"Wilalung"},{"id":"3321082008","district_id":"3321082","postal_code":"59581","name":"Medini"},{"id":"3321082009","district_id":"3321082","postal_code":"59581","name":"Mlatiharjo"},{"id":"3321082010","district_id":"3321082","postal_code":"59581","name":"Tambirejo"},{"id":"3321082011","district_id":"3321082","postal_code":"59581","name":"Banjarsari"},{"id":"3321082012","district_id":"3321082","postal_code":"59581","name":"Boyolali"},{"id":"3321082013","district_id":"3321082","postal_code":"59581","name":"Gajah"},{"id":"3321082014","district_id":"3321082","postal_code":"59581","name":"Sari"},{"id":"3321082015","district_id":"3321082","postal_code":"59581","name":"Mlekang"},{"id":"3321082016","district_id":"3321082","postal_code":"59581","name":"Sambung"},{"id":"3321082017","district_id":"3321082","postal_code":"59581","name":"Mojosimo"},{"id":"3321082018","district_id":"3321082","postal_code":"59581","name":"Tlogopandogan"}]