[{"id":"3323012001","district_id":"3323012","postal_code":"56253","name":"Bulu"},{"id":"3323012002","district_id":"3323012","postal_code":"56253","name":"Tegalurung"},{"id":"3323012003","district_id":"3323012","postal_code":"56253","name":"Campursari"},{"id":"3323012004","district_id":"3323012","postal_code":"56253","name":"Gandurejo"},{"id":"3323012005","district_id":"3323012","postal_code":"56253","name":"Tegalrejo"},{"id":"3323012006","district_id":"3323012","postal_code":"56253","name":"Gondosuli"},{"id":"3323012007","district_id":"3323012","postal_code":"56253","name":"Ngimbrang"},{"id":"3323012008","district_id":"3323012","postal_code":"56253","name":"Putat"},{"id":"3323012009","district_id":"3323012","postal_code":"56253","name":"Danupayan"},{"id":"3323012010","district_id":"3323012","postal_code":"56253","name":"Mondoretno"},{"id":"3323012011","district_id":"3323012","postal_code":"56253","name":"Pandemulyo"},{"id":"3323012012","district_id":"3323012","postal_code":"56253","name":"Pasuruan"},{"id":"3323012013","district_id":"3323012","postal_code":"56253","name":"Pakurejo"},{"id":"3323012014","district_id":"3323012","postal_code":"56253","name":"Malangsari"},{"id":"3323012015","district_id":"3323012","postal_code":"56253","name":"Pagergunung"},{"id":"3323012016","district_id":"3323012","postal_code":"56253","name":"Wonosari"},{"id":"3323012017","district_id":"3323012","postal_code":"56253","name":"Bansari"},{"id":"3323012018","district_id":"3323012","postal_code":"56253","name":"Wonotirto"},{"id":"3323012019","district_id":"3323012","postal_code":"56253","name":"Pengilon"}]