[{"id":"3324151001","district_id":"3324151","postal_code":"51317","name":"Candiroto"},{"id":"3324151002","district_id":"3324151","postal_code":"51317","name":"Sukodono"},{"id":"3324151003","district_id":"3324151","postal_code":"51316","name":"Jotang"},{"id":"3324151004","district_id":"3324151","postal_code":"51317","name":"Trompo"},{"id":"3324151005","district_id":"3324151","postal_code":"51319","name":"Ketapang"},{"id":"3324151006","district_id":"3324151","postal_code":"51318","name":"Kebondalem"},{"id":"3324151007","district_id":"3324151","postal_code":"51318","name":"Kalibutuwetan"},{"id":"3324151008","district_id":"3324151","postal_code":"51315","name":"Sijeruk"},{"id":"3324151009","district_id":"3324151","postal_code":"51316","name":"Tunggulrejo"},{"id":"3324151010","district_id":"3324151","postal_code":"51315","name":"Jetis"},{"id":"3324151011","district_id":"3324151","postal_code":"51314","name":"Bugangin"},{"id":"3324151012","district_id":"3324151","postal_code":"51314","name":"Langenharjo"},{"id":"3324151013","district_id":"3324151","postal_code":"51319","name":"Pekauman"},{"id":"3324151014","district_id":"3324151","postal_code":"51311","name":"Patukangan"},{"id":"3324151015","district_id":"3324151","postal_code":"51313","name":"Pegulon"},{"id":"3324151016","district_id":"3324151","postal_code":"51319","name":"Banyutowo"},{"id":"3324151017","district_id":"3324151","postal_code":"51319","name":"Karangsari"},{"id":"3324151018","district_id":"3324151","postal_code":"51311","name":"Ngilir"},{"id":"3324151019","district_id":"3324151","postal_code":"51312","name":"Bandengan"},{"id":"3324151020","district_id":"3324151","postal_code":"51312","name":"Balok"}]