[{"id":"3324142001","district_id":"3324142","postal_code":"51351","name":"Bulugede"},{"id":"3324142002","district_id":"3324142","postal_code":"51351","name":"Margosari"},{"id":"3324142003","district_id":"3324142","postal_code":"51351","name":"Donosari"},{"id":"3324142004","district_id":"3324142","postal_code":"51351","name":"Lanji"},{"id":"3324142005","district_id":"3324142","postal_code":"51351","name":"Tambakrejo"},{"id":"3324142006","district_id":"3324142","postal_code":"51351","name":"Kebonharjo"},{"id":"3324142007","district_id":"3324142","postal_code":"51351","name":"Purwokerto"},{"id":"3324142008","district_id":"3324142","postal_code":"51351","name":"Jambearum"},{"id":"3324142009","district_id":"3324142","postal_code":"51351","name":"Purwosari"},{"id":"3324142010","district_id":"3324142","postal_code":"51351","name":"Sukolilan"},{"id":"3324142011","district_id":"3324142","postal_code":"51351","name":"Bangunrejo"},{"id":"3324142012","district_id":"3324142","postal_code":"51351","name":"Kumpulrejo"},{"id":"3324142013","district_id":"3324142","postal_code":"51351","name":"Magersari"},{"id":"3324142014","district_id":"3324142","postal_code":"51351","name":"Wonosari"},{"id":"3324142015","district_id":"3324142","postal_code":"51351","name":"Pidodowetan"},{"id":"3324142016","district_id":"3324142","postal_code":"51351","name":"Pidodokulon"},{"id":"3324142017","district_id":"3324142","postal_code":"51351","name":"Bangunsari"},{"id":"3324142018","district_id":"3324142","postal_code":"51351","name":"Kartikajaya"}]