[{"id":"3324192001","district_id":"3324192","postal_code":"51357","name":"Dempelrejo"},{"id":"3324192002","district_id":"3324192","postal_code":"51357","name":"Putatgede"},{"id":"3324192003","district_id":"3324192","postal_code":"51357","name":"Jatirejo"},{"id":"3324192004","district_id":"3324192","postal_code":"51357","name":"Winong"},{"id":"3324192005","district_id":"3324192","postal_code":"51357","name":"Rejosari"},{"id":"3324192006","district_id":"3324192","postal_code":"51357","name":"Sumbersari"},{"id":"3324192007","district_id":"3324192","postal_code":"51357","name":"Bojonggede"},{"id":"3324192008","district_id":"3324192","postal_code":"51357","name":"Kebonagung"},{"id":"3324192009","district_id":"3324192","postal_code":"51357","name":"Ngampel Kulon"},{"id":"3324192010","district_id":"3324192","postal_code":"51357","name":"Ngampel Wetan"},{"id":"3324192011","district_id":"3324192","postal_code":"51357","name":"Sudipayung"},{"id":"3324192012","district_id":"3324192","postal_code":"51357","name":"Banyuurip"}]