[{"id":"3403012001","district_id":"3403012","postal_code":"55851","name":"Wonosari"},{"id":"3403012002","district_id":"3403012","postal_code":"55813","name":"Kepek"},{"id":"3403012003","district_id":"3403012","postal_code":"55851","name":"Piyaman"},{"id":"3403012004","district_id":"3403012","postal_code":"55851","name":"Gari"},{"id":"3403012005","district_id":"3403012","postal_code":"55851","name":"Karangtengah"},{"id":"3403012006","district_id":"3403012","postal_code":"55851","name":"Selang"},{"id":"3403012007","district_id":"3403012","postal_code":"55811","name":"Baleharjo"},{"id":"3403012008","district_id":"3403012","postal_code":"55851","name":"Siraman"},{"id":"3403012009","district_id":"3403012","postal_code":"55851","name":"Pulutan"},{"id":"3403012010","district_id":"3403012","postal_code":"55851","name":"Wareng"},{"id":"3403012011","district_id":"3403012","postal_code":"55851","name":"Duwet"},{"id":"3403012012","district_id":"3403012","postal_code":"55851","name":"Mulo"},{"id":"3403012013","district_id":"3403012","postal_code":"55851","name":"Wunung"},{"id":"3403012014","district_id":"3403012","postal_code":"55851","name":"Karangrejek"}]