[{"id":"3501062001","district_id":"3501062","postal_code":"63581","name":"Mlati"},{"id":"3501062002","district_id":"3501062","postal_code":"63581","name":"Sedayu"},{"id":"3501062003","district_id":"3501062","postal_code":"63581","name":"Tremas"},{"id":"3501062004","district_id":"3501062","postal_code":"63581","name":"Arjosari"},{"id":"3501062005","district_id":"3501062","postal_code":"63581","name":"Gunungsari"},{"id":"3501062006","district_id":"3501062","postal_code":"63581","name":"Pagutan"},{"id":"3501062007","district_id":"3501062","postal_code":"63581","name":"Gembong"},{"id":"3501062008","district_id":"3501062","postal_code":"63581","name":"Borang"},{"id":"3501062009","district_id":"3501062","postal_code":"63581","name":"Gegeran"},{"id":"3501062010","district_id":"3501062","postal_code":"63581","name":"Kedungbendo"},{"id":"3501062011","district_id":"3501062","postal_code":"63581","name":"Mangunharjo"},{"id":"3501062012","district_id":"3501062","postal_code":"63581","name":"Jetiskidul"},{"id":"3501062013","district_id":"3501062","postal_code":"63581","name":"Temon"},{"id":"3501062014","district_id":"3501062","postal_code":"63581","name":"Karanggede"},{"id":"3501062015","district_id":"3501062","postal_code":"63581","name":"Gayuhan"},{"id":"3501062016","district_id":"3501062","postal_code":"63581","name":"Karangrejo"},{"id":"3501062017","district_id":"3501062","postal_code":"63581","name":"Jatimalang"}]