[{"id":"3501102001","district_id":"3501102","postal_code":"63571","name":"Jetak"},{"id":"3501102002","district_id":"3501102","postal_code":"63571","name":"Nglaran"},{"id":"3501102003","district_id":"3501102","postal_code":"63571","name":"Wonoanti"},{"id":"3501102004","district_id":"3501102","postal_code":"63571","name":"Padi"},{"id":"3501102005","district_id":"3501102","postal_code":"63571","name":"Kluwih"},{"id":"3501102006","district_id":"3501102","postal_code":"63571","name":"Bungur"},{"id":"3501102007","district_id":"3501102","postal_code":"63571","name":"Tulakan"},{"id":"3501102008","district_id":"3501102","postal_code":"63571","name":"Jatigunung"},{"id":"3501102009","district_id":"3501102","postal_code":"63571","name":"Gasang"},{"id":"3501102010","district_id":"3501102","postal_code":"63571","name":"Kalikuning"},{"id":"3501102011","district_id":"3501102","postal_code":"63571","name":"Ngile"},{"id":"3501102012","district_id":"3501102","postal_code":"63571","name":"Bubakan"},{"id":"3501102013","district_id":"3501102","postal_code":"63571","name":"Losari"},{"id":"3501102014","district_id":"3501102","postal_code":"63571","name":"Ngumbul"},{"id":"3501102015","district_id":"3501102","postal_code":"63571","name":"Wonosidi"},{"id":"3501102016","district_id":"3501102","postal_code":"63571","name":"Ketro"}]