[{"id":"3509292001","district_id":"3509292","postal_code":"68194","name":"Sumberwringin"},{"id":"3509292002","district_id":"3509292","postal_code":"68194","name":"Sukokerto"},{"id":"3509292003","district_id":"3509292","postal_code":"68194","name":"Sumberwaru"},{"id":"3509292004","district_id":"3509292","postal_code":"68194","name":"Sukowono"},{"id":"3509292005","district_id":"3509292","postal_code":"68194","name":"Baletbaru"},{"id":"3509292006","district_id":"3509292","postal_code":"68194","name":"Sukorejo"},{"id":"3509292007","district_id":"3509292","postal_code":"68194","name":"Sukosari"},{"id":"3509292008","district_id":"3509292","postal_code":"68194","name":"Arjasa"},{"id":"3509292009","district_id":"3509292","postal_code":"68194","name":"Sumberdanti"},{"id":"3509292010","district_id":"3509292","postal_code":"68194","name":"Pocangan"},{"id":"3509292011","district_id":"3509292","postal_code":"68194","name":"Dawuhanmangli"},{"id":"3509292012","district_id":"3509292","postal_code":"68194","name":"Mojogemi"}]