[{"id":"3514082001","district_id":"3514082","postal_code":"67162","name":"Sumberrejo"},{"id":"3514082002","district_id":"3514082","postal_code":"67162","name":"Sekarmojo"},{"id":"3514082003","district_id":"3514082","postal_code":"67162","name":"Tejowangi"},{"id":"3514082004","district_id":"3514082","postal_code":"67162","name":"Kertosari"},{"id":"3514082005","district_id":"3514082","postal_code":"67162","name":"Martopuro"},{"id":"3514082007","district_id":"3514082","postal_code":"67162","name":"Sengonagung"},{"id":"3514082008","district_id":"3514082","postal_code":"67162","name":"Pager"},{"id":"3514082009","district_id":"3514082","postal_code":"67162","name":"Cendono"},{"id":"3514082010","district_id":"3514082","postal_code":"67162","name":"Karangrejo"},{"id":"3514082011","district_id":"3514082","postal_code":"67162","name":"Sumbersuko"},{"id":"3514082012","district_id":"3514082","postal_code":"67162","name":"Pucang Sari"},{"id":"3514082013","district_id":"3514082","postal_code":"67162","name":"Kayoman"},{"id":"3514082014","district_id":"3514082","postal_code":"67162","name":"Sukodermo"},{"id":"3514082015","district_id":"3514082","postal_code":"67162","name":"Bakalan"}]