[{"id":"3515052001","district_id":"3515052","postal_code":"61276","name":"Panggreh"},{"id":"3515052002","district_id":"3515052","postal_code":"61276","name":"Trompoasri"},{"id":"3515052003","district_id":"3515052","postal_code":"61276","name":"Kedungrejo"},{"id":"3515052004","district_id":"3515052","postal_code":"61276","name":"Semambung"},{"id":"3515052005","district_id":"3515052","postal_code":"61276","name":"Kedungpandan"},{"id":"3515052006","district_id":"3515052","postal_code":"61276","name":"Kupang"},{"id":"3515052007","district_id":"3515052","postal_code":"61276","name":"Tambakkalisogo"},{"id":"3515052008","district_id":"3515052","postal_code":"61276","name":"Balongtani"},{"id":"3515052009","district_id":"3515052","postal_code":"61276","name":"Jemirahan"},{"id":"3515052010","district_id":"3515052","postal_code":"61276","name":"Dukuhsari"},{"id":"3515052011","district_id":"3515052","postal_code":"61276","name":"Kedungcangkring"},{"id":"3515052012","district_id":"3515052","postal_code":"61276","name":"Pajarakan"},{"id":"3515052013","district_id":"3515052","postal_code":"61276","name":"Besuki"},{"id":"3515052014","district_id":"3515052","postal_code":"61276","name":"Keboguyang"},{"id":"3515052015","district_id":"3515052","postal_code":"61276","name":"Permisan"}]