[{"id":"3515122001","district_id":"3515122","postal_code":"61263","name":"Wonokupang"},{"id":"3515122002","district_id":"3515122","postal_code":"61263","name":"Sumokembangsri"},{"id":"3515122003","district_id":"3515122","postal_code":"61263","name":"Singkalan"},{"id":"3515122004","district_id":"3515122","postal_code":"61263","name":"Bakungpringgodani"},{"id":"3515122005","district_id":"3515122","postal_code":"61263","name":"Wonokarang"},{"id":"3515122006","district_id":"3515122","postal_code":"61263","name":"Seduri"},{"id":"3515122007","district_id":"3515122","postal_code":"61263","name":"Bakalanwringinpitu"},{"id":"3515122008","district_id":"3515122","postal_code":"61263","name":"Gagangkepuhsari"},{"id":"3515122009","district_id":"3515122","postal_code":"61263","name":"Suwaluh"},{"id":"3515122010","district_id":"3515122","postal_code":"61263","name":"Watesari"},{"id":"3515122011","district_id":"3515122","postal_code":"61263","name":"Seketi"},{"id":"3515122012","district_id":"3515122","postal_code":"61263","name":"Kemangsen"},{"id":"3515122013","district_id":"3515122","postal_code":"61263","name":"Jabaran"},{"id":"3515122014","district_id":"3515122","postal_code":"61263","name":"Balongbendo"},{"id":"3515122015","district_id":"3515122","postal_code":"61263","name":"Jeruklegi"},{"id":"3515122016","district_id":"3515122","postal_code":"61263","name":"Penambangan"},{"id":"3515122017","district_id":"3515122","postal_code":"61263","name":"Waruberon"},{"id":"3515122018","district_id":"3515122","postal_code":"61263","name":"Bogempinggir"},{"id":"3515122019","district_id":"3515122","postal_code":"61263","name":"Kedungsukodani"},{"id":"3515122020","district_id":"3515122","postal_code":"61263","name":"Bakungtemenggungan"}]