[{"id":"3516132001","district_id":"3516132","postal_code":"61361","name":"Gemekan"},{"id":"3516132002","district_id":"3516132","postal_code":"61361","name":"Blimbingsari"},{"id":"3516132003","district_id":"3516132","postal_code":"61361","name":"Brangkal"},{"id":"3516132004","district_id":"3516132","postal_code":"61361","name":"Kedungmaling"},{"id":"3516132005","district_id":"3516132","postal_code":"61361","name":"Klinterejo"},{"id":"3516132006","district_id":"3516132","postal_code":"61361","name":"Modongan"},{"id":"3516132007","district_id":"3516132","postal_code":"61361","name":"Sambiroto"},{"id":"3516132008","district_id":"3516132","postal_code":"61361","name":"Jampirogo"},{"id":"3516132009","district_id":"3516132","postal_code":"61361","name":"Japan"},{"id":"3516132010","district_id":"3516132","postal_code":"61361","name":"Sooko"},{"id":"3516132011","district_id":"3516132","postal_code":"61361","name":"Wringinrejo"},{"id":"3516132012","district_id":"3516132","postal_code":"61361","name":"Karangkedawang"},{"id":"3516132013","district_id":"3516132","postal_code":"61361","name":"Mojoranu"},{"id":"3516132014","district_id":"3516132","postal_code":"61361","name":"Tempuran"},{"id":"3516132015","district_id":"3516132","postal_code":"61361","name":"Ngingasrembyong"}]