[{"id":"3516072001","district_id":"3516072","postal_code":"61383","name":"Payungrejo"},{"id":"3516072002","district_id":"3516072","postal_code":"61383","name":"Simbaringin"},{"id":"3516072003","district_id":"3516072","postal_code":"61383","name":"Sampangagung"},{"id":"3516072004","district_id":"3516072","postal_code":"61383","name":"Jiyu"},{"id":"3516072005","district_id":"3516072","postal_code":"61383","name":"Pesanggrahan"},{"id":"3516072006","district_id":"3516072","postal_code":"61383","name":"Windurejo"},{"id":"3516072007","district_id":"3516072","postal_code":"0","name":"Kertosari"},{"id":"3516072008","district_id":"3516072","postal_code":"61383","name":"Kepuharum"},{"id":"3516072009","district_id":"3516072","postal_code":"61383","name":"Gedangan"},{"id":"3516072010","district_id":"3516072","postal_code":"61383","name":"Kutorejo"},{"id":"3516072011","district_id":"3516072","postal_code":"61383","name":"Karangdiyeng"},{"id":"3516072012","district_id":"3516072","postal_code":"61383","name":"Sawo"},{"id":"3516072013","district_id":"3516072","postal_code":"61383","name":"Wonodadi"},{"id":"3516072014","district_id":"3516072","postal_code":"61383","name":"Singowangi"},{"id":"3516072015","district_id":"3516072","postal_code":"61383","name":"Kepuhpandak"},{"id":"3516072016","district_id":"3516072","postal_code":"61383","name":"Karangasem"},{"id":"3516072017","district_id":"3516072","postal_code":"61383","name":"Kaligoro"}]