[{"id":"3517142001","district_id":"3517142","postal_code":"61453","name":"Tanggungkramat"},{"id":"3517142002","district_id":"3517142","postal_code":"61453","name":"Rejoagung"},{"id":"3517142003","district_id":"3517142","postal_code":"61453","name":"Losari"},{"id":"3517142004","district_id":"3517142","postal_code":"61453","name":"Ploso"},{"id":"3517142005","district_id":"3517142","postal_code":"61453","name":"Jatigedong"},{"id":"3517142006","district_id":"3517142","postal_code":"61453","name":"Daditunggal"},{"id":"3517142007","district_id":"3517142","postal_code":"61453","name":"Gedungombo"},{"id":"3517142008","district_id":"3517142","postal_code":"61453","name":"Jatibanjar"},{"id":"3517142009","district_id":"3517142","postal_code":"61453","name":"Pagertanjung"},{"id":"3517142010","district_id":"3517142","postal_code":"61453","name":"Pandanblole"},{"id":"3517142011","district_id":"3517142","postal_code":"61453","name":"Kedungdowo"},{"id":"3517142012","district_id":"3517142","postal_code":"61453","name":"Kebonagung"},{"id":"3517142013","district_id":"3517142","postal_code":"61453","name":"Bawangan"}]