[{"id":"3517152001","district_id":"3517152","postal_code":"61456","name":"Klitih"},{"id":"3517152002","district_id":"3517152","postal_code":"61456","name":"Plabuhan"},{"id":"3517152003","district_id":"3517152","postal_code":"61456","name":"Kampungbaru"},{"id":"3517152004","district_id":"3517152","postal_code":"61456","name":"Gebangbunder"},{"id":"3517152005","district_id":"3517152","postal_code":"61456","name":"Jatimlerek"},{"id":"3517152006","district_id":"3517152","postal_code":"61456","name":"Karangmojo"},{"id":"3517152007","district_id":"3517152","postal_code":"61456","name":"Plandaan"},{"id":"3517152008","district_id":"3517152","postal_code":"61456","name":"Bangsri"},{"id":"3517152009","district_id":"3517152","postal_code":"61456","name":"Purisemanding"},{"id":"3517152010","district_id":"3517152","postal_code":"61456","name":"Tondowulan"},{"id":"3517152011","district_id":"3517152","postal_code":"61456","name":"Darurejo"},{"id":"3517152012","district_id":"3517152","postal_code":"61456","name":"Sumberjo"},{"id":"3517152013","district_id":"3517152","postal_code":"61456","name":"Jiporapah"}]