[{"id":"3518172001","district_id":"3518172","postal_code":"64451","name":"Sumberjo"},{"id":"3518172002","district_id":"3518172","postal_code":"64451","name":"Nglinggo"},{"id":"3518172003","district_id":"3518172","postal_code":"64451","name":"Mojoseto"},{"id":"3518172004","district_id":"3518172","postal_code":"64451","name":"Karangsemi"},{"id":"3518172005","district_id":"3518172","postal_code":"64451","name":"Senjayan"},{"id":"3518172006","district_id":"3518172","postal_code":"64451","name":"Kedungglugu"},{"id":"3518172007","district_id":"3518172","postal_code":"64451","name":"Jaan"},{"id":"3518172008","district_id":"3518172","postal_code":"64451","name":"Sumberagung"},{"id":"3518172009","district_id":"3518172","postal_code":"64451","name":"Ketawang"},{"id":"3518172010","district_id":"3518172","postal_code":"0","name":"Ngunjung"},{"id":"3518172011","district_id":"3518172","postal_code":"64451","name":"Sanggrahan"},{"id":"3518172012","district_id":"3518172","postal_code":"64451","name":"Balonggebang"},{"id":"3518172013","district_id":"3518172","postal_code":"64451","name":"Pandean"},{"id":"3518172014","district_id":"3518172","postal_code":"64451","name":"Campur"},{"id":"3518172015","district_id":"3518172","postal_code":"64451","name":"Gondangkulon"},{"id":"3518172016","district_id":"3518172","postal_code":"64451","name":"Senggowar"},{"id":"3518172017","district_id":"3518172","postal_code":"64451","name":"Losari"}]