[{"id":"3520162001","district_id":"3520162","postal_code":"63351","name":"Selotinatah"},{"id":"3520162002","district_id":"3520162","postal_code":"63351","name":"Pendem"},{"id":"3520162003","district_id":"3520162","postal_code":"63351","name":"Bangsri"},{"id":"3520162004","district_id":"3520162","postal_code":"63351","name":"Selopanggung"},{"id":"3520162005","district_id":"3520162","postal_code":"63351","name":"Sumberdukun"},{"id":"3520162006","district_id":"3520162","postal_code":"63351","name":"Baleasri"},{"id":"3520162007","district_id":"3520162","postal_code":"63351","name":"Balegondo"},{"id":"3520162008","district_id":"3520162","postal_code":"63351","name":"Ngariboyo"},{"id":"3520162009","district_id":"3520162","postal_code":"63361","name":"Mojopurno"},{"id":"3520162010","district_id":"3520162","postal_code":"63351","name":"Banyudono"},{"id":"3520162011","district_id":"3520162","postal_code":"63351","name":"Banjarpanjang"},{"id":"3520162012","district_id":"3520162","postal_code":"63351","name":"Banjarejo"}]