[{"id":"3521122001","district_id":"3521122","postal_code":"63256","name":"Banyubiru"},{"id":"3521122002","district_id":"3521122","postal_code":"63256","name":"Kedunggudel"},{"id":"3521122003","district_id":"3521122","postal_code":"63256","name":"Sekaralas"},{"id":"3521122004","district_id":"3521122","postal_code":"63256","name":"Sekarputih"},{"id":"3521122005","district_id":"3521122","postal_code":"63256","name":"Kayutrejo"},{"id":"3521122006","district_id":"3521122","postal_code":"63256","name":"Sidolaju"},{"id":"3521122007","district_id":"3521122","postal_code":"63256","name":"Karangbanyu"},{"id":"3521122008","district_id":"3521122","postal_code":"63256","name":"Widodaren"},{"id":"3521122009","district_id":"3521122","postal_code":"63256","name":"Gendingan"},{"id":"3521122010","district_id":"3521122","postal_code":"63256","name":"Kauman"},{"id":"3521122011","district_id":"3521122","postal_code":"63256","name":"Sidomakmur"},{"id":"3521122012","district_id":"3521122","postal_code":"63256","name":"Walikukun"}]