[{"id":"3522192001","district_id":"3522192","postal_code":"62162","name":"Tebon"},{"id":"3522192002","district_id":"3522192","postal_code":"62162","name":"Prangi"},{"id":"3522192003","district_id":"3522192","postal_code":"62162","name":"Purworejo"},{"id":"3522192004","district_id":"3522192","postal_code":"62162","name":"Ngeper"},{"id":"3522192005","district_id":"3522192","postal_code":"62162","name":"Ngasinan"},{"id":"3522192006","district_id":"3522192","postal_code":"62162","name":"Cendono"},{"id":"3522192007","district_id":"3522192","postal_code":"62162","name":"Sidorejo"},{"id":"3522192008","district_id":"3522192","postal_code":"62162","name":"Nguken"},{"id":"3522192009","district_id":"3522192","postal_code":"62162","name":"Dengok"},{"id":"3522192010","district_id":"3522192","postal_code":"62162","name":"Padangan"},{"id":"3522192011","district_id":"3522192","postal_code":"62162","name":"Kuncen"},{"id":"3522192012","district_id":"3522192","postal_code":"62162","name":"Sonorejo"},{"id":"3522192013","district_id":"3522192","postal_code":"62162","name":"Ngradin"},{"id":"3522192014","district_id":"3522192","postal_code":"62162","name":"Banjarejo"},{"id":"3522192015","district_id":"3522192","postal_code":"62162","name":"Kebonagung"},{"id":"3522192016","district_id":"3522192","postal_code":"62162","name":"Kendung"}]