[{"id":"3522072001","district_id":"3522072","postal_code":"62183","name":"Bareng"},{"id":"3522072002","district_id":"3522072","postal_code":"62183","name":"Drenges"},{"id":"3522072003","district_id":"3522072","postal_code":"62183","name":"Wedoro"},{"id":"3522072004","district_id":"3522072","postal_code":"62183","name":"Panunggalan"},{"id":"3522072005","district_id":"3522072","postal_code":"62183","name":"Alasgung"},{"id":"3522072006","district_id":"3522072","postal_code":"62183","name":"Siwalan"},{"id":"3522072007","district_id":"3522072","postal_code":"62183","name":"Glagahan"},{"id":"3522072008","district_id":"3522072","postal_code":"62183","name":"Panemon"},{"id":"3522072009","district_id":"3522072","postal_code":"62183","name":"Jatitengah"},{"id":"3522072010","district_id":"3522072","postal_code":"62183","name":"Sugihwaras"},{"id":"3522072011","district_id":"3522072","postal_code":"62183","name":"Trate"},{"id":"3522072012","district_id":"3522072","postal_code":"62183","name":"Bulu"},{"id":"3522072013","district_id":"3522072","postal_code":"62183","name":"Nglajang"},{"id":"3522072014","district_id":"3522072","postal_code":"62183","name":"Kedungdowo"},{"id":"3522072015","district_id":"3522072","postal_code":"62183","name":"Glagahwangi"},{"id":"3522072016","district_id":"3522072","postal_code":"62183","name":"Balongrejo"},{"id":"3522072017","district_id":"3522072","postal_code":"62183","name":"Genjor"}]