[{"id":"3523102001","district_id":"3523102","postal_code":"62357","name":"Guwoterus"},{"id":"3523102002","district_id":"3523102","postal_code":"62357","name":"Nguluhan"},{"id":"3523102003","district_id":"3523102","postal_code":"62357","name":"Tanggulangin"},{"id":"3523102004","district_id":"3523102","postal_code":"62357","name":"Manjung"},{"id":"3523102005","district_id":"3523102","postal_code":"62357","name":"Talangkembar"},{"id":"3523102006","district_id":"3523102","postal_code":"62357","name":"Montongsekar"},{"id":"3523102007","district_id":"3523102","postal_code":"62357","name":"Pakel"},{"id":"3523102008","district_id":"3523102","postal_code":"62357","name":"Sumurgung"},{"id":"3523102009","district_id":"3523102","postal_code":"62357","name":"Bringin"},{"id":"3523102010","district_id":"3523102","postal_code":"62357","name":"Pucangan"},{"id":"3523102011","district_id":"3523102","postal_code":"62357","name":"Maindu"},{"id":"3523102012","district_id":"3523102","postal_code":"62357","name":"Jetak"},{"id":"3523102013","district_id":"3523102","postal_code":"62357","name":"Talun"}]