[{"id":"3524192001","district_id":"3524192","postal_code":"62282","name":"Tlogoagung"},{"id":"3524192002","district_id":"3524192","postal_code":"62282","name":"Kedungmegarih"},{"id":"3524192003","district_id":"3524192","postal_code":"62282","name":"Sidomukti"},{"id":"3524192004","district_id":"3524192","postal_code":"62282","name":"Sukosongo"},{"id":"3524192005","district_id":"3524192","postal_code":"62282","name":"Kaliwates"},{"id":"3524192006","district_id":"3524192","postal_code":"62282","name":"Kedungasri"},{"id":"3524192007","district_id":"3524192","postal_code":"62282","name":"Doyomulyo"},{"id":"3524192008","district_id":"3524192","postal_code":"62282","name":"Kembangbahu"},{"id":"3524192009","district_id":"3524192","postal_code":"62282","name":"Maor"},{"id":"3524192010","district_id":"3524192","postal_code":"62282","name":"Moronyamplung"},{"id":"3524192011","district_id":"3524192","postal_code":"62282","name":"Mangkujajar"},{"id":"3524192012","district_id":"3524192","postal_code":"62282","name":"Puter"},{"id":"3524192013","district_id":"3524192","postal_code":"62282","name":"Pelang"},{"id":"3524192014","district_id":"3524192","postal_code":"62282","name":"Dumpiagung"},{"id":"3524192015","district_id":"3524192","postal_code":"62282","name":"Randubener"},{"id":"3524192016","district_id":"3524192","postal_code":"62282","name":"Lopang"},{"id":"3524192017","district_id":"3524192","postal_code":"62282","name":"Gintungan"},{"id":"3524192018","district_id":"3524192","postal_code":"62282","name":"Katemas"}]