[{"id":"3525161001","district_id":"3525161","postal_code":"61119","name":"Ngipik"},{"id":"3525161002","district_id":"3525161","postal_code":"61118","name":"Tlogo Pojok"},{"id":"3525161003","district_id":"3525161","postal_code":"61118","name":"Karang Turi"},{"id":"3525161004","district_id":"3525161","postal_code":"61111","name":"Tlogo Patut"},{"id":"3525161005","district_id":"3525161","postal_code":"61119","name":"Sukorame"},{"id":"3525161006","district_id":"3525161","postal_code":"61117","name":"Lumpur"},{"id":"3525161007","district_id":"3525161","postal_code":"61116","name":"Karang Poh"},{"id":"3525161008","district_id":"3525161","postal_code":"61114","name":"Trate"},{"id":"3525161010","district_id":"3525161","postal_code":"61111","name":"Sido Kumpul"},{"id":"3525161011","district_id":"3525161","postal_code":"61114","name":"Bedilan"},{"id":"3525161012","district_id":"3525161","postal_code":"61116","name":"Sukodono"},{"id":"3525161013","district_id":"3525161","postal_code":"61115","name":"Kemuteran"},{"id":"3525161014","district_id":"3525161","postal_code":"61115","name":"Pekelingan"},{"id":"3525161015","district_id":"3525161","postal_code":"61116","name":"Kroman"},{"id":"3525161016","district_id":"3525161","postal_code":"61115","name":"Kebungson"},{"id":"3525161017","district_id":"3525161","postal_code":"61114","name":"Pekauman"}]