[{"id":"3526152001","district_id":"3526152","postal_code":"69174","name":"Blega"},{"id":"3526152002","district_id":"3526152","postal_code":"69174","name":"Rosep"},{"id":"3526152003","district_id":"3526152","postal_code":"69174","name":"Nyor Manes"},{"id":"3526152004","district_id":"3526152","postal_code":"69174","name":"Alas Rajah"},{"id":"3526152005","district_id":"3526152","postal_code":"69174","name":"Blega Oloh"},{"id":"3526152006","district_id":"3526152","postal_code":"69174","name":"Karang Nangkah"},{"id":"3526152007","district_id":"3526152","postal_code":"69174","name":"Karang Panasan"},{"id":"3526152008","district_id":"3526152","postal_code":"69174","name":"Karang Gayam"},{"id":"3526152009","district_id":"3526152","postal_code":"69174","name":"Lomaer"},{"id":"3526152010","district_id":"3526152","postal_code":"69174","name":"Bates"},{"id":"3526152011","district_id":"3526152","postal_code":"69174","name":"Lombang Laok"},{"id":"3526152012","district_id":"3526152","postal_code":"69174","name":"Lombang Dajah"},{"id":"3526152013","district_id":"3526152","postal_code":"69174","name":"Karpote"},{"id":"3526152014","district_id":"3526152","postal_code":"69174","name":"Kajjan"},{"id":"3526152015","district_id":"3526152","postal_code":"69174","name":"Panjalinan"},{"id":"3526152016","district_id":"3526152","postal_code":"69174","name":"Pangeran Gadungan"},{"id":"3526152017","district_id":"3526152","postal_code":"69174","name":"Kampao"},{"id":"3526152018","district_id":"3526152","postal_code":"69174","name":"Koolan"},{"id":"3526152019","district_id":"3526152","postal_code":"69174","name":"Gigir"}]