[{"id":"3526142001","district_id":"3526142","postal_code":"69165","name":"Soket Laok"},{"id":"3526142002","district_id":"3526142","postal_code":"69165","name":"Soket Dajah"},{"id":"3526142003","district_id":"3526142","postal_code":"69165","name":"Pamorah"},{"id":"3526142004","district_id":"3526142","postal_code":"69165","name":"Banyubeseh"},{"id":"3526142005","district_id":"3526142","postal_code":"69165","name":"Pocong"},{"id":"3526142006","district_id":"3526142","postal_code":"69165","name":"Tragah"},{"id":"3526142007","district_id":"3526142","postal_code":"69165","name":"Karang Leman"},{"id":"3526142008","district_id":"3526142","postal_code":"69165","name":"Duko Tambin"},{"id":"3526142009","district_id":"3526142","postal_code":"69165","name":"Keteleng"},{"id":"3526142010","district_id":"3526142","postal_code":"69165","name":"Alang Alang"},{"id":"3526142011","district_id":"3526142","postal_code":"69165","name":"Kemoning"},{"id":"3526142012","district_id":"3526142","postal_code":"69165","name":"Tambin"},{"id":"3526142013","district_id":"3526142","postal_code":"69165","name":"Bajeman"},{"id":"3526142014","district_id":"3526142","postal_code":"69165","name":"Jaddung"},{"id":"3526142015","district_id":"3526142","postal_code":"69165","name":"Pacangan"},{"id":"3526142016","district_id":"3526142","postal_code":"69165","name":"Bancang"},{"id":"3526142017","district_id":"3526142","postal_code":"69165","name":"Jaah"},{"id":"3526142018","district_id":"3526142","postal_code":"69165","name":"Masaran"}]