[{"id":"3527052001","district_id":"3527052","postal_code":"69291","name":"Kebun Sareh"},{"id":"3527052002","district_id":"3527052","postal_code":"69291","name":"Karangnangger"},{"id":"3527052003","district_id":"3527052","postal_code":"69291","name":"Rapa Laok"},{"id":"3527052004","district_id":"3527052","postal_code":"69291","name":"Rapa Daya"},{"id":"3527052005","district_id":"3527052","postal_code":"69291","name":"Astapah"},{"id":"3527052006","district_id":"3527052","postal_code":"69291","name":"Sogian"},{"id":"3527052007","district_id":"3527052","postal_code":"69291","name":"Gersempal"},{"id":"3527052008","district_id":"3527052","postal_code":"69291","name":"Temoran"},{"id":"3527052009","district_id":"3527052","postal_code":"69291","name":"Meteng"},{"id":"3527052010","district_id":"3527052","postal_code":"69291","name":"Madulang"},{"id":"3527052011","district_id":"3527052","postal_code":"69291","name":"Kamondung"},{"id":"3527052012","district_id":"3527052","postal_code":"69291","name":"Omben"},{"id":"3527052013","district_id":"3527052","postal_code":"69291","name":"Tambak"},{"id":"3527052014","district_id":"3527052","postal_code":"69291","name":"Angsokah"},{"id":"3527052015","district_id":"3527052","postal_code":"69291","name":"Jranguan"},{"id":"3527052016","district_id":"3527052","postal_code":"69291","name":"Rongdalam"},{"id":"3527052017","district_id":"3527052","postal_code":"69291","name":"Napo Laok"},{"id":"3527052018","district_id":"3527052","postal_code":"69291","name":"Napo Daya"},{"id":"3527052019","district_id":"3527052","postal_code":"69291","name":"Karanggayam"},{"id":"3527052020","district_id":"3527052","postal_code":"69291","name":"Pandan"}]