[{"id":"3528012001","district_id":"3528012","postal_code":"69371","name":"Dabuan"},{"id":"3528012002","district_id":"3528012","postal_code":"69371","name":"Terrak"},{"id":"3528012003","district_id":"3528012","postal_code":"69371","name":"Mangar"},{"id":"3528012004","district_id":"3528012","postal_code":"69371","name":"Bandaran"},{"id":"3528012005","district_id":"3528012","postal_code":"69371","name":"Kramat"},{"id":"3528012006","district_id":"3528012","postal_code":"69371","name":"Ambat"},{"id":"3528012007","district_id":"3528012","postal_code":"69371","name":"Branta Pesisir"},{"id":"3528012008","district_id":"3528012","postal_code":"69371","name":"Tlanakan"},{"id":"3528012009","district_id":"3528012","postal_code":"69371","name":"Branta Tinggi"},{"id":"3528012010","district_id":"3528012","postal_code":"69371","name":"Tlesah"},{"id":"3528012011","district_id":"3528012","postal_code":"0","name":"Larangan Tokol"},{"id":"3528012012","district_id":"3528012","postal_code":"69371","name":"Ceguk"},{"id":"3528012013","district_id":"3528012","postal_code":"69371","name":"Panglegur"},{"id":"3528012014","district_id":"3528012","postal_code":"69371","name":"Bukek"},{"id":"3528012015","district_id":"3528012","postal_code":"69371","name":"Gugul"},{"id":"3528012016","district_id":"3528012","postal_code":"69371","name":"Larangan Slampar"},{"id":"3528012017","district_id":"3528012","postal_code":"69371","name":"Taroan"}]