[{"id":"3529052001","district_id":"3529052","postal_code":"69466","name":"Guluk Manjung"},{"id":"3529052002","district_id":"3529052","postal_code":"69466","name":"Kapedi"},{"id":"3529052003","district_id":"3529052","postal_code":"69466","name":"Pakandangan Barat"},{"id":"3529052004","district_id":"3529052","postal_code":"69466","name":"Pakandangan Tengah"},{"id":"3529052005","district_id":"3529052","postal_code":"69466","name":"Pakandangan Sangra"},{"id":"3529052006","district_id":"3529052","postal_code":"69466","name":"Aeng Dake"},{"id":"3529052007","district_id":"3529052","postal_code":"69466","name":"Aeng Baja Kenek"},{"id":"3529052008","district_id":"3529052","postal_code":"69466","name":"Bluto"},{"id":"3529052009","district_id":"3529052","postal_code":"69466","name":"Lobuk"},{"id":"3529052010","district_id":"3529052","postal_code":"69466","name":"Bumbungan"},{"id":"3529052011","district_id":"3529052","postal_code":"69466","name":"Masaran"},{"id":"3529052012","district_id":"3529052","postal_code":"69466","name":"Palongan"},{"id":"3529052013","district_id":"3529052","postal_code":"69466","name":"Aeng Baja Raja"},{"id":"3529052014","district_id":"3529052","postal_code":"69466","name":"Karang Campaka"},{"id":"3529052015","district_id":"3529052","postal_code":"69466","name":"Sera Barat"},{"id":"3529052016","district_id":"3529052","postal_code":"69466","name":"Sera Tengah"},{"id":"3529052017","district_id":"3529052","postal_code":"69466","name":"Sera Timur"},{"id":"3529052018","district_id":"3529052","postal_code":"69466","name":"Gingging"},{"id":"3529052019","district_id":"3529052","postal_code":"69466","name":"Errabu"},{"id":"3529052020","district_id":"3529052","postal_code":"69466","name":"Gilang"}]