[{"id":"3571021001","district_id":"3571021","postal_code":"64121","name":"Semampir"},{"id":"3571021002","district_id":"3571021","postal_code":"64129","name":"Balowerti"},{"id":"3571021003","district_id":"3571021","postal_code":"64122","name":"Dandangan"},{"id":"3571021004","district_id":"3571021","postal_code":"64122","name":"Ngadirejo"},{"id":"3571021005","district_id":"3571021","postal_code":"64126","name":"Kampung Dalem"},{"id":"3571021006","district_id":"3571021","postal_code":"64129","name":"Setonopande"},{"id":"3571021007","district_id":"3571021","postal_code":"64129","name":"Ringinanom"},{"id":"3571021008","district_id":"3571021","postal_code":"64123","name":"Pakelan"},{"id":"3571021009","district_id":"3571021","postal_code":"64129","name":"Setonogedong"},{"id":"3571021010","district_id":"3571021","postal_code":"64125","name":"Kemasan"},{"id":"3571021011","district_id":"3571021","postal_code":"64125","name":"Jagalan"},{"id":"3571021012","district_id":"3571021","postal_code":"64124","name":"Banjaran"},{"id":"3571021013","district_id":"3571021","postal_code":"64126","name":"Kaliombo"},{"id":"3571021014","district_id":"3571021","postal_code":"64127","name":"Ngronggo"},{"id":"3571021015","district_id":"3571021","postal_code":"64128","name":"Manisrenggo"},{"id":"3571021016","district_id":"3571021","postal_code":"64123","name":"Pocanan"},{"id":"3571021017","district_id":"3571021","postal_code":"64129","name":"Rejomulyo"}]