[{"id":"3575041001","district_id":"3575041","postal_code":"67131","name":"Karanganyar"},{"id":"3575041002","district_id":"3575041","postal_code":"67133","name":"Tambaan"},{"id":"3575041003","district_id":"3575041","postal_code":"67132","name":"Trajeng"},{"id":"3575041004","district_id":"3575041","postal_code":"67111","name":"Bangilan"},{"id":"3575041005","district_id":"3575041","postal_code":"67114","name":"Kebonsari"},{"id":"3575041006","district_id":"3575041","postal_code":"67112","name":"Mayangan"},{"id":"3575041007","district_id":"3575041","postal_code":"67113","name":"Ngemplakrejo"},{"id":"3575041008","district_id":"3575041","postal_code":"67126","name":"Petamanan"},{"id":"3575041009","district_id":"3575041","postal_code":"67126","name":"Pekuncen"},{"id":"3575041010","district_id":"3575041","postal_code":"67129","name":"Bugul Lor"},{"id":"3575041011","district_id":"3575041","postal_code":"67125","name":"Kandangsapi"},{"id":"3575041012","district_id":"3575041","postal_code":"67124","name":"Panggungrejo"},{"id":"3575041013","district_id":"3575041","postal_code":"67123","name":"Mandaranrejo"}]