[{"id":"3602092001","district_id":"3602092","postal_code":"42355","name":"Kerta"},{"id":"3602092002","district_id":"3602092","postal_code":"42355","name":"Bojongjuruh"},{"id":"3602092003","district_id":"3602092","postal_code":"42355","name":"Leuwiipuh"},{"id":"3602092004","district_id":"3602092","postal_code":"42355","name":"Lebakkeusik"},{"id":"3602092005","district_id":"3602092","postal_code":"42355","name":"Cilegongilir"},{"id":"3602092006","district_id":"3602092","postal_code":"42355","name":"Keusik"},{"id":"3602092007","district_id":"3602092","postal_code":"42355","name":"Cibaturkeusik"},{"id":"3602092009","district_id":"3602092","postal_code":"42355","name":"Kumpay"},{"id":"3602092010","district_id":"3602092","postal_code":"42355","name":"Jalupanggirang"},{"id":"3602092011","district_id":"3602092","postal_code":"42355","name":"Bendungan"},{"id":"3602092012","district_id":"3602092","postal_code":"42355","name":"Kertaraharja"},{"id":"3602092013","district_id":"3602092","postal_code":"42355","name":"Cisampih"},{"id":"3602092014","district_id":"3602092","postal_code":"42355","name":"Gunungsari"},{"id":"3602092015","district_id":"3602092","postal_code":"42355","name":"Tamansari"},{"id":"3602092016","district_id":"3602092","postal_code":"42355","name":"Cidahu"},{"id":"3602092017","district_id":"3602092","postal_code":"42355","name":"Ciruji"},{"id":"3602092018","district_id":"3602092","postal_code":"42355","name":"Kaduhauk"},{"id":"3602092019","district_id":"3602092","postal_code":"42355","name":"Labanjaya"},{"id":"3602092020","district_id":"3602092","postal_code":"42355","name":"Umbuljaya"},{"id":"3602092021","district_id":"3602092","postal_code":"42355","name":"Kertarahayu"}]