[{"id":"3603152002","district_id":"3603152","postal_code":"15570","name":"Paku Alam"},{"id":"3603152003","district_id":"3603152","postal_code":"15570","name":"Bonasari"},{"id":"3603152004","district_id":"3603152","postal_code":"15570","name":"Rawa Boni"},{"id":"3603152005","district_id":"3603152","postal_code":"15570","name":"Buaran Mangga"},{"id":"3603152006","district_id":"3603152","postal_code":"15570","name":"Buaran Bambu"},{"id":"3603152007","district_id":"3603152","postal_code":"15570","name":"Kalibaru"},{"id":"3603152008","district_id":"3603152","postal_code":"15570","name":"Kohod"},{"id":"3603152009","district_id":"3603152","postal_code":"15570","name":"Kramat"},{"id":"3603152010","district_id":"3603152","postal_code":"15570","name":"Sukawali"},{"id":"3603152011","district_id":"3603152","postal_code":"15570","name":"Surya Bahari"},{"id":"3603152012","district_id":"3603152","postal_code":"15570","name":"Kiara Payung"},{"id":"3603152013","district_id":"3603152","postal_code":"15570","name":"Laksana"},{"id":"3603152014","district_id":"3603152","postal_code":"15570","name":"Gaga"}]