[{"id":"3604312001","district_id":"3604312","postal_code":"42167","name":"Cinangka"},{"id":"3604312002","district_id":"3604312","postal_code":"42167","name":"Bantar Waru"},{"id":"3604312003","district_id":"3604312","postal_code":"42167","name":"Pasauran"},{"id":"3604312004","district_id":"3604312","postal_code":"42167","name":"Bulakan"},{"id":"3604312005","district_id":"3604312","postal_code":"42167","name":"Karang Suraga"},{"id":"3604312006","district_id":"3604312","postal_code":"42167","name":"Umbul Tanjung"},{"id":"3604312007","district_id":"3604312","postal_code":"42167","name":"Kubang Baros"},{"id":"3604312008","district_id":"3604312","postal_code":"42167","name":"Ranca Sanggal"},{"id":"3604312009","district_id":"3604312","postal_code":"42167","name":"Cikolelet"},{"id":"3604312010","district_id":"3604312","postal_code":"42167","name":"Sindang Laya"},{"id":"3604312011","district_id":"3604312","postal_code":"42167","name":"Kamasan"},{"id":"3604312012","district_id":"3604312","postal_code":"42167","name":"Bantar Wangi"},{"id":"3604312013","district_id":"3604312","postal_code":"42167","name":"Mekarsari"},{"id":"3604312014","district_id":"3604312","postal_code":"42167","name":"Baros Jaya"}]