[{"id":"5102082001","district_id":"5102082","postal_code":"82152","name":"Rejasa"},{"id":"5102082002","district_id":"5102082","postal_code":"82152","name":"Jegu"},{"id":"5102082003","district_id":"5102082","postal_code":"82152","name":"Riang Gede"},{"id":"5102082004","district_id":"5102082","postal_code":"82152","name":"Buruan"},{"id":"5102082005","district_id":"5102082","postal_code":"82152","name":"Biaung"},{"id":"5102082006","district_id":"5102082","postal_code":"82152","name":"Pitra"},{"id":"5102082007","district_id":"5102082","postal_code":"82152","name":"Penatahan"},{"id":"5102082008","district_id":"5102082","postal_code":"82152","name":"Tengkudak"},{"id":"5102082009","district_id":"5102082","postal_code":"82152","name":"Mengesta"},{"id":"5102082010","district_id":"5102082","postal_code":"82152","name":"Penebel"},{"id":"5102082011","district_id":"5102082","postal_code":"82152","name":"Babakan"},{"id":"5102082012","district_id":"5102082","postal_code":"82152","name":"Senganan"},{"id":"5102082013","district_id":"5102082","postal_code":"82152","name":"Jatiluwih"},{"id":"5102082014","district_id":"5102082","postal_code":"82152","name":"Wongaya Gede"},{"id":"5102082015","district_id":"5102082","postal_code":"82152","name":"Tajen"},{"id":"5102082016","district_id":"5102082","postal_code":"82152","name":"Tegallinggah"},{"id":"5102082017","district_id":"5102082","postal_code":"82152","name":"Pesagi"},{"id":"5102082018","district_id":"5102082","postal_code":"82152","name":"Sangketan"}]