[{"id":"5103032001","district_id":"5103032","postal_code":"80352","name":"Darmasaba"},{"id":"5103032002","district_id":"5103032","postal_code":"80352","name":"Sibangkaja"},{"id":"5103032003","district_id":"5103032","postal_code":"80352","name":"Sibanggede"},{"id":"5103032004","district_id":"5103032","postal_code":"80352","name":"Jagapati"},{"id":"5103032005","district_id":"5103032","postal_code":"80352","name":"Angantaka"},{"id":"5103032006","district_id":"5103032","postal_code":"80352","name":"Sedang"},{"id":"5103032007","district_id":"5103032","postal_code":"80352","name":"Mambal"},{"id":"5103032008","district_id":"5103032","postal_code":"80352","name":"Abiansemal"},{"id":"5103032009","district_id":"5103032","postal_code":"80352","name":"Bongkasa"},{"id":"5103032010","district_id":"5103032","postal_code":"80352","name":"Taman"},{"id":"5103032011","district_id":"5103032","postal_code":"80352","name":"Blahkiuh"},{"id":"5103032012","district_id":"5103032","postal_code":"80352","name":"Ayunan"},{"id":"5103032013","district_id":"5103032","postal_code":"80352","name":"Sangeh"},{"id":"5103032014","district_id":"5103032","postal_code":"80352","name":"Punggul"},{"id":"5103032015","district_id":"5103032","postal_code":"80352","name":"Mekar Bhuwana"},{"id":"5103032016","district_id":"5103032","postal_code":"80352","name":"Abiansemal Dauh Yeh Cani"},{"id":"5103032017","district_id":"5103032","postal_code":"80352","name":"Selat"},{"id":"5103032018","district_id":"5103032","postal_code":"80352","name":"Bongkasa Pertiwi"}]