[{"id":"5108061006","district_id":"5108061","postal_code":"81116","name":"Banyuasri"},{"id":"5108061007","district_id":"5108061","postal_code":"81117","name":"Banjar Tegal"},{"id":"5108061008","district_id":"5108061","postal_code":"81112","name":"Kendran"},{"id":"5108061009","district_id":"5108061","postal_code":"81118","name":"Paket Agung"},{"id":"5108061010","district_id":"5108061","postal_code":"81111","name":"Kampung Singaraja"},{"id":"5108061011","district_id":"5108061","postal_code":"81119","name":"Liligundi"},{"id":"5108061012","district_id":"5108061","postal_code":"81119","name":"Beratan"},{"id":"5108061019","district_id":"5108061","postal_code":"81119","name":"Banyuning"},{"id":"5108061020","district_id":"5108061","postal_code":"81119","name":"Penarukan"},{"id":"5108061021","district_id":"5108061","postal_code":"81114","name":"Kampung Kajanan"},{"id":"5108061022","district_id":"5108061","postal_code":"81112","name":"Astina"},{"id":"5108061023","district_id":"5108061","postal_code":"81113","name":"Banjar Jawa"},{"id":"5108061024","district_id":"5108061","postal_code":"81116","name":"Kaliuntu"},{"id":"5108061025","district_id":"5108061","postal_code":"81115","name":"Kampung Anyar"},{"id":"5108061026","district_id":"5108061","postal_code":"81115","name":"Kampung Bugis"},{"id":"5108061027","district_id":"5108061","postal_code":"81113","name":"Banjar Bali"},{"id":"5108061029","district_id":"5108061","postal_code":"81114","name":"Kampung Baru"}]