[{"id":"5108062001","district_id":"5108062","postal_code":"81119","name":"Kalibukbuk"},{"id":"5108062002","district_id":"5108062","postal_code":"81119","name":"Anturan"},{"id":"5108062003","district_id":"5108062","postal_code":"81119","name":"Tukadmungga"},{"id":"5108062004","district_id":"5108062","postal_code":"81119","name":"Pemaron"},{"id":"5108062005","district_id":"5108062","postal_code":"81119","name":"Baktiseraga"},{"id":"5108062013","district_id":"5108062","postal_code":"81119","name":"Sarimekar"},{"id":"5108062014","district_id":"5108062","postal_code":"81119","name":"Nagasepaha"},{"id":"5108062015","district_id":"5108062","postal_code":"81119","name":"Petandakan"},{"id":"5108062016","district_id":"5108062","postal_code":"81119","name":"Alasangker"},{"id":"5108062017","district_id":"5108062","postal_code":"81119","name":"Poh Bergong"},{"id":"5108062018","district_id":"5108062","postal_code":"81119","name":"Jinangdalem"},{"id":"5108062028","district_id":"5108062","postal_code":"81119","name":"Penglatan"}]