[{"id":"5203142001","district_id":"5203142","postal_code":"83650","name":"Mamben Daya"},{"id":"5203142002","district_id":"5203142","postal_code":"83650","name":"Mamben Lauk"},{"id":"5203142003","district_id":"5203142","postal_code":"83650","name":"Wanasaba"},{"id":"5203142004","district_id":"5203142","postal_code":"83650","name":"Karang Baru"},{"id":"5203142005","district_id":"5203142","postal_code":"83650","name":"Bebidas"},{"id":"5203142006","district_id":"5203142","postal_code":"83650","name":"Tembeng Putik"},{"id":"5203142007","district_id":"5203142","postal_code":"83650","name":"Wanasaba Lauk"},{"id":"5203142008","district_id":"5203142","postal_code":"83650","name":"Beriri Jarak"},{"id":"5203142009","district_id":"5203142","postal_code":"83650","name":"Bandok"},{"id":"5203142010","district_id":"5203142","postal_code":"83650","name":"Mamben Baru"},{"id":"5203142011","district_id":"5203142","postal_code":"83650","name":"Otak Rarangan"},{"id":"5203142012","district_id":"5203142","postal_code":"83650","name":"Jineng"},{"id":"5203142013","district_id":"5203142","postal_code":"83650","name":"Wanasaba Daya"},{"id":"5203142014","district_id":"5203142","postal_code":"83650","name":"Karang Baru Timur"}]