[{"id":"5302112001","district_id":"5302112","postal_code":"85564","name":"Olais"},{"id":"5302112002","district_id":"5302112","postal_code":"85564","name":"Lasi"},{"id":"5302112003","district_id":"5302112","postal_code":"85564","name":"Kakan"},{"id":"5302112005","district_id":"5302112","postal_code":"85564","name":"Basmuti"},{"id":"5302112006","district_id":"5302112","postal_code":"85564","name":"Kusi"},{"id":"5302112007","district_id":"5302112","postal_code":"85564","name":"Kuanfatu"},{"id":"5302112008","district_id":"5302112","postal_code":"85564","name":"Kelle"},{"id":"5302112009","district_id":"5302112","postal_code":"85564","name":"Taupi"},{"id":"5302112010","district_id":"5302112","postal_code":"85564","name":"Oebo"},{"id":"5302112011","district_id":"5302112","postal_code":"85564","name":"Kusi Utara"},{"id":"5302112012","district_id":"5302112","postal_code":"85564","name":"Kelle Tunan"},{"id":"5302112013","district_id":"5302112","postal_code":"85564","name":"Noebeba"},{"id":"5302112014","district_id":"5302112","postal_code":"85564","name":"Oehan"}]