[{"id":"5305042002","district_id":"5305042","postal_code":"85871","name":"Kelaisi Barat"},{"id":"5305042003","district_id":"5305042","postal_code":"85871","name":"Sidabui"},{"id":"5305042004","district_id":"5305042","postal_code":"85871","name":"Padang Alang"},{"id":"5305042005","district_id":"5305042","postal_code":"85871","name":"Kuneman"},{"id":"5305042006","district_id":"5305042","postal_code":"85871","name":"Silaipui"},{"id":"5305042007","district_id":"5305042","postal_code":"85871","name":"Kelaisi Tengah"},{"id":"5305042008","district_id":"5305042","postal_code":"85871","name":"Kiraman"},{"id":"5305042009","district_id":"5305042","postal_code":"85871","name":"Maikang"},{"id":"5305042010","district_id":"5305042","postal_code":"85871","name":"Malaipea"},{"id":"5305042011","district_id":"5305042","postal_code":"85871","name":"Tamanapui"},{"id":"5305042012","district_id":"5305042","postal_code":"85871","name":"Lella"},{"id":"5305042013","district_id":"5305042","postal_code":"85871","name":"Manmas"},{"id":"5305042014","district_id":"5305042","postal_code":"85871","name":"Subo"}]