[{"id":"5307042001","district_id":"5307042","postal_code":"86151","name":"Nita"},{"id":"5307042002","district_id":"5307042","postal_code":"86151","name":"Takaplager"},{"id":"5307042003","district_id":"5307042","postal_code":"86151","name":"Tebuk"},{"id":"5307042004","district_id":"5307042","postal_code":"86151","name":"Ladogahar"},{"id":"5307042005","district_id":"5307042","postal_code":"86151","name":"Nitakloang"},{"id":"5307042006","district_id":"5307042","postal_code":"86151","name":"Wuliwutik"},{"id":"5307042007","district_id":"5307042","postal_code":"86151","name":"Lusitada"},{"id":"5307042008","district_id":"5307042","postal_code":"86151","name":"Bloro"},{"id":"5307042009","district_id":"5307042","postal_code":"86151","name":"Riit"},{"id":"5307042010","district_id":"5307042","postal_code":"86151","name":"Tilang"},{"id":"5307042011","district_id":"5307042","postal_code":"86151","name":"Nirangkliung"},{"id":"5307042017","district_id":"5307042","postal_code":"86151","name":"Mahebora"}]