[{"id":"5308052003","district_id":"5308052","postal_code":"86360","name":"Wolotopo"},{"id":"5308052004","district_id":"5308052","postal_code":"86360","name":"Wolotolo Timur"},{"id":"5308052006","district_id":"5308052","postal_code":"86360","name":"Puutuga"},{"id":"5308052007","district_id":"5308052","postal_code":"86360","name":"Ngalupolo"},{"id":"5308052012","district_id":"5308052","postal_code":"86360","name":"Ngaluroga"},{"id":"5308052013","district_id":"5308052","postal_code":"86360","name":"Nila"},{"id":"5308052014","district_id":"5308052","postal_code":"86360","name":"Kekasewa"},{"id":"5308052015","district_id":"5308052","postal_code":"86360","name":"Manulando"},{"id":"5308052016","district_id":"5308052","postal_code":"86360","name":"Nanganesa"},{"id":"5308052017","district_id":"5308052","postal_code":"86360","name":"Wolokota"},{"id":"5308052018","district_id":"5308052","postal_code":"86360","name":"Kelikiku"},{"id":"5308052020","district_id":"5308052","postal_code":"86360","name":"Reka"}]