[{"id":"5308102001","district_id":"5308102","postal_code":"86381","name":"Maurole"},{"id":"5308102003","district_id":"5308102","postal_code":"86381","name":"Aewora"},{"id":"5308102005","district_id":"5308102","postal_code":"86381","name":"Mausambi"},{"id":"5308102006","district_id":"5308102","postal_code":"86381","name":"Ranakolo"},{"id":"5308102007","district_id":"5308102","postal_code":"86381","name":"Watukamba"},{"id":"5308102008","district_id":"5308102","postal_code":"86381","name":"Ranakolo Selatan"},{"id":"5308102009","district_id":"5308102","postal_code":"86381","name":"Keliwumbu"},{"id":"5308102018","district_id":"5308102","postal_code":"86381","name":"Detuwulu"},{"id":"5308102019","district_id":"5308102","postal_code":"86381","name":"Otogedu"},{"id":"5308102020","district_id":"5308102","postal_code":"86381","name":"Woloau"},{"id":"5308102021","district_id":"5308102","postal_code":"86381","name":"Ngalukoja"},{"id":"5308102022","district_id":"5308102","postal_code":"86381","name":"Niranusa"},{"id":"5308102023","district_id":"5308102","postal_code":"86381","name":"Uludala"}]