[{"id":"5309182001","district_id":"5309182","postal_code":"86466","name":"Bawarani"},{"id":"5309182002","district_id":"5309182","postal_code":"86466","name":"Wogowela"},{"id":"5309182003","district_id":"5309182","postal_code":"86466","name":"Watu Sipi"},{"id":"5309182004","district_id":"5309182","postal_code":"86466","name":"Boba"},{"id":"5309182005","district_id":"5309182","postal_code":"86466","name":"Boba Satu"},{"id":"5309182006","district_id":"5309182","postal_code":"86466","name":"Were Tiga"},{"id":"5309182007","district_id":"5309182","postal_code":"86466","name":"Kezewea"},{"id":"5309182008","district_id":"5309182","postal_code":"86466","name":"Nirmala"},{"id":"5309182009","district_id":"5309182","postal_code":"86466","name":"Sadha"},{"id":"5309182010","district_id":"5309182","postal_code":"86466","name":"Takatunga"},{"id":"5309182011","district_id":"5309182","postal_code":"86466","name":"Radamasa"},{"id":"5309182012","district_id":"5309182","postal_code":"86466","name":"Were Dua"}]