[{"id":"5309062001","district_id":"5309062","postal_code":"86413","name":"Beja"},{"id":"5309062002","district_id":"5309062","postal_code":"86413","name":"Bomari"},{"id":"5309062003","district_id":"5309062","postal_code":"86413","name":"Wawowae"},{"id":"5309062004","district_id":"5309062","postal_code":"86413","name":"Ubedolumolo"},{"id":"5309062005","district_id":"5309062","postal_code":"86413","name":"Naru"},{"id":"5309062009","district_id":"5309062","postal_code":"86413","name":"Beiwali"},{"id":"5309062022","district_id":"5309062","postal_code":"86413","name":"Borani"},{"id":"5309062023","district_id":"5309062","postal_code":"86418","name":"Langagedha"},{"id":"5309062024","district_id":"5309062","postal_code":"86413","name":"Pape"},{"id":"5309062025","district_id":"5309062","postal_code":"86413","name":"Bowali"},{"id":"5309062026","district_id":"5309062","postal_code":"86413","name":"Ngoranale"},{"id":"5309062027","district_id":"5309062","postal_code":"86413","name":"Ubedolumolo Satu"},{"id":"5309062028","district_id":"5309062","postal_code":"86413","name":"Bela"}]