[{"id":"5309022002","district_id":"5309022","postal_code":"86461","name":"Were I"},{"id":"5309022009","district_id":"5309022","postal_code":"86461","name":"Sangadeto"},{"id":"5309022010","district_id":"5309022","postal_code":"86461","name":"Ratogesa"},{"id":"5309022011","district_id":"5309022","postal_code":"86461","name":"Radabata"},{"id":"5309022018","district_id":"5309022","postal_code":"86461","name":"Dadawea"},{"id":"5309022019","district_id":"5309022","postal_code":"86461","name":"Sarasedu"},{"id":"5309022020","district_id":"5309022","postal_code":"86461","name":"Malanuza"},{"id":"5309022025","district_id":"5309022","postal_code":"86461","name":"Were"},{"id":"5309022026","district_id":"5309022","postal_code":"86461","name":"Were Iv"},{"id":"5309022031","district_id":"5309022","postal_code":"86461","name":"Malanuza Satu"},{"id":"5309022032","district_id":"5309022","postal_code":"86461","name":"Sarasedu Satu"},{"id":"5309022036","district_id":"5309022","postal_code":"86461","name":"Ulu Belu"},{"id":"5309022037","district_id":"5309022","postal_code":"86461","name":"Ekoroka"},{"id":"5309022038","district_id":"5309022","postal_code":"86461","name":"Wae La"}]