[{"id":"5310052003","district_id":"5310052","postal_code":"86561","name":"Jaong"},{"id":"5310052004","district_id":"5310052","postal_code":"86561","name":"Pongkor"},{"id":"5310052005","district_id":"5310052","postal_code":"86561","name":"Wae Ajang"},{"id":"5310052018","district_id":"5310052","postal_code":"86561","name":"Papang"},{"id":"5310052019","district_id":"5310052","postal_code":"86561","name":"Wewo"},{"id":"5310052020","district_id":"5310052","postal_code":"86561","name":"Lungar"},{"id":"5310052021","district_id":"5310052","postal_code":"86561","name":"Mocok"},{"id":"5310052022","district_id":"5310052","postal_code":"86561","name":"Koak"},{"id":"5310052023","district_id":"5310052","postal_code":"86561","name":"Langgo"},{"id":"5310052024","district_id":"5310052","postal_code":"86561","name":"Legu"},{"id":"5310052025","district_id":"5310052","postal_code":"86561","name":"Paka"},{"id":"5310052028","district_id":"5310052","postal_code":"86561","name":"Tal"},{"id":"5310052031","district_id":"5310052","postal_code":"86561","name":"Golo Lambo"},{"id":"5310052032","district_id":"5310052","postal_code":"86561","name":"Ngkaer"},{"id":"5310052033","district_id":"5310052","postal_code":"86561","name":"Umung"},{"id":"5310052034","district_id":"5310052","postal_code":"86561","name":"Tado"},{"id":"5310052035","district_id":"5310052","postal_code":"86561","name":"Gara"},{"id":"5310052036","district_id":"5310052","postal_code":"86561","name":"Golo Muntas"},{"id":"5310052038","district_id":"5310052","postal_code":"86561","name":"Ponggeok"},{"id":"5310052039","district_id":"5310052","postal_code":"86561","name":"Iteng"},{"id":"5310052040","district_id":"5310052","postal_code":"86561","name":"Satar Loung"},{"id":"5310052041","district_id":"5310052","postal_code":"86561","name":"Lolang"},{"id":"5310052042","district_id":"5310052","postal_code":"86561","name":"Ulu Belang"}]