[{"id":"5314022004","district_id":"5314022","postal_code":"85981","name":"Temas"},{"id":"5314022005","district_id":"5314022","postal_code":"85981","name":"Boni"},{"id":"5314022006","district_id":"5314022","postal_code":"85981","name":"Oelua"},{"id":"5314022007","district_id":"5314022","postal_code":"85981","name":"Modosinal"},{"id":"5314022009","district_id":"5314022","postal_code":"85981","name":"Netenaen"},{"id":"5314022010","district_id":"5314022","postal_code":"85981","name":"Lidor"},{"id":"5314022011","district_id":"5314022","postal_code":"85981","name":"Tolama"},{"id":"5314022012","district_id":"5314022","postal_code":"85981","name":"Ingguinak"},{"id":"5314022013","district_id":"5314022","postal_code":"85981","name":"Oetutulu"},{"id":"5314022014","district_id":"5314022","postal_code":"85981","name":"Daudolu"},{"id":"5314022015","district_id":"5314022","postal_code":"85981","name":"Oebela"},{"id":"5314022017","district_id":"5314022","postal_code":"85981","name":"Tualima"},{"id":"5314022018","district_id":"5314022","postal_code":"85981","name":"Holulai"},{"id":"5314022019","district_id":"5314022","postal_code":"85981","name":"Hundihuk"},{"id":"5314022020","district_id":"5314022","postal_code":"85981","name":"Oebole"},{"id":"5314022021","district_id":"5314022","postal_code":"85981","name":"Saindule"},{"id":"5314022022","district_id":"5314022","postal_code":"85981","name":"Tasilo"},{"id":"5314022023","district_id":"5314022","postal_code":"85981","name":"Balaoli"},{"id":"5314022024","district_id":"5314022","postal_code":"85981","name":"Mundek"},{"id":"5314022025","district_id":"5314022","postal_code":"85981","name":"Busalangga Timur"},{"id":"5314022026","district_id":"5314022","postal_code":"85981","name":"Busalangga Barat"}]