[{"id":"5316032002","district_id":"5316032","postal_code":"86462","name":"Rowa"},{"id":"5316032004","district_id":"5316032","postal_code":"86462","name":"Solo"},{"id":"5316032006","district_id":"5316032","postal_code":"86462","name":"Legederu"},{"id":"5316032008","district_id":"5316032","postal_code":"86462","name":"Nagerawe"},{"id":"5316032010","district_id":"5316032","postal_code":"86462","name":"Kelewae"},{"id":"5316032012","district_id":"5316032","postal_code":"86462","name":"Kelimado"},{"id":"5316032014","district_id":"5316032","postal_code":"86462","name":"Mulakoli"},{"id":"5316032015","district_id":"5316032","postal_code":"86462","name":"Wea Au"},{"id":"5316032016","district_id":"5316032","postal_code":"86462","name":"Raja"},{"id":"5316032017","district_id":"5316032","postal_code":"86462","name":"Wolowea"},{"id":"5316032018","district_id":"5316032","postal_code":"86462","name":"Gerodhere"},{"id":"5316032019","district_id":"5316032","postal_code":"86462","name":"Dhereisa"},{"id":"5316032020","district_id":"5316032","postal_code":"86462","name":"Rigi"},{"id":"5316032022","district_id":"5316032","postal_code":"86462","name":"Alorawe"},{"id":"5316032023","district_id":"5316032","postal_code":"86462","name":"Focolodorawe"},{"id":"5316032024","district_id":"5316032","postal_code":"86462","name":"Wolowea Timur"},{"id":"5316032025","district_id":"5316032","postal_code":"86462","name":"Wolowea Barat"},{"id":"5316032026","district_id":"5316032","postal_code":"86462","name":"Raja Timur"},{"id":"5316032027","district_id":"5316032","postal_code":"86462","name":"Raja Selatan"}]