[{"id":"5317042001","district_id":"5317042","postal_code":"87283","name":"Mbilur Pangadu"},{"id":"5317042002","district_id":"5317042","postal_code":"87283","name":"Soru"},{"id":"5317042003","district_id":"5317042","postal_code":"87283","name":"Praikoruku Jangga"},{"id":"5317042004","district_id":"5317042","postal_code":"87283","name":"Bolu Bokat"},{"id":"5317042005","district_id":"5317042","postal_code":"87283","name":"Mara Desa"},{"id":"5317042006","district_id":"5317042","postal_code":"87283","name":"Weluk Praimemang"},{"id":"5317042007","district_id":"5317042","postal_code":"87283","name":"Lenang"},{"id":"5317042008","district_id":"5317042","postal_code":"87283","name":"Tana Mbanas"},{"id":"5317042009","district_id":"5317042","postal_code":"87283","name":"Padira Tana"},{"id":"5317042010","district_id":"5317042","postal_code":"87283","name":"Ngadu Bolu"},{"id":"5317042011","district_id":"5317042","postal_code":"87283","name":"Bolu Bokat Utara"},{"id":"5317042012","district_id":"5317042","postal_code":"87283","name":"Maradesa Timur"},{"id":"5317042013","district_id":"5317042","postal_code":"87283","name":"Maradesa Selatan"},{"id":"5317042014","district_id":"5317042","postal_code":"87283","name":"Tana Mbanas Selatan"},{"id":"5317042015","district_id":"5317042","postal_code":"87283","name":"Tana Mbanas Barat"},{"id":"5317042016","district_id":"5317042","postal_code":"87283","name":"Ngadu Olu"},{"id":"5317042017","district_id":"5317042","postal_code":"87283","name":"Lenang Selatan"},{"id":"5317042018","district_id":"5317042","postal_code":"87283","name":"Bolubokat Barat"}]