[{"id":"5319012001","district_id":"5319012","postal_code":"86571","name":"Nanga Labang"},{"id":"5319012004","district_id":"5319012","postal_code":"86571","name":"Gurung Liwut"},{"id":"5319012005","district_id":"5319012","postal_code":"86571","name":"Benteng Riwu"},{"id":"5319012006","district_id":"5319012","postal_code":"86571","name":"Ngampang Mas"},{"id":"5319012009","district_id":"5319012","postal_code":"86571","name":"Rana Masak"},{"id":"5319012010","district_id":"5319012","postal_code":"86571","name":"Benteng Raja"},{"id":"5319012014","district_id":"5319012","postal_code":"86571","name":"Golo Lalong"},{"id":"5319012017","district_id":"5319012","postal_code":"86571","name":"Golo Kantar"},{"id":"5319012018","district_id":"5319012","postal_code":"86571","name":"Poco Rii"},{"id":"5319012025","district_id":"5319012","postal_code":"86571","name":"Balus Permai"},{"id":"5319012031","district_id":"5319012","postal_code":"86571","name":"Waling"},{"id":"5319012032","district_id":"5319012","postal_code":"86571","name":"Golo Leda"},{"id":"5319012034","district_id":"5319012","postal_code":"86571","name":"Compang Tenda"},{"id":"5319012035","district_id":"5319012","postal_code":"86571","name":"Bangka Kantar"},{"id":"5319012038","district_id":"5319012","postal_code":"86571","name":"Compang Ndejing"}]