[{"id":"5319042001","district_id":"5319042","postal_code":"86584","name":"Nanga Baur"},{"id":"5319042002","district_id":"5319042","postal_code":"86584","name":"Nanga Mbaling"},{"id":"5319042003","district_id":"5319042","postal_code":"86584","name":"Buti"},{"id":"5319042004","district_id":"5319042","postal_code":"86584","name":"Golo Ngawan"},{"id":"5319042005","district_id":"5319042","postal_code":"86584","name":"Satar Nawang"},{"id":"5319042006","district_id":"5319042","postal_code":"86584","name":"Rana Mese"},{"id":"5319042007","district_id":"5319042","postal_code":"86584","name":"Lada Mese"},{"id":"5319042008","district_id":"5319042","postal_code":"86584","name":"Compang Congkar"},{"id":"5319042012","district_id":"5319042","postal_code":"86584","name":"Nampar Sepang"},{"id":"5319042013","district_id":"5319042","postal_code":"86584","name":"Kembang Mekar"},{"id":"5319042014","district_id":"5319042","postal_code":"86584","name":"Wela Lada"},{"id":"5319042015","district_id":"5319042","postal_code":"86584","name":"Golo Pari"},{"id":"5319042016","district_id":"5319042","postal_code":"86584","name":"Compang Lawi"},{"id":"5319042017","district_id":"5319042","postal_code":"86584","name":"Wea"}]