[{"id":"6104112001","district_id":"6104112","postal_code":"78873","name":"Nanga Tayap"},{"id":"6104112002","district_id":"6104112","postal_code":"78873","name":"Pangkalan Telok"},{"id":"6104112003","district_id":"6104112","postal_code":"78873","name":"Pangkalan Suka"},{"id":"6104112004","district_id":"6104112","postal_code":"78873","name":"Betenung"},{"id":"6104112005","district_id":"6104112","postal_code":"78873","name":"Batu Mas"},{"id":"6104112006","district_id":"6104112","postal_code":"78873","name":"Sungai Kelik"},{"id":"6104112007","district_id":"6104112","postal_code":"78873","name":"Lembah Hijau Satu"},{"id":"6104112008","district_id":"6104112","postal_code":"78873","name":"Lembah Hijau Dua"},{"id":"6104112009","district_id":"6104112","postal_code":"78873","name":"Siantau Raya"},{"id":"6104112010","district_id":"6104112","postal_code":"78873","name":"Sebadak Raya"},{"id":"6104112011","district_id":"6104112","postal_code":"78873","name":"Simpang Tiga Sembelangaan"},{"id":"6104112012","district_id":"6104112","postal_code":"78873","name":"Mensubang"},{"id":"6104112013","district_id":"6104112","postal_code":"78873","name":"Tajok Kayong"},{"id":"6104112014","district_id":"6104112","postal_code":"78873","name":"Kayong Utara"},{"id":"6104112015","district_id":"6104112","postal_code":"78873","name":"Kayong Hulu"},{"id":"6104112016","district_id":"6104112","postal_code":"78873","name":"Sepakat Jaya"},{"id":"6104112017","district_id":"6104112","postal_code":"78873","name":"Cegolak"},{"id":"6104112018","district_id":"6104112","postal_code":"78873","name":"Pateh Benteng"},{"id":"6104112019","district_id":"6104112","postal_code":"78873","name":"Tanjung Medan"},{"id":"6104112020","district_id":"6104112","postal_code":"78873","name":"Kayung Tuhe"}]