[{"id":"6201062001","district_id":"6201062","postal_code":"74183","name":"Pangkalan Banteng"},{"id":"6201062002","district_id":"6201062","postal_code":"74183","name":"Mulya Jadi"},{"id":"6201062003","district_id":"6201062","postal_code":"74183","name":"Karang Mulya"},{"id":"6201062004","district_id":"6201062","postal_code":"74183","name":"Kebun Agung"},{"id":"6201062005","district_id":"6201062","postal_code":"74183","name":"Sido Mulyo"},{"id":"6201062006","district_id":"6201062","postal_code":"74183","name":"Marga Mulya"},{"id":"6201062007","district_id":"6201062","postal_code":"74183","name":"Amin Jaya"},{"id":"6201062008","district_id":"6201062","postal_code":"74183","name":"Arga Mulya"},{"id":"6201062009","district_id":"6201062","postal_code":"74183","name":"Natai Kerbau"},{"id":"6201062010","district_id":"6201062","postal_code":"74183","name":"Simpang Berambai"},{"id":"6201062011","district_id":"6201062","postal_code":"74183","name":"Sungai Hijau"},{"id":"6201062012","district_id":"6201062","postal_code":"74183","name":"Sungai Pakit"},{"id":"6201062013","district_id":"6201062","postal_code":"74183","name":"Berambai Makmur"},{"id":"6201062014","district_id":"6201062","postal_code":"74183","name":"Karang Sari"},{"id":"6201062015","district_id":"6201062","postal_code":"74183","name":"Sungai Pulau"},{"id":"6201062016","district_id":"6201062","postal_code":"74183","name":"Sungai Bengkuang"},{"id":"6201062017","district_id":"6201062","postal_code":"74183","name":"Sungai Kuning"}]