[{"id":"6201012001","district_id":"6201012","postal_code":"74181","name":"Sungai Cabang"},{"id":"6201012002","district_id":"6201012","postal_code":"74181","name":"Teluk Pulai"},{"id":"6201012003","district_id":"6201012","postal_code":"74181","name":"Sabuai"},{"id":"6201012004","district_id":"6201012","postal_code":"74181","name":"Keraya"},{"id":"6201012005","district_id":"6201012","postal_code":"74181","name":"Teluk Bogam"},{"id":"6201012006","district_id":"6201012","postal_code":"74181","name":"Sungai Bakau"},{"id":"6201012007","district_id":"6201012","postal_code":"74181","name":"Kubu"},{"id":"6201012008","district_id":"6201012","postal_code":"74181","name":"Sungai Kapitan"},{"id":"6201012009","district_id":"6201012","postal_code":"74181","name":"Batu Belaman"},{"id":"6201012010","district_id":"6201012","postal_code":"74181","name":"Sungai Tendang"},{"id":"6201012014","district_id":"6201012","postal_code":"74181","name":"Sungai Sekonyer"},{"id":"6201012015","district_id":"6201012","postal_code":"74181","name":"Sungai Bedaun"},{"id":"6201012017","district_id":"6201012","postal_code":"74181","name":"Bumi Harjo"},{"id":"6201012032","district_id":"6201012","postal_code":"74181","name":"Pangkalan Satu"},{"id":"6201012034","district_id":"6201012","postal_code":"74181","name":"Sabuai Timur"}]