[{"id":"6203122001","district_id":"6203122","postal_code":"74581","name":"Sei Hanyo"},{"id":"6203122002","district_id":"6203122","postal_code":"74581","name":"Hurung Tabengan"},{"id":"6203122003","district_id":"6203122","postal_code":"74581","name":"Rahung Bungai"},{"id":"6203122005","district_id":"6203122","postal_code":"74581","name":"Bulau Ngandung"},{"id":"6203122006","district_id":"6203122","postal_code":"74581","name":"Tumbang Puroh"},{"id":"6203122008","district_id":"6203122","postal_code":"74581","name":"Tangirang"},{"id":"6203122013","district_id":"6203122","postal_code":"74581","name":"Barunang Ii"},{"id":"6203122014","district_id":"6203122","postal_code":"74581","name":"Hurung Tampang"},{"id":"6203122015","district_id":"6203122","postal_code":"74581","name":"Supang"},{"id":"6203122016","district_id":"6203122","postal_code":"74581","name":"Katanjung"},{"id":"6203122018","district_id":"6203122","postal_code":"74581","name":"Jakatan Pari"},{"id":"6203122019","district_id":"6203122","postal_code":"74581","name":"Tumbang Sirat"},{"id":"6203122021","district_id":"6203122","postal_code":"74581","name":"Dirung Koram"},{"id":"6203122022","district_id":"6203122","postal_code":"74581","name":"Mampai Jaya"}]