[{"id":"6204062001","district_id":"6204062","postal_code":"73713","name":"Danau Ganting"},{"id":"6204062002","district_id":"6204062","postal_code":"73713","name":"Muara Talang"},{"id":"6204062003","district_id":"6204062","postal_code":"0","name":"Teluk Telaga"},{"id":"6204062004","district_id":"6204062","postal_code":"73713","name":"Baru"},{"id":"6204062005","district_id":"6204062","postal_code":"73713","name":"Danau Sadar"},{"id":"6204062009","district_id":"6204062","postal_code":"73751","name":"Pamait"},{"id":"6204062010","district_id":"6204062","postal_code":"73751","name":"Sababilah"},{"id":"6204062011","district_id":"6204062","postal_code":"73713","name":"Mangaris"},{"id":"6204062012","district_id":"6204062","postal_code":"73713","name":"Tetei Lanan"},{"id":"6204062013","district_id":"6204062","postal_code":"73713","name":"Pamangka"},{"id":"6204062014","district_id":"6204062","postal_code":"73751","name":"Sanggu"},{"id":"6204062015","district_id":"6204062","postal_code":"73713","name":"Lembeng"},{"id":"6204062016","district_id":"6204062","postal_code":"73751","name":"Muara Ripung"},{"id":"6204062017","district_id":"6204062","postal_code":"73713","name":"Madara"},{"id":"6204062018","district_id":"6204062","postal_code":"73713","name":"Murung Paken"},{"id":"6204062019","district_id":"6204062","postal_code":"73751","name":"Mabuan"},{"id":"6204062020","district_id":"6204062","postal_code":"73751","name":"Kalahien"},{"id":"6204062021","district_id":"6204062","postal_code":"73751","name":"Penda Asam"},{"id":"6204062022","district_id":"6204062","postal_code":"73751","name":"Pararapak"},{"id":"6204062023","district_id":"6204062","postal_code":"73713","name":"Teluk Mampun"},{"id":"6204062024","district_id":"6204062","postal_code":"73751","name":"Tanjung Jawa"},{"id":"6204062025","district_id":"6204062","postal_code":"73713","name":"Telang Andrau"},{"id":"6204062026","district_id":"6204062","postal_code":"73713","name":"Dangka"},{"id":"6204062027","district_id":"6204062","postal_code":"73713","name":"Danau Masura"}]