[{"id":"6206102003","district_id":"6206102","postal_code":"74463","name":"Kampung Keramat"},{"id":"6206102004","district_id":"6206102","postal_code":"74463","name":"Kampung Tengah"},{"id":"6206102005","district_id":"6206102","postal_code":"74463","name":"Jaya Makmur"},{"id":"6206102006","district_id":"6206102","postal_code":"74463","name":"Subur Indah"},{"id":"6206102007","district_id":"6206102","postal_code":"74463","name":"Kampung Baru"},{"id":"6206102008","district_id":"6206102","postal_code":"74463","name":"Bangun Jaya"},{"id":"6206102009","district_id":"6206102","postal_code":"74463","name":"Setia Mulia"},{"id":"6206102010","district_id":"6206102","postal_code":"74463","name":"Singam Raya"},{"id":"6206102011","district_id":"6206102","postal_code":"74463","name":"Sebangau Jaya"},{"id":"6206102012","district_id":"6206102","postal_code":"74463","name":"Sungai Kaki"},{"id":"6206102013","district_id":"6206102","postal_code":"74463","name":"Selat Baning"},{"id":"6206102014","district_id":"6206102","postal_code":"74463","name":"Makmur Utama"},{"id":"6206102015","district_id":"6206102","postal_code":"74463","name":"Bumi Subur"},{"id":"6206102016","district_id":"6206102","postal_code":"74463","name":"Bakung Raya"}]