[{"id":"6209032001","district_id":"6209032","postal_code":"74162","name":"Sungai Mentawa"},{"id":"6209032002","district_id":"6209032","postal_code":"74162","name":"Guci"},{"id":"6209032003","district_id":"6209032","postal_code":"74162","name":"Batu Kotam"},{"id":"6209032004","district_id":"6209032","postal_code":"74612","name":"Kujan"},{"id":"6209032006","district_id":"6209032","postal_code":"74162","name":"Bunut"},{"id":"6209032007","district_id":"6209032","postal_code":"74162","name":"Beruta"},{"id":"6209032008","district_id":"6209032","postal_code":"74162","name":"Tamiang"},{"id":"6209032031","district_id":"6209032","postal_code":"74162","name":"Bumi Agung"},{"id":"6209032032","district_id":"6209032","postal_code":"74162","name":"Sumber Mulya"},{"id":"6209032036","district_id":"6209032","postal_code":"74162","name":"Bukit Indah"},{"id":"6209032037","district_id":"6209032","postal_code":"74162","name":"Arga Mulya"},{"id":"6209032043","district_id":"6209032","postal_code":"74162","name":"Perigi Raya"},{"id":"6209032044","district_id":"6209032","postal_code":"74162","name":"Nanga Pamalontian"}]