[{"id":"6303112001","district_id":"6303112","postal_code":"70671","name":"Tiwingan Lama"},{"id":"6303112002","district_id":"6303112","postal_code":"70671","name":"Kalaan"},{"id":"6303112003","district_id":"6303112","postal_code":"70671","name":"Benua Riam"},{"id":"6303112004","district_id":"6303112","postal_code":"70671","name":"Bunglai"},{"id":"6303112005","district_id":"6303112","postal_code":"70671","name":"Apuai"},{"id":"6303112006","district_id":"6303112","postal_code":"70671","name":"Rantau Bujur"},{"id":"6303112007","district_id":"6303112","postal_code":"70671","name":"Artain"},{"id":"6303112008","district_id":"6303112","postal_code":"70671","name":"Rantau Balai"},{"id":"6303112009","district_id":"6303112","postal_code":"70671","name":"Tiwingan Baru"},{"id":"6303112010","district_id":"6303112","postal_code":"70671","name":"Belangian"},{"id":"6303112011","district_id":"6303112","postal_code":"70671","name":"Aranio"},{"id":"6303112012","district_id":"6303112","postal_code":"70671","name":"Paau"}]