[{"id":"6401032001","district_id":"6401032","postal_code":"76271","name":"Lempesu"},{"id":"6401032002","district_id":"6401032","postal_code":"76271","name":"Bekoso"},{"id":"6401032003","district_id":"6401032","postal_code":"76271","name":"Damit"},{"id":"6401032004","district_id":"6401032","postal_code":"76271","name":"Suatang"},{"id":"6401032005","district_id":"6401032","postal_code":"76271","name":"Suliliran"},{"id":"6401032006","district_id":"6401032","postal_code":"76271","name":"Pasir Belengkong"},{"id":"6401032007","district_id":"6401032","postal_code":"76271","name":"Sangkuriman"},{"id":"6401032008","district_id":"6401032","postal_code":"76271","name":"Laburan"},{"id":"6401032009","district_id":"6401032","postal_code":"76271","name":"Suliliran Baru"},{"id":"6401032010","district_id":"6401032","postal_code":"76271","name":"Keresik Bura"},{"id":"6401032011","district_id":"6401032","postal_code":"76271","name":"Laburan Baru"},{"id":"6401032012","district_id":"6401032","postal_code":"76271","name":"Seniung Jaya"},{"id":"6401032013","district_id":"6401032","postal_code":"76271","name":"Sunge Batu"},{"id":"6401032014","district_id":"6401032","postal_code":"76271","name":"Olong Pinang"},{"id":"6401032015","district_id":"6401032","postal_code":"76271","name":"Suatang Keteban"}]