[{"id":"6402082001","district_id":"6402082","postal_code":"75561","name":"Kedang Ipil"},{"id":"6402082002","district_id":"6402082","postal_code":"75561","name":"Benua Baru"},{"id":"6402082003","district_id":"6402082","postal_code":"75561","name":"Sedulang"},{"id":"6402082004","district_id":"6402082","postal_code":"75561","name":"Loleng"},{"id":"6402082005","district_id":"6402082","postal_code":"75561","name":"Kota Bangun Ulu"},{"id":"6402082006","district_id":"6402082","postal_code":"75561","name":"Kota Bangun Ilir"},{"id":"6402082007","district_id":"6402082","postal_code":"75561","name":"Liang"},{"id":"6402082008","district_id":"6402082","postal_code":"75561","name":"Muhuran"},{"id":"6402082009","district_id":"6402082","postal_code":"75561","name":"Pela"},{"id":"6402082010","district_id":"6402082","postal_code":"75561","name":"Kota Bangun I"},{"id":"6402082011","district_id":"6402082","postal_code":"75561","name":"Kota Bangun Ii"},{"id":"6402082012","district_id":"6402082","postal_code":"75561","name":"Kota Bangun Iii"},{"id":"6402082013","district_id":"6402082","postal_code":"75561","name":"Sumber Sari"},{"id":"6402082014","district_id":"6402082","postal_code":"75561","name":"Sari Nadi"},{"id":"6402082015","district_id":"6402082","postal_code":"75561","name":"Suka Bumi"},{"id":"6402082016","district_id":"6402082","postal_code":"75561","name":"Wonosari"},{"id":"6402082017","district_id":"6402082","postal_code":"75561","name":"Kedang Murung"},{"id":"6402082018","district_id":"6402082","postal_code":"75561","name":"Kota Bangun Seberang"},{"id":"6402082019","district_id":"6402082","postal_code":"75561","name":"Liang Ulu"},{"id":"6402082020","district_id":"6402082","postal_code":"75561","name":"Sebelimbingan"},{"id":"6402082021","district_id":"6402082","postal_code":"75561","name":"Sangkuliman"}]