[{"id":"6402131001","district_id":"6402131","postal_code":"75271","name":"Salok Api Barat"},{"id":"6402131002","district_id":"6402131","postal_code":"75271","name":"Salok Api Laut"},{"id":"6402131003","district_id":"6402131","postal_code":"75274","name":"Ambarawang Laut"},{"id":"6402131004","district_id":"6402131","postal_code":"75274","name":"Ambarawang Darat"},{"id":"6402131005","district_id":"6402131","postal_code":"75273","name":"Margomulyo"},{"id":"6402131006","district_id":"6402131","postal_code":"75271","name":"Sungai Merdeka"},{"id":"6402131007","district_id":"6402131","postal_code":"75271","name":"Sungai Seluang"},{"id":"6402131008","district_id":"6402131","postal_code":"75276","name":"Wonotirto"},{"id":"6402131009","district_id":"6402131","postal_code":"75276","name":"Tanjung Harapan"},{"id":"6402131010","district_id":"6402131","postal_code":"75277","name":"Samboja Kuala"},{"id":"6402131011","district_id":"6402131","postal_code":"75271","name":"Sanipah"},{"id":"6402131012","district_id":"6402131","postal_code":"75279","name":"Handil Baru"},{"id":"6402131013","district_id":"6402131","postal_code":"75279","name":"Muara Sembilang"},{"id":"6402131015","district_id":"6402131","postal_code":"75271","name":"Bukit Merdeka"},{"id":"6402131017","district_id":"6402131","postal_code":"75271","name":"Argo Sari"},{"id":"6402131020","district_id":"6402131","postal_code":"75271","name":"Karya Merdeka"},{"id":"6402131021","district_id":"6402131","postal_code":"75271","name":"Teluk Pemedas"},{"id":"6402131022","district_id":"6402131","postal_code":"75276","name":"Kampung Lama"},{"id":"6402131023","district_id":"6402131","postal_code":"75276","name":"Handil Baru Darat"}]