[{"id":"6503052002","district_id":"6503052","postal_code":"77456","name":"Pa"},{"id":"6503052003","district_id":"6503052","postal_code":"77456","name":"Cinglat"},{"id":"6503052022","district_id":"6503052","postal_code":"77456","name":"Liang Butan"},{"id":"6503052029","district_id":"6503052","postal_code":"77456","name":"Pa"},{"id":"6503052030","district_id":"6503052","postal_code":"77456","name":"Ba Sikor"},{"id":"6503052031","district_id":"6503052","postal_code":"77456","name":"Pa"},{"id":"6503052032","district_id":"6503052","postal_code":"77456","name":"Buduk Kinangan"},{"id":"6503052033","district_id":"6503052","postal_code":"77456","name":"Liang Tuer"},{"id":"6503052034","district_id":"6503052","postal_code":"77456","name":"Buduk Tumu"},{"id":"6503052035","district_id":"6503052","postal_code":"77456","name":"Long Berayang"},{"id":"6503052036","district_id":"6503052","postal_code":"77456","name":"Pa"},{"id":"6503052037","district_id":"6503052","postal_code":"77456","name":"Pa"},{"id":"6503052038","district_id":"6503052","postal_code":"77456","name":"Wa"},{"id":"6503052039","district_id":"6503052","postal_code":"77456","name":"Long Nawang"},{"id":"6503052040","district_id":"6503052","postal_code":"77456","name":"Long Katung"},{"id":"6503052041","district_id":"6503052","postal_code":"77456","name":"Long Bawan"},{"id":"6503052044","district_id":"6503052","postal_code":"77456","name":"Long Matung"},{"id":"6503052045","district_id":"6503052","postal_code":"77456","name":"Long Rupan"},{"id":"6503052046","district_id":"6503052","postal_code":"77456","name":"Liang Biadung"},{"id":"6503052047","district_id":"6503052","postal_code":"77456","name":"Wa"},{"id":"6503052048","district_id":"6503052","postal_code":"77456","name":"Pa"},{"id":"6503052049","district_id":"6503052","postal_code":"77456","name":"Pa"},{"id":"6503052065","district_id":"6503052","postal_code":"77456","name":"Pa"}]