[{"id":"7108022002","district_id":"7108022","postal_code":"95763","name":"Huntuk"},{"id":"7108022003","district_id":"7108022","postal_code":"95763","name":"Mome"},{"id":"7108022004","district_id":"7108022","postal_code":"95763","name":"Kuhanga"},{"id":"7108022005","district_id":"7108022","postal_code":"95763","name":"Padang"},{"id":"7108022006","district_id":"7108022","postal_code":"95763","name":"Pimpi"},{"id":"7108022007","district_id":"7108022","postal_code":"95763","name":"Bunia"},{"id":"7108022008","district_id":"7108022","postal_code":"95763","name":"Talaga"},{"id":"7108022009","district_id":"7108022","postal_code":"95763","name":"Batulintik"},{"id":"7108022010","district_id":"7108022","postal_code":"95763","name":"Bintauna Pantai"},{"id":"7108022011","district_id":"7108022","postal_code":"95763","name":"Minanga"},{"id":"7108022012","district_id":"7108022","postal_code":"95763","name":"Kopi"},{"id":"7108022013","district_id":"7108022","postal_code":"95763","name":"Voaa"},{"id":"7108022014","district_id":"7108022","postal_code":"95763","name":"Bunong"},{"id":"7108022015","district_id":"7108022","postal_code":"95763","name":"Padang Barat"},{"id":"7108022016","district_id":"7108022","postal_code":"95763","name":"Vahuta"}]