[{"id":"7201172001","district_id":"7201172","postal_code":"94755","name":"Beringin Jaya"},{"id":"7201172002","district_id":"7201172","postal_code":"94755","name":"Rantau Jaya"},{"id":"7201172003","district_id":"7201172","postal_code":"94755","name":"Koninis"},{"id":"7201172004","district_id":"7201172","postal_code":"94755","name":"Gonohop"},{"id":"7201172005","district_id":"7201172","postal_code":"94755","name":"Sumber Mulia"},{"id":"7201172006","district_id":"7201172","postal_code":"94755","name":"Doda Bunta"},{"id":"7201172007","district_id":"7201172","postal_code":"94755","name":"Simpang Satu"},{"id":"7201172008","district_id":"7201172","postal_code":"94755","name":"Simpang Dua"},{"id":"7201172009","district_id":"7201172","postal_code":"94755","name":"Dowiwi"},{"id":"7201172010","district_id":"7201172","postal_code":"94755","name":"Mantan A"},{"id":"7201172011","district_id":"7201172","postal_code":"94755","name":"Dwipa Karya"},{"id":"7201172012","district_id":"7201172","postal_code":"94755","name":"Lokait"}]