[{"id":"7201022015","district_id":"7201022","postal_code":"94753","name":"Bohotokong"},{"id":"7201022016","district_id":"7201022","postal_code":"94753","name":"Dondo Soboli"},{"id":"7201022017","district_id":"7201022","postal_code":"94753","name":"Laonggo"},{"id":"7201022023","district_id":"7201022","postal_code":"94753","name":"Hion"},{"id":"7201022024","district_id":"7201022","postal_code":"94753","name":"Tombongan Ulos"},{"id":"7201022026","district_id":"7201022","postal_code":"94753","name":"Pongian"},{"id":"7201022027","district_id":"7201022","postal_code":"94753","name":"Tuntung"},{"id":"7201022028","district_id":"7201022","postal_code":"94753","name":"Nanga-nangaon"},{"id":"7201022029","district_id":"7201022","postal_code":"94753","name":"Toima"},{"id":"7201022030","district_id":"7201022","postal_code":"94753","name":"Matabas"},{"id":"7201022031","district_id":"7201022","postal_code":"94753","name":"Huhak"},{"id":"7201022032","district_id":"7201022","postal_code":"94753","name":"Lontio"},{"id":"7201022041","district_id":"7201022","postal_code":"94753","name":"Demangan Jaya"},{"id":"7201022042","district_id":"7201022","postal_code":"94753","name":"Balanga"},{"id":"7201022043","district_id":"7201022","postal_code":"94753","name":"Longgolian"},{"id":"7201022044","district_id":"7201022","postal_code":"94753","name":"Kalumbangan"},{"id":"7201022045","district_id":"7201022","postal_code":"94753","name":"Polo"},{"id":"7201022049","district_id":"7201022","postal_code":"94753","name":"Koili"}]