[{"id":"7201092001","district_id":"7201092","postal_code":"94764","name":"Cendana Pura"},{"id":"7201092011","district_id":"7201092","postal_code":"94764","name":"Sentral Sari"},{"id":"7201092012","district_id":"7201092","postal_code":"94764","name":"Tohiti Sari"},{"id":"7201092013","district_id":"7201092","postal_code":"94764","name":"Tirta Kencana"},{"id":"7201092014","district_id":"7201092","postal_code":"94764","name":"Singkoyo"},{"id":"7201092015","district_id":"7201092","postal_code":"94764","name":"Tolisu"},{"id":"7201092016","district_id":"7201092","postal_code":"94764","name":"Piondo"},{"id":"7201092017","district_id":"7201092","postal_code":"94764","name":"Tirta Sari"},{"id":"7201092026","district_id":"7201092","postal_code":"94764","name":"Rusa Kencana"},{"id":"7201092027","district_id":"7201092","postal_code":"94764","name":"Bukit Jaya"},{"id":"7201092036","district_id":"7201092","postal_code":"94764","name":"Samalore"},{"id":"7201092037","district_id":"7201092","postal_code":"94764","name":"Ue Mea"},{"id":"7201092038","district_id":"7201092","postal_code":"94764","name":"Benteng"},{"id":"7201092039","district_id":"7201092","postal_code":"94764","name":"Mansahang"},{"id":"7201092041","district_id":"7201092","postal_code":"94764","name":"Sindang Baru"},{"id":"7201092045","district_id":"7201092","postal_code":"94764","name":"Tanah Abang"},{"id":"7201092047","district_id":"7201092","postal_code":"94764","name":"Jaya Kencana"},{"id":"7201092048","district_id":"7201092","postal_code":"94764","name":"Mekar Kencana"},{"id":"7201092049","district_id":"7201092","postal_code":"94764","name":"Marga Kencana"},{"id":"7201092050","district_id":"7201092","postal_code":"94764","name":"Sari Buana"},{"id":"7201092051","district_id":"7201092","postal_code":"94764","name":"Sentral Timur"},{"id":"7201092055","district_id":"7201092","postal_code":"94764","name":"Mulya Sari"},{"id":"7201092056","district_id":"7201092","postal_code":"94764","name":"Tirta Jaya"},{"id":"7201092057","district_id":"7201092","postal_code":"94764","name":"Sidomukti"}]