[{"id":"7202032001","district_id":"7202032","postal_code":"94661","name":"Tampemadoro"},{"id":"7202032002","district_id":"7202032","postal_code":"94661","name":"Pandiri"},{"id":"7202032003","district_id":"7202032","postal_code":"94661","name":"Watuawu"},{"id":"7202032004","district_id":"7202032","postal_code":"94661","name":"Tambaro"},{"id":"7202032005","district_id":"7202032","postal_code":"94661","name":"Tagolu"},{"id":"7202032006","district_id":"7202032","postal_code":"94661","name":"Maliwuko"},{"id":"7202032007","district_id":"7202032","postal_code":"94661","name":"Silanca"},{"id":"7202032008","district_id":"7202032","postal_code":"94661","name":"Sepe"},{"id":"7202032009","district_id":"7202032","postal_code":"94661","name":"Bategencu"},{"id":"7202032010","district_id":"7202032","postal_code":"94661","name":"Toyado"},{"id":"7202032011","district_id":"7202032","postal_code":"94661","name":"Tongko"},{"id":"7202032012","district_id":"7202032","postal_code":"94661","name":"Malei"},{"id":"7202032013","district_id":"7202032","postal_code":"94661","name":"Sintuwulemba"},{"id":"7202032014","district_id":"7202032","postal_code":"94661","name":"Labuan"},{"id":"7202032015","district_id":"7202032","postal_code":"94661","name":"Labuadago"},{"id":"7202032017","district_id":"7202032","postal_code":"94661","name":"Ratoombu"}]