[{"id":"7202062003","district_id":"7202062","postal_code":"94664","name":"Bancea"},{"id":"7202062004","district_id":"7202062","postal_code":"94664","name":"Boe"},{"id":"7202062005","district_id":"7202062","postal_code":"94664","name":"Pendolo"},{"id":"7202062006","district_id":"7202062","postal_code":"94664","name":"Pandayora"},{"id":"7202062007","district_id":"7202062","postal_code":"94664","name":"Mayoa"},{"id":"7202062008","district_id":"7202062","postal_code":"94664","name":"Uelene"},{"id":"7202062018","district_id":"7202062","postal_code":"94664","name":"Mayasari"},{"id":"7202062019","district_id":"7202062","postal_code":"94664","name":"Pandajaya"},{"id":"7202062020","district_id":"7202062","postal_code":"94664","name":"Mayajaya"},{"id":"7202062021","district_id":"7202062","postal_code":"94664","name":"Bangunjaya"},{"id":"7202062022","district_id":"7202062","postal_code":"94664","name":"Panjo"},{"id":"7202062023","district_id":"7202062","postal_code":"94664","name":"Pasir Putih"}]