[{"id":"7206072001","district_id":"7206072","postal_code":"94975","name":"Terebino"},{"id":"7206072002","district_id":"7206072","postal_code":"94975","name":"Torukuno"},{"id":"7206072003","district_id":"7206072","postal_code":"94975","name":"Ngapaea"},{"id":"7206072004","district_id":"7206072","postal_code":"94975","name":"Padalaa"},{"id":"7206072005","district_id":"7206072","postal_code":"94975","name":"Morompaitonga"},{"id":"7206072006","district_id":"7206072","postal_code":"94975","name":"Kofalagadi"},{"id":"7206072008","district_id":"7206072","postal_code":"94975","name":"Padei Laut"},{"id":"7206072009","district_id":"7206072","postal_code":"94975","name":"Padei Darat"},{"id":"7206072010","district_id":"7206072","postal_code":"94975","name":"Samarengga"},{"id":"7206072011","district_id":"7206072","postal_code":"94975","name":"Masadian"},{"id":"7206072012","district_id":"7206072","postal_code":"94975","name":"Pulau Tiga"},{"id":"7206072013","district_id":"7206072","postal_code":"94975","name":"Matano"},{"id":"7206072014","district_id":"7206072","postal_code":"94975","name":"Matarape"},{"id":"7206072015","district_id":"7206072","postal_code":"94975","name":"Ulunipa"},{"id":"7206072016","district_id":"7206072","postal_code":"94975","name":"Wawangkolono"},{"id":"7206072017","district_id":"7206072","postal_code":"94975","name":"Buranga"},{"id":"7206072018","district_id":"7206072","postal_code":"94975","name":"Dongkalan"},{"id":"7206072019","district_id":"7206072","postal_code":"94975","name":"Tafagapi"},{"id":"7206072020","district_id":"7206072","postal_code":"94975","name":"Pulau Tengah"},{"id":"7206072021","district_id":"7206072","postal_code":"94975","name":"Mbokitta"},{"id":"7206072022","district_id":"7206072","postal_code":"94975","name":"Tanjung Tiram"},{"id":"7206072023","district_id":"7206072","postal_code":"94975","name":"Tanona"},{"id":"7206072024","district_id":"7206072","postal_code":"94975","name":"Tanjung Harapan"}]