[{"id":"7206052010","district_id":"7206052","postal_code":"94973","name":"Puungkoilu"},{"id":"7206052011","district_id":"7206052","postal_code":"94973","name":"Bahontobungku"},{"id":"7206052012","district_id":"7206052","postal_code":"94973","name":"Tofuti"},{"id":"7206052013","district_id":"7206052","postal_code":"94973","name":"Sakita"},{"id":"7206052019","district_id":"7206052","postal_code":"94973","name":"Matansala"},{"id":"7206052021","district_id":"7206052","postal_code":"94973","name":"Bahoruru"},{"id":"7206052022","district_id":"7206052","postal_code":"94973","name":"Bente"},{"id":"7206052023","district_id":"7206052","postal_code":"94973","name":"Ipi"},{"id":"7206052024","district_id":"7206052","postal_code":"94973","name":"Bahomohoni"},{"id":"7206052025","district_id":"7206052","postal_code":"94973","name":"Bahomoleo"},{"id":"7206052026","district_id":"7206052","postal_code":"94973","name":"Bahomante"},{"id":"7206052027","district_id":"7206052","postal_code":"94973","name":"Lanona"},{"id":"7206052029","district_id":"7206052","postal_code":"94973","name":"Tudua"}]