[{"id":"7208082001","district_id":"7208082","postal_code":"94464","name":"Kasimbar"},{"id":"7208082002","district_id":"7208082","postal_code":"94464","name":"Posona"},{"id":"7208082003","district_id":"7208082","postal_code":"94464","name":"Laemanta"},{"id":"7208082004","district_id":"7208082","postal_code":"94464","name":"Donggulu"},{"id":"7208082005","district_id":"7208082","postal_code":"94464","name":"Kasimbar Selatan"},{"id":"7208082006","district_id":"7208082","postal_code":"94464","name":"Kasimbar Barat"},{"id":"7208082007","district_id":"7208082","postal_code":"94464","name":"Silampayang"},{"id":"7208082008","district_id":"7208082","postal_code":"94464","name":"Tovalo"},{"id":"7208082009","district_id":"7208082","postal_code":"94464","name":"Donggulu Selatan"},{"id":"7208082010","district_id":"7208082","postal_code":"94464","name":"Labuan Donggulu"},{"id":"7208082011","district_id":"7208082","postal_code":"94464","name":"Kasimbar Palapi"},{"id":"7208082012","district_id":"7208082","postal_code":"94464","name":"Peningka"},{"id":"7208082013","district_id":"7208082","postal_code":"94464","name":"Laemanta Utara"},{"id":"7208082014","district_id":"7208082","postal_code":"94464","name":"Agodopi Kasimbar"},{"id":"7208082015","district_id":"7208082","postal_code":"94464","name":"Sendana"},{"id":"7208082016","district_id":"7208082","postal_code":"94464","name":"Kasimbar Utara"},{"id":"7208082017","district_id":"7208082","postal_code":"94464","name":"Posona Atas"},{"id":"7208082018","district_id":"7208082","postal_code":"94464","name":"Sumber Tani"}]