[{"id":"7208222001","district_id":"7208222","postal_code":"94482","name":"Ongka"},{"id":"7208222002","district_id":"7208222","postal_code":"94482","name":"Malino"},{"id":"7208222003","district_id":"7208222","postal_code":"94482","name":"Santigi"},{"id":"7208222004","district_id":"7208222","postal_code":"94482","name":"Persatuan Sejati"},{"id":"7208222005","district_id":"7208222","postal_code":"94482","name":"Tabolobolo"},{"id":"7208222006","district_id":"7208222","postal_code":"94482","name":"Tinombala"},{"id":"7208222007","district_id":"7208222","postal_code":"94482","name":"Karya Mandiri"},{"id":"7208222008","district_id":"7208222","postal_code":"94482","name":"Kayu Jati"},{"id":"7208222009","district_id":"7208222","postal_code":"94482","name":"Lambanau"},{"id":"7208222010","district_id":"7208222","postal_code":"94482","name":"Bosagon Jaya"},{"id":"7208222011","district_id":"7208222","postal_code":"94482","name":"Persatuan Utara"},{"id":"7208222012","district_id":"7208222","postal_code":"94482","name":"Tinombala Jaya"},{"id":"7208222013","district_id":"7208222","postal_code":"94482","name":"Ongka Trimuspasari"},{"id":"7208222014","district_id":"7208222","postal_code":"94482","name":"Tinombala Sejati"},{"id":"7208222015","district_id":"7208222","postal_code":"94482","name":"Tinombala Barat"},{"id":"7208222016","district_id":"7208222","postal_code":"94482","name":"Padaelo"},{"id":"7208222017","district_id":"7208222","postal_code":"94482","name":"Ongka Persatuan"}]