[{"id":"7308072002","district_id":"7308072","postal_code":"92773","name":"Mattirowalie"},{"id":"7308072003","district_id":"7308072","postal_code":"92773","name":"Mario"},{"id":"7308072004","district_id":"7308072","postal_code":"92773","name":"Ujung Salangketo"},{"id":"7308072005","district_id":"7308072","postal_code":"92773","name":"Tellu Boccoe"},{"id":"7308072006","district_id":"7308072","postal_code":"92773","name":"Mattampa Walie"},{"id":"7308072007","district_id":"7308072","postal_code":"92773","name":"Ujung Tanah"},{"id":"7308072008","district_id":"7308072","postal_code":"92773","name":"Sumaling"},{"id":"7308072009","district_id":"7308072","postal_code":"92773","name":"Tellongeng"},{"id":"7308072010","district_id":"7308072","postal_code":"92773","name":"Data"},{"id":"7308072011","district_id":"7308072","postal_code":"92773","name":"Batu Gading"},{"id":"7308072012","district_id":"7308072","postal_code":"92773","name":"Cege"},{"id":"7308072013","district_id":"7308072","postal_code":"92773","name":"Kadai"},{"id":"7308072014","district_id":"7308072","postal_code":"92773","name":"Lakukang"},{"id":"7308072015","district_id":"7308072","postal_code":"92773","name":"Pattiro"},{"id":"7308072016","district_id":"7308072","postal_code":"92773","name":"Lapasa"},{"id":"7308072017","district_id":"7308072","postal_code":"92773","name":"Karella"},{"id":"7308072018","district_id":"7308072","postal_code":"92773","name":"Lappa Upang"}]