[{"id":"7308062002","district_id":"7308062","postal_code":"92766","name":"Tompo Bulu"},{"id":"7308062003","district_id":"7308062","postal_code":"92766","name":"Tappale"},{"id":"7308062004","district_id":"7308062","postal_code":"92766","name":"Polewali"},{"id":"7308062005","district_id":"7308062","postal_code":"92766","name":"Pitumpidange"},{"id":"7308062006","district_id":"7308062","postal_code":"92766","name":"Bune"},{"id":"7308062007","district_id":"7308062","postal_code":"92766","name":"Swadaya"},{"id":"7308062008","district_id":"7308062","postal_code":"92766","name":"Binuang"},{"id":"7308062009","district_id":"7308062","postal_code":"92766","name":"Mallinrung"},{"id":"7308062011","district_id":"7308062","postal_code":"92766","name":"Baringeng"},{"id":"7308062012","district_id":"7308062","postal_code":"92766","name":"Mario"},{"id":"7308062013","district_id":"7308062","postal_code":"92766","name":"Wanuawaru"},{"id":"7308062014","district_id":"7308062","postal_code":"92766","name":"Mattirowalie"},{"id":"7308062015","district_id":"7308062","postal_code":"92766","name":"Poleonro"},{"id":"7308062016","district_id":"7308062","postal_code":"92766","name":"Matirro Bulu"},{"id":"7308062017","district_id":"7308062","postal_code":"92766","name":"Matirrodeceng"},{"id":"7308062018","district_id":"7308062","postal_code":"92766","name":"Suwa"},{"id":"7308062019","district_id":"7308062","postal_code":"92766","name":"Laburasseng"},{"id":"7308062020","district_id":"7308062","postal_code":"92766","name":"Ponre Ponre"}]