[{"id":"7313012004","district_id":"7313012","postal_code":"90961","name":"Liu"},{"id":"7313012005","district_id":"7313012","postal_code":"90961","name":"Ugi"},{"id":"7313012006","district_id":"7313012","postal_code":"90961","name":"Ujungpero"},{"id":"7313012007","district_id":"7313012","postal_code":"90961","name":"Wage"},{"id":"7313012008","district_id":"7313012","postal_code":"90961","name":"Worongnge"},{"id":"7313012009","district_id":"7313012","postal_code":"90961","name":"Salotengnga"},{"id":"7313012010","district_id":"7313012","postal_code":"90961","name":"Pallimae"},{"id":"7313012011","district_id":"7313012","postal_code":"90961","name":"Mallusesalo"},{"id":"7313012012","district_id":"7313012","postal_code":"90961","name":"Pasaka"},{"id":"7313012013","district_id":"7313012","postal_code":"90961","name":"Tadangpalie"},{"id":"7313012014","district_id":"7313012","postal_code":"90961","name":"Benteng Lompoe"},{"id":"7313012015","district_id":"7313012","postal_code":"90961","name":"Bila"}]