[{"id":"7316012002","district_id":"7316012","postal_code":"91760","name":"Pattondon Salu"},{"id":"7316012003","district_id":"7316012","postal_code":"91760","name":"Tuncung"},{"id":"7316012004","district_id":"7316012","postal_code":"91760","name":"Pasang"},{"id":"7316012005","district_id":"7316012","postal_code":"91760","name":"Salodua"},{"id":"7316012006","district_id":"7316012","postal_code":"91760","name":"Batu Mila"},{"id":"7316012007","district_id":"7316012","postal_code":"91760","name":"Puncak Harapan"},{"id":"7316012008","district_id":"7316012","postal_code":"91760","name":"Palakka"},{"id":"7316012009","district_id":"7316012","postal_code":"91760","name":"Tapong"},{"id":"7316012010","district_id":"7316012","postal_code":"91760","name":"Mangkawani"},{"id":"7316012011","district_id":"7316012","postal_code":"91760","name":"Botto Malangga"},{"id":"7316012012","district_id":"7316012","postal_code":"91760","name":"Boiya"},{"id":"7316012013","district_id":"7316012","postal_code":"91760","name":"Matajang"},{"id":"7316012014","district_id":"7316012","postal_code":"91760","name":"Baringin"},{"id":"7316012015","district_id":"7316012","postal_code":"91760","name":"Lebani"},{"id":"7316012016","district_id":"7316012","postal_code":"91760","name":"Limbuang"},{"id":"7316012017","district_id":"7316012","postal_code":"91760","name":"Paladang"},{"id":"7316012018","district_id":"7316012","postal_code":"91760","name":"Pariwang"},{"id":"7316012019","district_id":"7316012","postal_code":"91760","name":"Kaluppang"},{"id":"7316012020","district_id":"7316012","postal_code":"91760","name":"Ongko"},{"id":"7316012021","district_id":"7316012","postal_code":"91760","name":"Tanete"},{"id":"7316012022","district_id":"7316012","postal_code":"91760","name":"Labuku"}]