[{"id":"7316042003","district_id":"7316042","postal_code":"91752","name":"Bamba Puang"},{"id":"7316042005","district_id":"7316042","postal_code":"91752","name":"Siambo"},{"id":"7316042006","district_id":"7316042","postal_code":"91752","name":"Mampu"},{"id":"7316042007","district_id":"7316042","postal_code":"91752","name":"Pekalobean"},{"id":"7316042008","district_id":"7316042","postal_code":"91752","name":"Singki"},{"id":"7316042009","district_id":"7316042","postal_code":"91752","name":"Salu Dewata"},{"id":"7316042010","district_id":"7316042","postal_code":"91752","name":"Tindalun"},{"id":"7316042011","district_id":"7316042","postal_code":"91752","name":"Bubun Lamba"},{"id":"7316042012","district_id":"7316042","postal_code":"91752","name":"Tampo"},{"id":"7316042013","district_id":"7316042","postal_code":"91752","name":"Batunoni"},{"id":"7316042014","district_id":"7316042","postal_code":"91752","name":"Saruran"},{"id":"7316042015","district_id":"7316042","postal_code":"91752","name":"Mendatte"}]