[{"id":"7317212001","district_id":"7317212","postal_code":"91989","name":"Jenne Maeja"},{"id":"7317212002","district_id":"7317212","postal_code":"91989","name":"Bakti"},{"id":"7317212003","district_id":"7317212","postal_code":"91989","name":"Buntu Karya"},{"id":"7317212004","district_id":"7317212","postal_code":"91989","name":"Olang"},{"id":"7317212006","district_id":"7317212","postal_code":"91989","name":"Bassiang"},{"id":"7317212007","district_id":"7317212","postal_code":"91989","name":"Paccerakkang"},{"id":"7317212008","district_id":"7317212","postal_code":"91989","name":"Lampuara"},{"id":"7317212009","district_id":"7317212","postal_code":"91989","name":"Tobalo"},{"id":"7317212010","district_id":"7317212","postal_code":"91989","name":"Tobia"},{"id":"7317212011","district_id":"7317212","postal_code":"91989","name":"Bassiang Timur"},{"id":"7317212012","district_id":"7317212","postal_code":"91989","name":"Pattedong Selatan"},{"id":"7317212013","district_id":"7317212","postal_code":"91989","name":"Tarramatekkeng"}]