[{"id":"7322062001","district_id":"7322062","postal_code":"92963","name":"Lampuawa"},{"id":"7322062002","district_id":"7322062","postal_code":"92963","name":"Katulungan"},{"id":"7322062003","district_id":"7322062","postal_code":"92963","name":"Salulemo"},{"id":"7322062004","district_id":"7322062","postal_code":"92963","name":"Kaluku"},{"id":"7322062005","district_id":"7322062","postal_code":"92963","name":"Sukamaju"},{"id":"7322062006","district_id":"7322062","postal_code":"92963","name":"Sukadamai"},{"id":"7322062010","district_id":"7322062","postal_code":"92963","name":"Tamboke"},{"id":"7322062013","district_id":"7322062","postal_code":"92963","name":"Tolangi"},{"id":"7322062014","district_id":"7322062","postal_code":"92963","name":"Tulung Indah"},{"id":"7322062019","district_id":"7322062","postal_code":"92963","name":"Minanga Tallu"},{"id":"7322062020","district_id":"7322062","postal_code":"92963","name":"Wonosari"},{"id":"7322062021","district_id":"7322062","postal_code":"92963","name":"Mulyasari"},{"id":"7322062022","district_id":"7322062","postal_code":"92963","name":"Saptamarga"},{"id":"7322062024","district_id":"7322062","postal_code":"92963","name":"Tulungsari"}]