[{"id":"7402052006","district_id":"7402052","postal_code":"93458","name":"Andepali"},{"id":"7402052008","district_id":"7402052","postal_code":"93458","name":"Andaroa"},{"id":"7402052009","district_id":"7402052","postal_code":"93458","name":"Puuloro"},{"id":"7402052012","district_id":"7402052","postal_code":"93458","name":"Andadowi"},{"id":"7402052027","district_id":"7402052","postal_code":"93458","name":"Totombe Jaya"},{"id":"7402052028","district_id":"7402052","postal_code":"93458","name":"Boa Boa"},{"id":"7402052030","district_id":"7402052","postal_code":"93458","name":"Wawolimbue"},{"id":"7402052036","district_id":"7402052","postal_code":"93458","name":"Baeni"},{"id":"7402052038","district_id":"7402052","postal_code":"93458","name":"Polua"},{"id":"7402052041","district_id":"7402052","postal_code":"93458","name":"Pohara"},{"id":"7402052048","district_id":"7402052","postal_code":"93458","name":"Bondoala"},{"id":"7402052052","district_id":"7402052","postal_code":"93458","name":"Kongga Mea"},{"id":"7402052057","district_id":"7402052","postal_code":"93458","name":"Wawo Andaroa"}]