[{"id":"7402031001","district_id":"7402031","postal_code":"93462","name":"Wawotobi"},{"id":"7402031002","district_id":"7402031","postal_code":"93462","name":"Inalahi"},{"id":"7402031006","district_id":"7402031","postal_code":"93462","name":"Lalosabila"},{"id":"7402031007","district_id":"7402031","postal_code":"93462","name":"Hopa-hopa"},{"id":"7402031008","district_id":"7402031","postal_code":"93462","name":"Kulahi"},{"id":"7402031009","district_id":"7402031","postal_code":"93462","name":"Ranoeya"},{"id":"7402031010","district_id":"7402031","postal_code":"93462","name":"Palarahi"},{"id":"7402031011","district_id":"7402031","postal_code":"93462","name":"Kasupute"},{"id":"7402031019","district_id":"7402031","postal_code":"93462","name":"Nohu - Nohu"},{"id":"7402031020","district_id":"7402031","postal_code":"93462","name":"Inolobu"},{"id":"7402031027","district_id":"7402031","postal_code":"93462","name":"Bose-bose"},{"id":"7402031028","district_id":"7402031","postal_code":"93462","name":"Puusinauwi"}]