[{"id":"7402172001","district_id":"7402172","postal_code":"93464","name":"Puriala"},{"id":"7402172003","district_id":"7402172","postal_code":"93464","name":"Sonai"},{"id":"7402172004","district_id":"7402172","postal_code":"93464","name":"Lalonggatu"},{"id":"7402172005","district_id":"7402172","postal_code":"93411","name":"Puanaha"},{"id":"7402172006","district_id":"7402172","postal_code":"93464","name":"Wonua Morome"},{"id":"7402172007","district_id":"7402172","postal_code":"93464","name":"Ahuawali"},{"id":"7402172008","district_id":"7402172","postal_code":"93464","name":"Watusa"},{"id":"7402172009","district_id":"7402172","postal_code":"93464","name":"Puusangi"},{"id":"7402172010","district_id":"7402172","postal_code":"93464","name":"Mokaleleo"},{"id":"7402172011","district_id":"7402172","postal_code":"93464","name":"Unggulino"},{"id":"7402172012","district_id":"7402172","postal_code":"93464","name":"Tetewatu"},{"id":"7402172013","district_id":"7402172","postal_code":"93464","name":"Tetehaka"},{"id":"7402172014","district_id":"7402172","postal_code":"93464","name":"Puuhopa"},{"id":"7402172015","district_id":"7402172","postal_code":"93464","name":"Laloonaha"},{"id":"7402172016","district_id":"7402172","postal_code":"93464","name":"Wawosanggula"}]