[{"id":"7404112002","district_id":"7404112","postal_code":"93752","name":"Waangu-angu"},{"id":"7404112003","district_id":"7404112","postal_code":"93752","name":"Warinta"},{"id":"7404112004","district_id":"7404112","postal_code":"93752","name":"Lapodi"},{"id":"7404112007","district_id":"7404112","postal_code":"93752","name":"Kancinaa"},{"id":"7404112008","district_id":"7404112","postal_code":"93752","name":"Winning"},{"id":"7404112017","district_id":"7404112","postal_code":"93752","name":"Holimombo Jaya"},{"id":"7404112018","district_id":"7404112","postal_code":"93752","name":"Kondowa"},{"id":"7404112019","district_id":"7404112","postal_code":"93752","name":"Dongkala"},{"id":"7404112024","district_id":"7404112","postal_code":"93752","name":"Laburunci"},{"id":"7404112025","district_id":"7404112","postal_code":"93752","name":"Banabungi"},{"id":"7404112029","district_id":"7404112","postal_code":"93752","name":"Kabawakole"},{"id":"7404112030","district_id":"7404112","postal_code":"93752","name":"Mantowu"},{"id":"7404112031","district_id":"7404112","postal_code":"93752","name":"Kaongkeongkea"}]