[{"id":"7405132001","district_id":"7405132","postal_code":"93877","name":"Lamara"},{"id":"7405132002","district_id":"7405132","postal_code":"93877","name":"Puuosu"},{"id":"7405132003","district_id":"7405132","postal_code":"93877","name":"Benua Utama"},{"id":"7405132004","district_id":"7405132","postal_code":"93877","name":"Horodopi"},{"id":"7405132005","district_id":"7405132","postal_code":"93877","name":"Benua"},{"id":"7405132006","district_id":"7405132","postal_code":"93877","name":"Palowewu"},{"id":"7405132007","district_id":"7405132","postal_code":"93877","name":"Punggawukawu"},{"id":"7405132008","district_id":"7405132","postal_code":"93877","name":"Uelawa"},{"id":"7405132009","district_id":"7405132","postal_code":"93877","name":"Tetehaka"},{"id":"7405132010","district_id":"7405132","postal_code":"93877","name":"Awalo"},{"id":"7405132011","district_id":"7405132","postal_code":"93877","name":"Kosambi"},{"id":"7405132012","district_id":"7405132","postal_code":"93877","name":"Puuwehuko"}]