[{"id":"7405072002","district_id":"7405072","postal_code":"93874","name":"Puosu Jaya"},{"id":"7405072003","district_id":"7405072","postal_code":"93874","name":"Lamomea"},{"id":"7405072004","district_id":"7405072","postal_code":"93874","name":"Alebo"},{"id":"7405072005","district_id":"7405072","postal_code":"93874","name":"Morome"},{"id":"7405072006","district_id":"7405072","postal_code":"93874","name":"Lebo Jaya"},{"id":"7405072007","district_id":"7405072","postal_code":"93874","name":"Lambusa"},{"id":"7405072008","district_id":"7405072","postal_code":"93874","name":"Pambulsa Jaya"},{"id":"7405072009","district_id":"7405072","postal_code":"93874","name":"Ambololi"},{"id":"7405072010","district_id":"7405072","postal_code":"93874","name":"Tanea"},{"id":"7405072011","district_id":"7405072","postal_code":"93874","name":"Masagena"},{"id":"7405072012","district_id":"7405072","postal_code":"93874","name":"Cialam Jaya"},{"id":"7405072013","district_id":"7405072","postal_code":"93874","name":"Wonua"},{"id":"7405072014","district_id":"7405072","postal_code":"93874","name":"Lawoila"},{"id":"7405072019","district_id":"7405072","postal_code":"93874","name":"Lalowiu"},{"id":"7405072020","district_id":"7405072","postal_code":"93874","name":"Amohalo"},{"id":"7405072021","district_id":"7405072","postal_code":"93874","name":"Ranowila"},{"id":"7405072024","district_id":"7405072","postal_code":"93874","name":"Konda Satu"}]