[{"id":"7405012003","district_id":"7405012","postal_code":"93886","name":"Lapoa"},{"id":"7405012006","district_id":"7405012","postal_code":"93886","name":"Asingi"},{"id":"7405012007","district_id":"7405012","postal_code":"93886","name":"Watu Melewe"},{"id":"7405012009","district_id":"7405012","postal_code":"93886","name":"Wadonggo"},{"id":"7405012010","district_id":"7405012","postal_code":"93886","name":"Bungin Permai"},{"id":"7405012014","district_id":"7405012","postal_code":"93886","name":"Palotawo"},{"id":"7405012019","district_id":"7405012","postal_code":"93886","name":"Lalonggasu"},{"id":"7405012020","district_id":"7405012","postal_code":"93886","name":"Moolo Indah"},{"id":"7405012021","district_id":"7405012","postal_code":"93886","name":"Telutu Jaya"},{"id":"7405012023","district_id":"7405012","postal_code":"93886","name":"Torokeku"},{"id":"7405012024","district_id":"7405012","postal_code":"93886","name":"Lapulu"},{"id":"7405012027","district_id":"7405012","postal_code":"93886","name":"Roraya"},{"id":"7405012029","district_id":"7405012","postal_code":"93886","name":"Lanowulu"},{"id":"7405012030","district_id":"7405012","postal_code":"93886","name":"Lalo Watu"},{"id":"7405012032","district_id":"7405012","postal_code":"93886","name":"Tatangge"},{"id":"7405012033","district_id":"7405012","postal_code":"93886","name":"Wundumbolo"},{"id":"7405012034","district_id":"7405012","postal_code":"93886","name":"Panggoosi"},{"id":"7405012035","district_id":"7405012","postal_code":"93886","name":"Bomba-bomba"},{"id":"7405012036","district_id":"7405012","postal_code":"93886","name":"Akuni"},{"id":"7405012037","district_id":"7405012","postal_code":"93886","name":"Lasuai"},{"id":"7405012038","district_id":"7405012","postal_code":"93886","name":"Matambawi"},{"id":"7405012039","district_id":"7405012","postal_code":"93886","name":"Matandahi"}]