[{"id":"7407022001","district_id":"7407022","postal_code":"93792","name":"Sombano"},{"id":"7407022003","district_id":"7407022","postal_code":"93792","name":"Samabahari"},{"id":"7407022006","district_id":"7407022","postal_code":"93792","name":"Ollo"},{"id":"7407022007","district_id":"7407022","postal_code":"93792","name":"Haruo"},{"id":"7407022016","district_id":"7407022","postal_code":"93792","name":"Balasuna"},{"id":"7407022018","district_id":"7407022","postal_code":"93792","name":"Mantigola Makmur"},{"id":"7407022019","district_id":"7407022","postal_code":"93792","name":"Balasuna Selatan"},{"id":"7407022020","district_id":"7407022","postal_code":"93792","name":"Ollo Selatan"},{"id":"7407022021","district_id":"7407022","postal_code":"93792","name":"Waduri"},{"id":"7407022022","district_id":"7407022","postal_code":"93792","name":"Lewuto"},{"id":"7407022023","district_id":"7407022","postal_code":"93792","name":"Ambeua Raya"},{"id":"7407022024","district_id":"7407022","postal_code":"93792","name":"Kalimas"}]