[{"id":"7410032001","district_id":"7410032","postal_code":"93673","name":"Gunung Sari"},{"id":"7410032002","district_id":"7410032","postal_code":"93673","name":"Ronta"},{"id":"7410032003","district_id":"7410032","postal_code":"93673","name":"Waode Angkalo"},{"id":"7410032004","district_id":"7410032","postal_code":"93673","name":"Langere"},{"id":"7410032005","district_id":"7410032","postal_code":"93673","name":"Koepisino"},{"id":"7410032007","district_id":"7410032","postal_code":"93673","name":"Waode Kalowo"},{"id":"7410032008","district_id":"7410032","postal_code":"93673","name":"Laano Ipi"},{"id":"7410032009","district_id":"7410032","postal_code":"93673","name":"Eensumala"},{"id":"7410032013","district_id":"7410032","postal_code":"93673","name":"Tatombuli"},{"id":"7410032014","district_id":"7410032","postal_code":"93673","name":"Rante Gola"},{"id":"7410032015","district_id":"7410032","postal_code":"93673","name":"Ngapaea"},{"id":"7410032016","district_id":"7410032","postal_code":"93673","name":"Koboruno"},{"id":"7410032017","district_id":"7410032","postal_code":"93673","name":"Damai Laborona"}]