[{"id":"7410012001","district_id":"7410012","postal_code":"93672","name":"Tri Wacu-wacu"},{"id":"7410012002","district_id":"7410012","postal_code":"93672","name":"Waculaea"},{"id":"7410012003","district_id":"7410012","postal_code":"93672","name":"Eelahaji"},{"id":"7410012004","district_id":"7410012","postal_code":"93672","name":"Tomoahi"},{"id":"7410012005","district_id":"7410012","postal_code":"93672","name":"Kalibu"},{"id":"7410012006","district_id":"7410012","postal_code":"93672","name":"Jampaka"},{"id":"7410012007","district_id":"7410012","postal_code":"93672","name":"Loji"},{"id":"7410012011","district_id":"7410012","postal_code":"93672","name":"Linsowu"},{"id":"7410012013","district_id":"7410012","postal_code":"93672","name":"Rombo"},{"id":"7410012018","district_id":"7410012","postal_code":"93672","name":"Wasalabose"},{"id":"7410012019","district_id":"7410012","postal_code":"93672","name":"Malalanda"},{"id":"7410012020","district_id":"7410012","postal_code":"93672","name":"Lemo Ea"},{"id":"7410012021","district_id":"7410012","postal_code":"93672","name":"Lantagi"},{"id":"7410012022","district_id":"7410012","postal_code":"93672","name":"Laangke"},{"id":"7410012023","district_id":"7410012","postal_code":"93672","name":"Kadacua"},{"id":"7410012024","district_id":"7410012","postal_code":"93672","name":"Banu-banua Jaya"}]