[{"id":"7411052001","district_id":"7411052","postal_code":"93578","name":"Wonuambuteo"},{"id":"7411052003","district_id":"7411052","postal_code":"93578","name":"Mokupa"},{"id":"7411052005","district_id":"7411052","postal_code":"93578","name":"Penanggoosi"},{"id":"7411052007","district_id":"7411052","postal_code":"93578","name":"Lowa"},{"id":"7411052008","district_id":"7411052","postal_code":"93578","name":"Atolanu"},{"id":"7411052009","district_id":"7411052","postal_code":"93578","name":"Lere Jaya"},{"id":"7411052010","district_id":"7411052","postal_code":"93578","name":"Bou"},{"id":"7411052012","district_id":"7411052","postal_code":"93578","name":"Lambandia"},{"id":"7411052013","district_id":"7411052","postal_code":"93578","name":"Inotu"},{"id":"7411052018","district_id":"7411052","postal_code":"93578","name":"Lalolere"},{"id":"7411052019","district_id":"7411052","postal_code":"93578","name":"Pomborea"},{"id":"7411052021","district_id":"7411052","postal_code":"93578","name":"Penanggootu"},{"id":"7411052022","district_id":"7411052","postal_code":"93578","name":"Mondoke"},{"id":"7411052026","district_id":"7411052","postal_code":"93578","name":"Onemanu"}]