[{"id":"7412022001","district_id":"7412022","postal_code":"93398","name":"Waworope"},{"id":"7412022002","district_id":"7412022","postal_code":"93398","name":"Dongkalaea"},{"id":"7412022003","district_id":"7412022","postal_code":"93398","name":"Labeau"},{"id":"7412022004","district_id":"7412022","postal_code":"93398","name":"Tambaone"},{"id":"7412022005","district_id":"7412022","postal_code":"93398","name":"Palingi"},{"id":"7412022006","district_id":"7412022","postal_code":"93398","name":"Mawa"},{"id":"7412022007","district_id":"7412022","postal_code":"93398","name":"Mata Buranga"},{"id":"7412022009","district_id":"7412022","postal_code":"93398","name":"Tambaone Utama"},{"id":"7412022010","district_id":"7412022","postal_code":"93398","name":"Wawoea"},{"id":"7412022011","district_id":"7412022","postal_code":"93398","name":"Palingi Barat"},{"id":"7412022012","district_id":"7412022","postal_code":"93398","name":"Tumburano"},{"id":"7412022013","district_id":"7412022","postal_code":"93398","name":"Mataiwoi"},{"id":"7412022014","district_id":"7412022","postal_code":"93398","name":"Labisa"},{"id":"7412022015","district_id":"7412022","postal_code":"93398","name":"Mata Bubu"},{"id":"7412022016","district_id":"7412022","postal_code":"93398","name":"Wawobeau"},{"id":"7412022017","district_id":"7412022","postal_code":"93398","name":"Tapum Batu"},{"id":"7412022018","district_id":"7412022","postal_code":"93398","name":"Palingi Timur"},{"id":"7412022019","district_id":"7412022","postal_code":"93398","name":"Tongalere"},{"id":"7412022020","district_id":"7412022","postal_code":"93398","name":"Tepolawa"},{"id":"7412022021","district_id":"7412022","postal_code":"93398","name":"Sawa Indah"}]