[{"id":"7503062001","district_id":"7503062","postal_code":"96554","name":"Bongoime"},{"id":"7503062002","district_id":"7503062","postal_code":"96554","name":"Bongopini"},{"id":"7503062003","district_id":"7503062","postal_code":"96554","name":"Toto Utara"},{"id":"7503062004","district_id":"7503062","postal_code":"96554","name":"Moutong"},{"id":"7503062005","district_id":"7503062","postal_code":"96554","name":"Tunggulo"},{"id":"7503062006","district_id":"7503062","postal_code":"96554","name":"Lonuo"},{"id":"7503062007","district_id":"7503062","postal_code":"96554","name":"Tamboo"},{"id":"7503062008","district_id":"7503062","postal_code":"96554","name":"Iloheluma"},{"id":"7503062009","district_id":"7503062","postal_code":"96554","name":"Motilango"},{"id":"7503062010","district_id":"7503062","postal_code":"96554","name":"Butu"},{"id":"7503062011","district_id":"7503062","postal_code":"96554","name":"Permata"},{"id":"7503062012","district_id":"7503062","postal_code":"96554","name":"Tunggulo Selatan"},{"id":"7503062013","district_id":"7503062","postal_code":"96554","name":"Bongohulawa"},{"id":"7503062014","district_id":"7503062","postal_code":"96554","name":"Berlian"}]