[{"id":"7602112001","district_id":"7602112","postal_code":"91564","name":"Tommo"},{"id":"7602112002","district_id":"7602112","postal_code":"91564","name":"Campaloga"},{"id":"7602112003","district_id":"7602112","postal_code":"91564","name":"Buana Sakti"},{"id":"7602112004","district_id":"7602112","postal_code":"91564","name":"Tamemongga"},{"id":"7602112005","district_id":"7602112","postal_code":"91564","name":"Tamejarra"},{"id":"7602112006","district_id":"7602112","postal_code":"91564","name":"Rantemario"},{"id":"7602112007","district_id":"7602112","postal_code":"91564","name":"Malino"},{"id":"7602112008","district_id":"7602112","postal_code":"91564","name":"Kakullasang"},{"id":"7602112009","district_id":"7602112","postal_code":"91564","name":"Leling"},{"id":"7602112010","district_id":"7602112","postal_code":"91564","name":"Kalepu"},{"id":"7602112011","district_id":"7602112","postal_code":"91564","name":"Sandana"},{"id":"7602112012","district_id":"7602112","postal_code":"91564","name":"Leling Barat"},{"id":"7602112013","district_id":"7602112","postal_code":"91564","name":"Leling Utara"},{"id":"7602112014","district_id":"7602112","postal_code":"91564","name":"Saludengen"}]