[{"id":"7603042003","district_id":"7603042","postal_code":"91369","name":"Manipi"},{"id":"7603042005","district_id":"7603042","postal_code":"91369","name":"Mamullu"},{"id":"7603042006","district_id":"7603042","postal_code":"91369","name":"Sapan"},{"id":"7603042009","district_id":"7603042","postal_code":"91369","name":"Datubaringan"},{"id":"7603042010","district_id":"7603042","postal_code":"91369","name":"Panura"},{"id":"7603042011","district_id":"7603042","postal_code":"91369","name":"Tallang Bulawan"},{"id":"7603042012","district_id":"7603042","postal_code":"91369","name":"Karaka"},{"id":"7603042013","district_id":"7603042","postal_code":"91369","name":"Ulusalu"},{"id":"7603042014","district_id":"7603042","postal_code":"91369","name":"Weri"},{"id":"7603042015","district_id":"7603042","postal_code":"91369","name":"Salutambun"},{"id":"7603042016","district_id":"7603042","postal_code":"91369","name":"Saloan"},{"id":"7603042017","district_id":"7603042","postal_code":"91369","name":"Ulusalu Indah"}]