[{"id":"7604022002","district_id":"7604022","postal_code":"91357","name":"Laliko"},{"id":"7604022003","district_id":"7604022","postal_code":"91357","name":"Bonde"},{"id":"7604022004","district_id":"7604022","postal_code":"91357","name":"Katumbangan Lemo"},{"id":"7604022005","district_id":"7604022","postal_code":"91357","name":"Panyampa"},{"id":"7604022006","district_id":"7604022","postal_code":"91357","name":"Suruang"},{"id":"7604022007","district_id":"7604022","postal_code":"91357","name":"Lampoko"},{"id":"7604022008","district_id":"7604022","postal_code":"91357","name":"Katumbangan"},{"id":"7604022009","district_id":"7604022","postal_code":"91357","name":"Lapeo"},{"id":"7604022010","district_id":"7604022","postal_code":"91357","name":"Parappe"},{"id":"7604022011","district_id":"7604022","postal_code":"91357","name":"Ongko"},{"id":"7604022012","district_id":"7604022","postal_code":"91357","name":"Kenje"},{"id":"7604022013","district_id":"7604022","postal_code":"91357","name":"Sumarrang"},{"id":"7604022014","district_id":"7604022","postal_code":"91357","name":"Botto"},{"id":"7604022015","district_id":"7604022","postal_code":"91357","name":"Gattungan"},{"id":"7604022016","district_id":"7604022","postal_code":"91357","name":"Padang Timur"},{"id":"7604022017","district_id":"7604022","postal_code":"91357","name":"Padang"},{"id":"7604022018","district_id":"7604022","postal_code":"91357","name":"Lagi-agi"}]