[{"id":"7604032002","district_id":"7604032","postal_code":"91342","name":"Sidorejo"},{"id":"7604032003","district_id":"7604032","postal_code":"91342","name":"Sumberejo"},{"id":"7604032004","district_id":"7604032","postal_code":"91342","name":"Bumiayu"},{"id":"7604032005","district_id":"7604032","postal_code":"91342","name":"Kebunsari"},{"id":"7604032006","district_id":"7604032","postal_code":"91342","name":"Banua Baru"},{"id":"7604032007","district_id":"7604032","postal_code":"91342","name":"Nepo"},{"id":"7604032008","district_id":"7604032","postal_code":"91342","name":"Sugihwaras"},{"id":"7604032009","district_id":"7604032","postal_code":"91342","name":"Campurjo"},{"id":"7604032010","district_id":"7604032","postal_code":"91342","name":"Bumimulyo"},{"id":"7604032011","district_id":"7604032","postal_code":"91342","name":"Tumpiling"},{"id":"7604032012","district_id":"7604032","postal_code":"91342","name":"Bakka-bakka"},{"id":"7604032013","district_id":"7604032","postal_code":"91342","name":"Arjo Sari"},{"id":"7604032014","district_id":"7604032","postal_code":"91342","name":"Galeson"}]