[{"id":"8107042001","district_id":"8107042","postal_code":"97660","name":"Marlasi"},{"id":"8107042002","district_id":"8107042","postal_code":"97660","name":"Kolamar"},{"id":"8107042003","district_id":"8107042","postal_code":"97660","name":"Kabufin"},{"id":"8107042004","district_id":"8107042","postal_code":"97660","name":"Tasinwaha"},{"id":"8107042005","district_id":"8107042","postal_code":"97660","name":"Foket"},{"id":"8107042006","district_id":"8107042","postal_code":"97660","name":"Kaibolafin"},{"id":"8107042007","district_id":"8107042","postal_code":"97660","name":"Wahangula-ngula"},{"id":"8107042008","district_id":"8107042","postal_code":"97660","name":"Wahayum"},{"id":"8107042009","district_id":"8107042","postal_code":"97660","name":"Warialau"},{"id":"8107042010","district_id":"8107042","postal_code":"97660","name":"Jerwatu"},{"id":"8107042013","district_id":"8107042","postal_code":"97660","name":"Selmona"},{"id":"8107042014","district_id":"8107042","postal_code":"97660","name":"Mesidang"}]