[{"id":"8201052001","district_id":"8201052","postal_code":"97751","name":"Sidangoli Gam"},{"id":"8201052002","district_id":"8201052","postal_code":"97751","name":"Sidongoli Dehe"},{"id":"8201052003","district_id":"8201052","postal_code":"97751","name":"Domato"},{"id":"8201052004","district_id":"8201052","postal_code":"97751","name":"Tataleka"},{"id":"8201052005","district_id":"8201052","postal_code":"97751","name":"Gamlenge"},{"id":"8201052006","district_id":"8201052","postal_code":"97751","name":"Akejailolo"},{"id":"8201052007","district_id":"8201052","postal_code":"97751","name":"Biamaahi"},{"id":"8201052008","district_id":"8201052","postal_code":"97751","name":"Tuguraci"},{"id":"8201052009","district_id":"8201052","postal_code":"97751","name":"Akeara"},{"id":"8201052010","district_id":"8201052","postal_code":"97751","name":"Akelaha"},{"id":"8201052011","district_id":"8201052","postal_code":"97751","name":"Dodinga"},{"id":"8201052012","district_id":"8201052","postal_code":"97751","name":"Tewe"},{"id":"8201052013","district_id":"8201052","postal_code":"97751","name":"Toniku"},{"id":"8201052014","district_id":"8201052","postal_code":"97751","name":"Rioribati"},{"id":"8201052021","district_id":"8201052","postal_code":"97751","name":"Taba Damai (Db)"},{"id":"8201052022","district_id":"8201052","postal_code":"97751","name":"Moiso"},{"id":"8201052023","district_id":"8201052","postal_code":"97751","name":"Braha"},{"id":"8201052024","district_id":"8201052","postal_code":"97751","name":"Bangkit Rahmat"},{"id":"8201052025","district_id":"8201052","postal_code":"97751","name":"Bobane Dano"},{"id":"8201052026","district_id":"8201052","postal_code":"97751","name":"Suka Damai"},{"id":"8201052027","district_id":"8201052","postal_code":"97751","name":"Hijrah"},{"id":"8201052028","district_id":"8201052","postal_code":"97751","name":"Ratem"}]