[{"id":"8203152001","district_id":"8203152","postal_code":"97769","name":"Limau"},{"id":"8203152002","district_id":"8203152","postal_code":"97769","name":"Lalonga"},{"id":"8203152003","district_id":"8203152","postal_code":"97769","name":"Bobisingo"},{"id":"8203152004","district_id":"8203152","postal_code":"97769","name":"Salimuli"},{"id":"8203152005","district_id":"8203152","postal_code":"97769","name":"Tutumaloleo"},{"id":"8203152006","district_id":"8203152","postal_code":"97769","name":"Saluta"},{"id":"8203152007","district_id":"8203152","postal_code":"97769","name":"Jere"},{"id":"8203152008","district_id":"8203152","postal_code":"97769","name":"Dodowo"},{"id":"8203152009","district_id":"8203152","postal_code":"97769","name":"Togasa"},{"id":"8203152010","district_id":"8203152","postal_code":"97769","name":"Beringin Jaya"},{"id":"8203152011","district_id":"8203152","postal_code":"97769","name":"Pelita"},{"id":"8203152012","district_id":"8203152","postal_code":"97769","name":"Jere Tua"}]