[{"id":"8207042001","district_id":"8207042","postal_code":"97773","name":"Bere-bere"},{"id":"8207042002","district_id":"8207042","postal_code":"97773","name":"Sakita"},{"id":"8207042003","district_id":"8207042","postal_code":"97773","name":"Tawakali"},{"id":"8207042004","district_id":"8207042","postal_code":"97773","name":"Yao"},{"id":"8207042005","district_id":"8207042","postal_code":"97773","name":"Bido"},{"id":"8207042006","district_id":"8207042","postal_code":"97773","name":"Gorua"},{"id":"8207042007","district_id":"8207042","postal_code":"97773","name":"Korago"},{"id":"8207042008","district_id":"8207042","postal_code":"97773","name":"Lusuo"},{"id":"8207042009","district_id":"8207042","postal_code":"97773","name":"Kenari"},{"id":"8207042010","district_id":"8207042","postal_code":"97773","name":"Loleo Jaya"},{"id":"8207042011","district_id":"8207042","postal_code":"97773","name":"Maba"},{"id":"8207042012","district_id":"8207042","postal_code":"97773","name":"Tanjung Saleh"},{"id":"8207042013","district_id":"8207042","postal_code":"97773","name":"Goa Hira"},{"id":"8207042014","district_id":"8207042","postal_code":"97773","name":"Gorua Selatan"}]