[{"id":"8208012001","district_id":"8208012","postal_code":"97794","name":"Bobong"},{"id":"8208012002","district_id":"8208012","postal_code":"97794","name":"Talo"},{"id":"8208012003","district_id":"8208012","postal_code":"97794","name":"Kawalo"},{"id":"8208012004","district_id":"8208012","postal_code":"97794","name":"Limbo"},{"id":"8208012005","district_id":"8208012","postal_code":"97794","name":"Meranti Jaya"},{"id":"8208012006","district_id":"8208012","postal_code":"97794","name":"Kramat"},{"id":"8208012007","district_id":"8208012","postal_code":"97794","name":"Holbota"},{"id":"8208012008","district_id":"8208012","postal_code":"97794","name":"Pancoran"},{"id":"8208012009","district_id":"8208012","postal_code":"97794","name":"Wayo"},{"id":"8208012010","district_id":"8208012","postal_code":"97794","name":"Loho Bubba"},{"id":"8208012011","district_id":"8208012","postal_code":"97794","name":"Kilong"},{"id":"8208012012","district_id":"8208012","postal_code":"97794","name":"Ratahaya"},{"id":"8208012013","district_id":"8208012","postal_code":"97794","name":"Woyo"}]