[{"id":"9108212002","district_id":"9108212","postal_code":"98733","name":"Pasir Putih"},{"id":"9108212004","district_id":"9108212","postal_code":"98733","name":"Geida"},{"id":"9108212005","district_id":"9108212","postal_code":"98733","name":"Widimeida"},{"id":"9108212006","district_id":"9108212","postal_code":"98733","name":"Makidimi"},{"id":"9108212007","district_id":"9108212","postal_code":"98733","name":"Iteuwo"},{"id":"9108212008","district_id":"9108212","postal_code":"98733","name":"Ogeida"},{"id":"9108212011","district_id":"9108212","postal_code":"98733","name":"Teguogi Pugaida"},{"id":"9108212012","district_id":"9108212","postal_code":"98733","name":"Dabamomaida"},{"id":"9108212013","district_id":"9108212","postal_code":"98733","name":"Baguwo"},{"id":"9108212014","district_id":"9108212","postal_code":"98733","name":"Keneugi"},{"id":"9108212021","district_id":"9108212","postal_code":"98733","name":"Debamomaida"},{"id":"9108212022","district_id":"9108212","postal_code":"98733","name":"Tegougipugaida"}]