[{"id":"9114012010","district_id":"9114012","postal_code":"99027","name":"Kogimagi"},{"id":"9114012012","district_id":"9114012","postal_code":"99027","name":"Muara"},{"id":"9114012039","district_id":"9114012","postal_code":"99027","name":"Ampera"},{"id":"9114012054","district_id":"9114012","postal_code":"99027","name":"Elsadai"},{"id":"9114012055","district_id":"9114012","postal_code":"99027","name":"Ebenhaiser"},{"id":"9114012056","district_id":"9114012","postal_code":"99027","name":"Kolilan"},{"id":"9114012058","district_id":"9114012","postal_code":"99027","name":"Kuloname"},{"id":"9114012059","district_id":"9114012","postal_code":"99027","name":"Lirak"},{"id":"9114012060","district_id":"9114012","postal_code":"99027","name":"Kimobur"},{"id":"9114012061","district_id":"9114012","postal_code":"99027","name":"Kuragepura"},{"id":"9114012062","district_id":"9114012","postal_code":"99027","name":"Kiranage"},{"id":"9114012064","district_id":"9114012","postal_code":"99027","name":"Luwik"},{"id":"9114012067","district_id":"9114012","postal_code":"99027","name":"Gininggadonak"},{"id":"9114012068","district_id":"9114012","postal_code":"99027","name":"Danggulurik"},{"id":"9114012069","district_id":"9114012","postal_code":"99027","name":"Gurikme"},{"id":"9114012070","district_id":"9114012","postal_code":"99027","name":"Molera"},{"id":"9114012071","district_id":"9114012","postal_code":"99027","name":"Nalorini"},{"id":"9114012072","district_id":"9114012","postal_code":"99027","name":"Beleme"},{"id":"9114012073","district_id":"9114012","postal_code":"99027","name":"Gurikagewa"},{"id":"9114012074","district_id":"9114012","postal_code":"99027","name":"Pulanggun"},{"id":"9114012075","district_id":"9114012","postal_code":"99027","name":"Yalikaluk"},{"id":"9114012076","district_id":"9114012","postal_code":"99027","name":"Losmen"}]