[{"id":"9124172001","district_id":"9124172","postal_code":"99941","name":"Mam"},{"id":"9124172002","district_id":"9124172","postal_code":"99941","name":"Pukle"},{"id":"9124172003","district_id":"9124172","postal_code":"99941","name":"Wolmbam"},{"id":"9124172004","district_id":"9124172","postal_code":"99941","name":"Wanduama"},{"id":"9124172005","district_id":"9124172","postal_code":"99941","name":"Yibi"},{"id":"9124172006","district_id":"9124172","postal_code":"99941","name":"Lakda"},{"id":"9124172007","district_id":"9124172","postal_code":"99941","name":"Yebandui"},{"id":"9124172008","district_id":"9124172","postal_code":"99941","name":"Laruid"},{"id":"9124172009","district_id":"9124172","postal_code":"99941","name":"Dendamba"},{"id":"9124172010","district_id":"9124172","postal_code":"99941","name":"Kibiaren"},{"id":"9124172011","district_id":"9124172","postal_code":"99941","name":"Paruarem"},{"id":"9124172012","district_id":"9124172","postal_code":"99941","name":"Kibo"},{"id":"9124172013","district_id":"9124172","postal_code":"99941","name":"Putdumu"},{"id":"9124172014","district_id":"9124172","postal_code":"99941","name":"Darakma"}]