[{"id":"9204092001","district_id":"9204092","postal_code":"98221","name":"Tarof"},{"id":"9204092002","district_id":"9204092","postal_code":"98221","name":"Negeri Besar"},{"id":"9204092003","district_id":"9204092","postal_code":"98221","name":"Siwatori"},{"id":"9204092004","district_id":"9204092","postal_code":"98221","name":"Kasuweri"},{"id":"9204092005","district_id":"9204092","postal_code":"98221","name":"Migori"},{"id":"9204092006","district_id":"9204092","postal_code":"98221","name":"Tambani"},{"id":"9204092010","district_id":"9204092","postal_code":"98221","name":"Daubak"},{"id":"9204092011","district_id":"9204092","postal_code":"98221","name":"Totona"},{"id":"9204092012","district_id":"9204092","postal_code":"98221","name":"Nayakore"},{"id":"9204092014","district_id":"9204092","postal_code":"98221","name":"Arbasina"},{"id":"9204092015","district_id":"9204092","postal_code":"98221","name":"Birawaku"},{"id":"9204092016","district_id":"9204092","postal_code":"98221","name":"Korewatara"},{"id":"9204092017","district_id":"9204092","postal_code":"98221","name":"Tapas"},{"id":"9204092018","district_id":"9204092","postal_code":"98221","name":"Topdan"},{"id":"9204092020","district_id":"9204092","postal_code":"98221","name":"Migrito"},{"id":"9204092021","district_id":"9204092","postal_code":"98221","name":"Daimar"}]