[{"id":"1101092001","district_id":"1101092","postal_code":"23774","name":"Keude Trumon"},{"id":"1101092002","district_id":"1101092","postal_code":"23774","name":"Ujong Tanoh"},{"id":"1101092003","district_id":"1101092","postal_code":"23774","name":"Sigleng"},{"id":"1101092004","district_id":"1101092","postal_code":"23774","name":"Ie Meudama"},{"id":"1101092005","district_id":"1101092","postal_code":"23774","name":"Tuepin Tinggi"},{"id":"1101092006","district_id":"1101092","postal_code":"23774","name":"Kuta Baro"},{"id":"1101092007","district_id":"1101092","postal_code":"23774","name":"Panton Bilie"},{"id":"1101092012","district_id":"1101092","postal_code":"23774","name":"Kuta Padang"},{"id":"1101092013","district_id":"1101092","postal_code":"23774","name":"Raket"},{"id":"1101092014","district_id":"1101092","postal_code":"23774","name":"Gampong Teungoh"},{"id":"1101092015","district_id":"1101092","postal_code":"23774","name":"Seuneubok Jaya"},{"id":"1101092016","district_id":"1101092","postal_code":"23774","name":"Padang Harapan"}]