[{"id":"1101052001","district_id":"1101052","postal_code":"23754","name":"Kuta Buloh Ii"},{"id":"1101052002","district_id":"1101052","postal_code":"23754","name":"Kuta Buloh I"},{"id":"1101052003","district_id":"1101052","postal_code":"23754","name":"Ie Dingen"},{"id":"1101052004","district_id":"1101052","postal_code":"23754","name":"Drien Jalo"},{"id":"1101052005","district_id":"1101052","postal_code":"23754","name":"Jambo Papeun"},{"id":"1101052006","district_id":"1101052","postal_code":"23754","name":"Buket Meuh"},{"id":"1101052007","district_id":"1101052","postal_code":"23754","name":"Blang Kuala"},{"id":"1101052008","district_id":"1101052","postal_code":"23754","name":"Rot Teungoh"},{"id":"1101052009","district_id":"1101052","postal_code":"23754","name":"Alue Baro"},{"id":"1101052010","district_id":"1101052","postal_code":"23754","name":"Ladang Tuha"},{"id":"1101052011","district_id":"1101052","postal_code":"23754","name":"Lhok Mamplam"},{"id":"1101052012","district_id":"1101052","postal_code":"23754","name":"Arun Tunggai"},{"id":"1101052013","district_id":"1101052","postal_code":"23754","name":"Blang Teungoh"},{"id":"1101052014","district_id":"1101052","postal_code":"23754","name":"Blang Bladeh"},{"id":"1101052015","district_id":"1101052","postal_code":"23754","name":"Ie Buboh"},{"id":"1101052016","district_id":"1101052","postal_code":"23754","name":"Keude Meukek"},{"id":"1101052017","district_id":"1101052","postal_code":"23754","name":"Kuta Baro"},{"id":"1101052018","district_id":"1101052","postal_code":"23754","name":"Tanjung Harapan"},{"id":"1101052019","district_id":"1101052","postal_code":"23754","name":"Labuhan Tarok"},{"id":"1101052020","district_id":"1101052","postal_code":"23754","name":"Lhok Aman"},{"id":"1101052021","district_id":"1101052","postal_code":"23754","name":"Alue Meutuah"},{"id":"1101052022","district_id":"1101052","postal_code":"23754","name":"Ladang Baro"},{"id":"1101052023","district_id":"1101052","postal_code":"23754","name":"Labuhan Tarok Ii"}]