[{"id":"1103122001","district_id":"1103122","postal_code":"24462","name":"Madat"},{"id":"1103122002","district_id":"1103122","postal_code":"24462","name":"Matang Keupula Sa"},{"id":"1103122003","district_id":"1103122","postal_code":"24462","name":"Matang Keupula Dua"},{"id":"1103122004","district_id":"1103122","postal_code":"24462","name":"Matang Keupula Lhee"},{"id":"1103122005","district_id":"1103122","postal_code":"24462","name":"Ulee Ateung"},{"id":"1103122006","district_id":"1103122","postal_code":"24462","name":"Blang Ubit"},{"id":"1103122007","district_id":"1103122","postal_code":"24462","name":"Matang Guru"},{"id":"1103122008","district_id":"1103122","postal_code":"24462","name":"Pantee Bayam"},{"id":"1103122009","district_id":"1103122","postal_code":"24462","name":"Meunasah Asan"},{"id":"1103122010","district_id":"1103122","postal_code":"24462","name":"Meunasah Tingkeum"},{"id":"1103122011","district_id":"1103122","postal_code":"24462","name":"Lueng Dua"},{"id":"1103122012","district_id":"1103122","postal_code":"24462","name":"Lueng Peut"},{"id":"1103122013","district_id":"1103122","postal_code":"24462","name":"Paya Demam Peut"},{"id":"1103122014","district_id":"1103122","postal_code":"24462","name":"Abeuk Geulanteu"},{"id":"1103122015","district_id":"1103122","postal_code":"24462","name":"Rambong Lop"},{"id":"1103122016","district_id":"1103122","postal_code":"24462","name":"Tanjong Ara"},{"id":"1103122017","district_id":"1103122","postal_code":"24462","name":"Matang Jrok"},{"id":"1103122018","district_id":"1103122","postal_code":"24462","name":"Paya Naden"},{"id":"1103122019","district_id":"1103122","postal_code":"24462","name":"Tanjong Minjei"},{"id":"1103122020","district_id":"1103122","postal_code":"24462","name":"Pante Merbo"},{"id":"1103122021","district_id":"1103122","postal_code":"24462","name":"Blang Awe"},{"id":"1103122022","district_id":"1103122","postal_code":"24462","name":"Bintah"},{"id":"1103122023","district_id":"1103122","postal_code":"24462","name":"Seuneubok Pidie"},{"id":"1103122024","district_id":"1103122","postal_code":"24462","name":"Blang Andam"},{"id":"1103122025","district_id":"1103122","postal_code":"24462","name":"Matang Nibong"},{"id":"1103122026","district_id":"1103122","postal_code":"24462","name":"Lueng Sa"}]