[{"id":"1103052001","district_id":"1103052","postal_code":"24460","name":"Lokop"},{"id":"1103052002","district_id":"1103052","postal_code":"24460","name":"Terujak"},{"id":"1103052003","district_id":"1103052","postal_code":"24460","name":"Tualang"},{"id":"1103052004","district_id":"1103052","postal_code":"24460","name":"Leles"},{"id":"1103052005","district_id":"1103052","postal_code":"24460","name":"Ujung Karang"},{"id":"1103052006","district_id":"1103052","postal_code":"24460","name":"Nalon"},{"id":"1103052007","district_id":"1103052","postal_code":"24460","name":"Jering"},{"id":"1103052008","district_id":"1103052","postal_code":"24460","name":"Loot"},{"id":"1103052009","district_id":"1103052","postal_code":"24460","name":"Seku Alan"},{"id":"1103052010","district_id":"1103052","postal_code":"24460","name":"Sunti"},{"id":"1103052011","district_id":"1103052","postal_code":"24460","name":"Umah Taring"},{"id":"1103052012","district_id":"1103052","postal_code":"24460","name":"Bunin"},{"id":"1103052013","district_id":"1103052","postal_code":"24460","name":"Sembuang"},{"id":"1103052014","district_id":"1103052","postal_code":"24460","name":"Seuleumak"},{"id":"1103052015","district_id":"1103052","postal_code":"24460","name":"Mesir"},{"id":"1103052016","district_id":"1103052","postal_code":"24460","name":"Rampah"},{"id":"1103052022","district_id":"1103052","postal_code":"24460","name":"Arul Durin"}]