[{"id":"1104012003","district_id":"1104012","postal_code":"24565","name":"Delung Sekinel"},{"id":"1104012005","district_id":"1104012","postal_code":"24565","name":"Gelampang Gading"},{"id":"1104012006","district_id":"1104012","postal_code":"24565","name":"Gewat"},{"id":"1104012008","district_id":"1104012","postal_code":"24565","name":"Jamat"},{"id":"1104012009","district_id":"1104012","postal_code":"24565","name":"Kemerleng"},{"id":"1104012010","district_id":"1104012","postal_code":"24565","name":"Kute Baru"},{"id":"1104012011","district_id":"1104012","postal_code":"24565","name":"Kute Keramil"},{"id":"1104012012","district_id":"1104012","postal_code":"24565","name":"Kute Rayang"},{"id":"1104012013","district_id":"1104012","postal_code":"24565","name":"Kute Riyem"},{"id":"1104012014","district_id":"1104012","postal_code":"24565","name":"Kute Robel"},{"id":"1104012015","district_id":"1104012","postal_code":"24565","name":"Linge"},{"id":"1104012016","district_id":"1104012","postal_code":"24565","name":"Lumut"},{"id":"1104012018","district_id":"1104012","postal_code":"24565","name":"Mungkur"},{"id":"1104012019","district_id":"1104012","postal_code":"24565","name":"Owaq"},{"id":"1104012020","district_id":"1104012","postal_code":"24565","name":"Pantan Nangka"},{"id":"1104012021","district_id":"1104012","postal_code":"24565","name":"Penarun"},{"id":"1104012022","district_id":"1104012","postal_code":"24565","name":"Simpang Tige Uning"},{"id":"1104012023","district_id":"1104012","postal_code":"24565","name":"Umang"},{"id":"1104012024","district_id":"1104012","postal_code":"24565","name":"Despot Linge"},{"id":"1104012025","district_id":"1104012","postal_code":"24565","name":"Gemboyah"},{"id":"1104012031","district_id":"1104012","postal_code":"24565","name":"Arul Item"},{"id":"1104012032","district_id":"1104012","postal_code":"24565","name":"Ise-ise"},{"id":"1104012033","district_id":"1104012","postal_code":"24565","name":"Kute Reje"},{"id":"1104012034","district_id":"1104012","postal_code":"24565","name":"Reje Payung"},{"id":"1104012035","district_id":"1104012","postal_code":"24565","name":"Pantan Reduk"},{"id":"1104012036","district_id":"1104012","postal_code":"24565","name":"Antara"}]