[{"id":"1105112001","district_id":"1105112","postal_code":"23683","name":"Seuradek"},{"id":"1105112002","district_id":"1105112","postal_code":"23683","name":"Lubuk Panyang"},{"id":"1105112003","district_id":"1105112","postal_code":"23683","name":"Paya Baro"},{"id":"1105112004","district_id":"1105112","postal_code":"23683","name":"Kubu Capang"},{"id":"1105112005","district_id":"1105112","postal_code":"23683","name":"Pasi Ara Wt"},{"id":"1105112006","district_id":"1105112","postal_code":"23683","name":"Gampong Baro Wt"},{"id":"1105112007","district_id":"1105112","postal_code":"23683","name":"Rambong"},{"id":"1105112008","district_id":"1105112","postal_code":"23683","name":"Cot Punti"},{"id":"1105112009","district_id":"1105112","postal_code":"23683","name":"Alue Eumpeuk"},{"id":"1105112010","district_id":"1105112","postal_code":"23683","name":"Alue Bilie"},{"id":"1105112011","district_id":"1105112","postal_code":"23683","name":"Pasi Janeng"},{"id":"1105112012","district_id":"1105112","postal_code":"23683","name":"Tangkeh"},{"id":"1105112013","district_id":"1105112","postal_code":"23683","name":"Alue Kuyun"},{"id":"1105112014","district_id":"1105112","postal_code":"23683","name":"Bukit Meugajah"},{"id":"1105112015","district_id":"1105112","postal_code":"23683","name":"Blang Dalam"},{"id":"1105112016","district_id":"1105112","postal_code":"23683","name":"Teumiket Ranom"},{"id":"1105112017","district_id":"1105112","postal_code":"23683","name":"Blang Makmue"},{"id":"1105112018","district_id":"1105112","postal_code":"23683","name":"Gampong Baro Kb"},{"id":"1105112019","district_id":"1105112","postal_code":"23683","name":"Alue Meuganda"},{"id":"1105112020","district_id":"1105112","postal_code":"23683","name":"Alue Seuralen"},{"id":"1105112021","district_id":"1105112","postal_code":"23683","name":"Rambong Pinto"},{"id":"1105112022","district_id":"1105112","postal_code":"23683","name":"Tuwi Eumpeuk"},{"id":"1105112023","district_id":"1105112","postal_code":"23683","name":"Blang Luah Kb"},{"id":"1105112024","district_id":"1105112","postal_code":"23683","name":"Seuneubok Dalam"},{"id":"1105112025","district_id":"1105112","postal_code":"23683","name":"Paya Meugenderang"},{"id":"1105112026","district_id":"1105112","postal_code":"23683","name":"Gunong Payang"}]