[{"id":"1105012001","district_id":"1105012","postal_code":"23611","name":"Suak Indrapuri"},{"id":"1105012002","district_id":"1105012","postal_code":"23611","name":"Kampung Belakang"},{"id":"1105012003","district_id":"1105012","postal_code":"23613","name":"Ujung Kalak"},{"id":"1105012004","district_id":"1105012","postal_code":"23614","name":"Kuta Padang"},{"id":"1105012005","district_id":"1105012","postal_code":"23615","name":"Ujong Baroh"},{"id":"1105012006","district_id":"1105012","postal_code":"23616","name":"Rundeng"},{"id":"1105012007","district_id":"1105012","postal_code":"23617","name":"Drien Rampak"},{"id":"1105012008","district_id":"1105012","postal_code":"23611","name":"Pasir"},{"id":"1105012009","district_id":"1105012","postal_code":"23612","name":"Pasar Aceh"},{"id":"1105012010","district_id":"1105012","postal_code":"23611","name":"Padang Seurahet"},{"id":"1105012011","district_id":"1105012","postal_code":"23612","name":"Panggong"},{"id":"1105012012","district_id":"1105012","postal_code":"23611","name":"Seuneugok"},{"id":"1105012013","district_id":"1105012","postal_code":"23611","name":"Gampong Darat"},{"id":"1105012014","district_id":"1105012","postal_code":"23611","name":"Gampa"},{"id":"1105012015","district_id":"1105012","postal_code":"23618","name":"Lapang"},{"id":"1105012016","district_id":"1105012","postal_code":"23618","name":"Blang Beurandang"},{"id":"1105012017","district_id":"1105012","postal_code":"23611","name":"Suak Ribee"},{"id":"1105012018","district_id":"1105012","postal_code":"23611","name":"Suak Raya"},{"id":"1105012019","district_id":"1105012","postal_code":"23611","name":"Suak Nie"},{"id":"1105012020","district_id":"1105012","postal_code":"23611","name":"Leuhan"},{"id":"1105012021","district_id":"1105012","postal_code":"23611","name":"Suak Sigadeng"}]