[{"id":"1105022001","district_id":"1105022","postal_code":"23681","name":"Keude Aron"},{"id":"1105022002","district_id":"1105022","postal_code":"23681","name":"Kampung Masjid"},{"id":"1105022003","district_id":"1105022","postal_code":"23681","name":"Padang Mancang"},{"id":"1105022004","district_id":"1105022","postal_code":"23681","name":"Meunasah Buloh"},{"id":"1105022005","district_id":"1105022","postal_code":"23681","name":"Alue Tampak"},{"id":"1105022006","district_id":"1105022","postal_code":"23681","name":"Beureugang"},{"id":"1105022007","district_id":"1105022","postal_code":"23681","name":"Marek"},{"id":"1105022008","district_id":"1105022","postal_code":"23681","name":"Pasi Jambu"},{"id":"1105022009","district_id":"1105022","postal_code":"23681","name":"Meunasah Ara"},{"id":"1105022010","district_id":"1105022","postal_code":"23681","name":"Meunasah Rayeuk"},{"id":"1105022011","district_id":"1105022","postal_code":"23681","name":"Simpang"},{"id":"1105022012","district_id":"1105022","postal_code":"23681","name":"Peunia"},{"id":"1105022013","district_id":"1105022","postal_code":"23681","name":"Tumpok Ladang"},{"id":"1105022014","district_id":"1105022","postal_code":"23681","name":"Pasi Teungoh"},{"id":"1105022015","district_id":"1105022","postal_code":"23681","name":"Putim"},{"id":"1105022016","district_id":"1105022","postal_code":"23681","name":"Meunasah Rambot"},{"id":"1105022017","district_id":"1105022","postal_code":"23681","name":"Pasi Jeumpa"},{"id":"1105022018","district_id":"1105022","postal_code":"23681","name":"Palimbungan"},{"id":"1105022019","district_id":"1105022","postal_code":"23681","name":"Muko"},{"id":"1105022020","district_id":"1105022","postal_code":"23681","name":"Meuna. Gantung"},{"id":"1105022021","district_id":"1105022","postal_code":"23681","name":"Blang Geunang"},{"id":"1105022022","district_id":"1105022","postal_code":"23681","name":"Puuk"},{"id":"1105022023","district_id":"1105022","postal_code":"23681","name":"Tanjong Bungong"},{"id":"1105022024","district_id":"1105022","postal_code":"23681","name":"Alue On"},{"id":"1105022036","district_id":"1105022","postal_code":"23681","name":"Tanjong Meulaboh"},{"id":"1105022037","district_id":"1105022","postal_code":"23681","name":"Keude Tanjong"},{"id":"1105022038","district_id":"1105022","postal_code":"23681","name":"Pungkie"},{"id":"1105022039","district_id":"1105022","postal_code":"23681","name":"Pucok Pungkie"},{"id":"1105022040","district_id":"1105022","postal_code":"23681","name":"Teladan"},{"id":"1105022041","district_id":"1105022","postal_code":"23681","name":"Pasi Ara"},{"id":"1105022042","district_id":"1105022","postal_code":"23681","name":"Meunuang Tanjong"},{"id":"1105022043","district_id":"1105022","postal_code":"23681","name":"Alue Lhee"},{"id":"1105022044","district_id":"1105022","postal_code":"23681","name":"Blang Dalam"},{"id":"1105022045","district_id":"1105022","postal_code":"23681","name":"Teupin Panah"},{"id":"1105022046","district_id":"1105022","postal_code":"23681","name":"Drien Caleue"},{"id":"1105022047","district_id":"1105022","postal_code":"23681","name":"Alue Peudeung"},{"id":"1105022048","district_id":"1105022","postal_code":"23681","name":"Pasi Meugat"},{"id":"1105022049","district_id":"1105022","postal_code":"23681","name":"Babah Meulaboh"},{"id":"1105022050","district_id":"1105022","postal_code":"23681","name":"Pasi Kumbang"},{"id":"1105022051","district_id":"1105022","postal_code":"23681","name":"Padang Sikabu"},{"id":"1105022052","district_id":"1105022","postal_code":"23681","name":"Sawang Teubei"},{"id":"1105022053","district_id":"1105022","postal_code":"23681","name":"Alue Lhok"},{"id":"1105022062","district_id":"1105022","postal_code":"23681","name":"Butu Jaya"},{"id":"1105022063","district_id":"1105022","postal_code":"23681","name":"Keuramat"}]