[{"id":"1105072001","district_id":"1105072","postal_code":"23652","name":"Arongan"},{"id":"1105072002","district_id":"1105072","postal_code":"23652","name":"Alue Bagok"},{"id":"1105072003","district_id":"1105072","postal_code":"23652","name":"Alue Sundak"},{"id":"1105072004","district_id":"1105072","postal_code":"23652","name":"Alue Batee"},{"id":"1105072005","district_id":"1105072","postal_code":"23652","name":"Cot Buloh"},{"id":"1105072006","district_id":"1105072","postal_code":"23652","name":"Cot Kumbang"},{"id":"1105072007","district_id":"1105072","postal_code":"23652","name":"Cot Juru Mudi"},{"id":"1105072008","district_id":"1105072","postal_code":"23652","name":"Drien Rampak"},{"id":"1105072009","district_id":"1105072","postal_code":"23652","name":"Kubu"},{"id":"1105072010","district_id":"1105072","postal_code":"23652","name":"Keub"},{"id":"1105072011","district_id":"1105072","postal_code":"23652","name":"Pante Mutia"},{"id":"1105072012","district_id":"1105072","postal_code":"23652","name":"Peribu"},{"id":"1105072013","district_id":"1105072","postal_code":"23652","name":"Panton Makmu"},{"id":"1105072014","district_id":"1105072","postal_code":"23652","name":"Panton Bahagia"},{"id":"1105072015","district_id":"1105072","postal_code":"23652","name":"Peulanteu Lb."},{"id":"1105072016","district_id":"1105072","postal_code":"23652","name":"Rimba Langgeh"},{"id":"1105072017","district_id":"1105072","postal_code":"23652","name":"Suak Keumudee"},{"id":"1105072018","district_id":"1105072","postal_code":"23652","name":"Seuneubok Lhong"},{"id":"1105072019","district_id":"1105072","postal_code":"23652","name":"Suak Ie Beuso"},{"id":"1105072020","district_id":"1105072","postal_code":"23652","name":"Suak Bidok"},{"id":"1105072021","district_id":"1105072","postal_code":"23652","name":"Simpang Peut"},{"id":"1105072022","district_id":"1105072","postal_code":"23652","name":"Seuneubok Teungoh"},{"id":"1105072023","district_id":"1105072","postal_code":"23652","name":"Teupin Peraho"},{"id":"1105072024","district_id":"1105072","postal_code":"23652","name":"Ujong Beusa"},{"id":"1105072025","district_id":"1105072","postal_code":"23652","name":"Ujong Simpang"},{"id":"1105072026","district_id":"1105072","postal_code":"23652","name":"Gunong Pulo"},{"id":"1105072027","district_id":"1105072","postal_code":"23652","name":"Karang Hampa"}]