[{"id":"1106082001","district_id":"1106082","postal_code":"23351","name":"Lambadeuk"},{"id":"1106082002","district_id":"1106082","postal_code":"23351","name":"Lamguron"},{"id":"1106082003","district_id":"1106082","postal_code":"23351","name":"Lambaro Nejid"},{"id":"1106082004","district_id":"1106082","postal_code":"23351","name":"Lampageu"},{"id":"1106082005","district_id":"1106082","postal_code":"23351","name":"Gampong Baro"},{"id":"1106082006","district_id":"1106082","postal_code":"23351","name":"Lam Manyang"},{"id":"1106082007","district_id":"1106082","postal_code":"23351","name":"Lamteh"},{"id":"1106082008","district_id":"1106082","postal_code":"23351","name":"Lam Lumpu"},{"id":"1106082009","district_id":"1106082","postal_code":"23351","name":"Lamteungoh"},{"id":"1106082010","district_id":"1106082","postal_code":"23351","name":"Lamtutui"},{"id":"1106082011","district_id":"1106082","postal_code":"23351","name":"Meunasah Tuha"},{"id":"1106082012","district_id":"1106082","postal_code":"23351","name":"Lam Awe"},{"id":"1106082013","district_id":"1106082","postal_code":"23351","name":"Pulo Bunta"},{"id":"1106082014","district_id":"1106082","postal_code":"23351","name":"Beuradeun"},{"id":"1106082015","district_id":"1106082","postal_code":"23351","name":"Lampisang"},{"id":"1106082016","district_id":"1106082","postal_code":"23351","name":"Keuneu Eu"},{"id":"1106082017","district_id":"1106082","postal_code":"23351","name":"Lam Isek"},{"id":"1106082018","district_id":"1106082","postal_code":"23351","name":"Lamkeumok"},{"id":"1106082019","district_id":"1106082","postal_code":"23351","name":"Lam Rukam"},{"id":"1106082020","district_id":"1106082","postal_code":"23351","name":"Gurah"},{"id":"1106082021","district_id":"1106082","postal_code":"23351","name":"Rima Jeuneu"},{"id":"1106082022","district_id":"1106082","postal_code":"23351","name":"Lam Geu Eu"},{"id":"1106082023","district_id":"1106082","postal_code":"23351","name":"Lam Hasan"},{"id":"1106082024","district_id":"1106082","postal_code":"23351","name":"Paya Tieng"},{"id":"1106082025","district_id":"1106082","postal_code":"23351","name":"Ajuen"},{"id":"1106082026","district_id":"1106082","postal_code":"23351","name":"Rima Keuneurom"}]