[{"id":"1106072001","district_id":"1106072","postal_code":"23352","name":"Lampeuneurut Ujong Blang"},{"id":"1106072002","district_id":"1106072","postal_code":"23352","name":"Lampeuneurut Gampong"},{"id":"1106072003","district_id":"1106072","postal_code":"23352","name":"Lamreung"},{"id":"1106072004","district_id":"1106072","postal_code":"23352","name":"Lamcot"},{"id":"1106072005","district_id":"1106072","postal_code":"23352","name":"Lam Blang Trieng"},{"id":"1106072006","district_id":"1106072","postal_code":"23352","name":"Lam Blang Mayang"},{"id":"1106072007","district_id":"1106072","postal_code":"23352","name":"Bayu"},{"id":"1106072008","district_id":"1106072","postal_code":"23352","name":"Lagang"},{"id":"1106072009","district_id":"1106072","postal_code":"23352","name":"Lamsiteh"},{"id":"1106072010","district_id":"1106072","postal_code":"23352","name":"Lamkawe"},{"id":"1106072011","district_id":"1106072","postal_code":"23352","name":"Lheu Blang"},{"id":"1106072012","district_id":"1106072","postal_code":"23352","name":"Payaroh"},{"id":"1106072013","district_id":"1106072","postal_code":"23352","name":"Lamsidaya"},{"id":"1106072014","district_id":"1106072","postal_code":"23352","name":"Kuta Karang"},{"id":"1106072015","district_id":"1106072","postal_code":"23352","name":"Leu Geu"},{"id":"1106072016","district_id":"1106072","postal_code":"23352","name":"Lampeuneun"},{"id":"1106072017","district_id":"1106072","postal_code":"23352","name":"Lamtheun"},{"id":"1106072018","district_id":"1106072","postal_code":"23352","name":"Deunong"},{"id":"1106072019","district_id":"1106072","postal_code":"23352","name":"Tingkuem"},{"id":"1106072020","district_id":"1106072","postal_code":"23352","name":"Kandang"},{"id":"1106072021","district_id":"1106072","postal_code":"23352","name":"Lam Bheu"},{"id":"1106072022","district_id":"1106072","postal_code":"23352","name":"Daroy Kameu"},{"id":"1106072023","district_id":"1106072","postal_code":"23352","name":"Geundrieng"},{"id":"1106072024","district_id":"1106072","postal_code":"23352","name":"Garot"},{"id":"1106072025","district_id":"1106072","postal_code":"23352","name":"Pasheu Beutong"},{"id":"1106072026","district_id":"1106072","postal_code":"23352","name":"Lampasi Engking"},{"id":"1106072027","district_id":"1106072","postal_code":"23352","name":"Jeumpet Ajun"},{"id":"1106072028","district_id":"1106072","postal_code":"23352","name":"Gue Gajah"},{"id":"1106072029","district_id":"1106072","postal_code":"23352","name":"Leu Ue"},{"id":"1106072030","district_id":"1106072","postal_code":"23352","name":"Ulee Lueng"},{"id":"1106072031","district_id":"1106072","postal_code":"23352","name":"Punie"},{"id":"1106072032","district_id":"1106072","postal_code":"23352","name":"Ulee Tuy"}]