[{"id":"1107212001","district_id":"1107212","postal_code":"24174","name":"Rabo"},{"id":"1107212002","district_id":"1107212","postal_code":"24174","name":"Pulo Siblah"},{"id":"1107212003","district_id":"1107212","postal_code":"24174","name":"Lhok Igeuh"},{"id":"1107212004","district_id":"1107212","postal_code":"24174","name":"Pulo Geulumpang"},{"id":"1107212005","district_id":"1107212","postal_code":"24174","name":"Meunasah Mancang"},{"id":"1107212006","district_id":"1107212","postal_code":"24174","name":"Pulo Tambo"},{"id":"1107212007","district_id":"1107212","postal_code":"24174","name":"Pulo Kenari"},{"id":"1107212008","district_id":"1107212","postal_code":"24174","name":"Peunadok"},{"id":"1107212009","district_id":"1107212","postal_code":"24174","name":"Pulo Mesjid"},{"id":"1107212010","district_id":"1107212","postal_code":"24174","name":"Meunasah Dayah"},{"id":"1107212011","district_id":"1107212","postal_code":"24174","name":"Trieng Cudo Baroh"},{"id":"1107212012","district_id":"1107212","postal_code":"24174","name":"Trieng Cudo Tunong"},{"id":"1107212013","district_id":"1107212","postal_code":"24174","name":"Mampree"},{"id":"1107212014","district_id":"1107212","postal_code":"24174","name":"Daya Baroh"},{"id":"1107212015","district_id":"1107212","postal_code":"24174","name":"Daya Teungoh"},{"id":"1107212016","district_id":"1107212","postal_code":"24174","name":"Dayah Kp Baro"},{"id":"1107212017","district_id":"1107212","postal_code":"24174","name":"Dayah Cot"},{"id":"1107212018","district_id":"1107212","postal_code":"24174","name":"Blang Rukui"},{"id":"1107212019","district_id":"1107212","postal_code":"24174","name":"Panton Bunot"}]