[{"id":"1107182001","district_id":"1107182","postal_code":"24181","name":"Mns Raya Paya"},{"id":"1107182002","district_id":"1107182","postal_code":"24181","name":"Mesjid Bungie"},{"id":"1107182003","district_id":"1107182","postal_code":"24181","name":"Liliep"},{"id":"1107182004","district_id":"1107182","postal_code":"24181","name":"Ujong Baroh"},{"id":"1107182005","district_id":"1107182","postal_code":"24181","name":"Peukan Sot"},{"id":"1107182006","district_id":"1107182","postal_code":"24181","name":"Sukon"},{"id":"1107182007","district_id":"1107182","postal_code":"24181","name":"Raya Paleue"},{"id":"1107182008","district_id":"1107182","postal_code":"24181","name":"Lambideng"},{"id":"1107182009","district_id":"1107182","postal_code":"24181","name":"Cot Paleu"},{"id":"1107182010","district_id":"1107182","postal_code":"24181","name":"Seukee"},{"id":"1107182011","district_id":"1107182","postal_code":"24181","name":"Cebrek"},{"id":"1107182012","district_id":"1107182","postal_code":"24181","name":"Linggong Sagoe"},{"id":"1107182013","district_id":"1107182","postal_code":"24181","name":"Kulam Baro"},{"id":"1107182014","district_id":"1107182","postal_code":"24181","name":"Empeh"},{"id":"1107182015","district_id":"1107182","postal_code":"24181","name":"Nien"},{"id":"1107182016","district_id":"1107182","postal_code":"24181","name":"Ceureucok Timur"},{"id":"1107182017","district_id":"1107182","postal_code":"24181","name":"Ceureukcok Barat"},{"id":"1107182018","district_id":"1107182","postal_code":"24181","name":"Jaja Baroh"},{"id":"1107182019","district_id":"1107182","postal_code":"24181","name":"Jaja Tunong"},{"id":"1107182020","district_id":"1107182","postal_code":"24181","name":"Mesjid Gigieng"},{"id":"1107182021","district_id":"1107182","postal_code":"24181","name":"Gong"},{"id":"1107182022","district_id":"1107182","postal_code":"24181","name":"Pulo Raya"},{"id":"1107182023","district_id":"1107182","postal_code":"24181","name":"Pulo Blang"},{"id":"1107182024","district_id":"1107182","postal_code":"24181","name":"Mamplam"},{"id":"1107182025","district_id":"1107182","postal_code":"24181","name":"Meunasah Lhee"},{"id":"1107182026","district_id":"1107182","postal_code":"24181","name":"Pante"},{"id":"1107182027","district_id":"1107182","postal_code":"24181","name":"Kupula"},{"id":"1107182028","district_id":"1107182","postal_code":"24181","name":"Mantak Raya"},{"id":"1107182029","district_id":"1107182","postal_code":"24181","name":"Peukan Tuha"},{"id":"1107182030","district_id":"1107182","postal_code":"24181","name":"Dayah Lampoh Awe"},{"id":"1107182031","district_id":"1107182","postal_code":"24181","name":"Meunasah Blang"},{"id":"1107182032","district_id":"1107182","postal_code":"24181","name":"Pulo Gajah Mate"},{"id":"1107182033","district_id":"1107182","postal_code":"24181","name":"Seuk Ceukok"},{"id":"1107182034","district_id":"1107182","postal_code":"24181","name":"Pulo Tu"},{"id":"1107182035","district_id":"1107182","postal_code":"24181","name":"Jurong"},{"id":"1107182036","district_id":"1107182","postal_code":"24181","name":"Kampong Blang"},{"id":"1107182037","district_id":"1107182","postal_code":"24181","name":"Padang"},{"id":"1107182038","district_id":"1107182","postal_code":"24181","name":"Cot Ara"},{"id":"1107182039","district_id":"1107182","postal_code":"24181","name":"Dayah Bale Cut"},{"id":"1107182040","district_id":"1107182","postal_code":"24181","name":"Teungoh Mangki"},{"id":"1107182041","district_id":"1107182","postal_code":"24181","name":"Dayah Blang"},{"id":"1107182042","district_id":"1107182","postal_code":"24181","name":"Madika"},{"id":"1107182043","district_id":"1107182","postal_code":"24181","name":"Sagoe"},{"id":"1107182044","district_id":"1107182","postal_code":"24181","name":"Cereucok Sagoe"},{"id":"1107182045","district_id":"1107182","postal_code":"24181","name":"Bunien"},{"id":"1107182046","district_id":"1107182","postal_code":"24181","name":"Paloh Tok Due"},{"id":"1107182047","district_id":"1107182","postal_code":"24181","name":"Mesjid Tungoe"},{"id":"1107182048","district_id":"1107182","postal_code":"24181","name":"Blang Leuen"},{"id":"1107182049","district_id":"1107182","postal_code":"24181","name":"Ujong Gampong"},{"id":"1107182050","district_id":"1107182","postal_code":"24181","name":"Cot Jaja"},{"id":"1107182051","district_id":"1107182","postal_code":"24181","name":"Lheue"},{"id":"1107182052","district_id":"1107182","postal_code":"24181","name":"Ulee Barat"}]