[{"id":"1108132001","district_id":"1108132","postal_code":"24390","name":"Alue"},{"id":"1108132002","district_id":"1108132","postal_code":"24390","name":"Mee Matang Panyang"},{"id":"1108132003","district_id":"1108132","postal_code":"24390","name":"Blang"},{"id":"1108132004","district_id":"1108132","postal_code":"24390","name":"Paloh"},{"id":"1108132005","district_id":"1108132","postal_code":"24390","name":"Keude Matang Payang"},{"id":"1108132006","district_id":"1108132","postal_code":"24390","name":"Gampong Pande"},{"id":"1108132007","district_id":"1108132","postal_code":"24390","name":"Matang Ranup Laseh"},{"id":"1108132008","district_id":"1108132","postal_code":"24390","name":"Cangguek"},{"id":"1108132009","district_id":"1108132","postal_code":"24390","name":"Kumbang"},{"id":"1108132010","district_id":"1108132","postal_code":"24390","name":"Prie"},{"id":"1108132011","district_id":"1108132","postal_code":"24390","name":"Keutapang"},{"id":"1108132012","district_id":"1108132","postal_code":"24390","name":"Keude Jrat Manyang"},{"id":"1108132013","district_id":"1108132","postal_code":"24390","name":"Teupin Gapeuh"},{"id":"1108132014","district_id":"1108132","postal_code":"24390","name":"Cibrek"},{"id":"1108132015","district_id":"1108132","postal_code":"24390","name":"Me Merbo"},{"id":"1108132016","district_id":"1108132","postal_code":"24390","name":"Ulee Tanoh"},{"id":"1108132017","district_id":"1108132","postal_code":"24390","name":"Matang Janeng"},{"id":"1108132018","district_id":"1108132","postal_code":"24390","name":"Kuala Keureutou Barat"}]