[{"id":"1109092001","district_id":"1109092","postal_code":"23899","name":"Matanurung"},{"id":"1109092002","district_id":"1109092","postal_code":"23899","name":"Lasikin"},{"id":"1109092003","district_id":"1109092","postal_code":"23899","name":"Lanting"},{"id":"1109092004","district_id":"1109092","postal_code":"23899","name":"Busung Indah"},{"id":"1109092005","district_id":"1109092","postal_code":"23899","name":"Kahad"},{"id":"1109092006","district_id":"1109092","postal_code":"23899","name":"Simpang Abail"},{"id":"1109092007","district_id":"1109092","postal_code":"23899","name":"Abail"},{"id":"1109092008","district_id":"1109092","postal_code":"23899","name":"Nancawa"},{"id":"1109092009","district_id":"1109092","postal_code":"23899","name":"Labuah"},{"id":"1109092010","district_id":"1109092","postal_code":"23899","name":"Sua-sua"},{"id":"1109092011","district_id":"1109092","postal_code":"23899","name":"Batu-batu"},{"id":"1109092012","district_id":"1109092","postal_code":"23899","name":"Situbuk"}]