[{"id":"1111062001","district_id":"1111062","postal_code":"24357","name":"Leubu Me"},{"id":"1111062002","district_id":"1111062","postal_code":"24357","name":"Paya Dua"},{"id":"1111062003","district_id":"1111062","postal_code":"24357","name":"Leubu Cot"},{"id":"1111062004","district_id":"1111062","postal_code":"24357","name":"Leubu Mesjid"},{"id":"1111062005","district_id":"1111062","postal_code":"24357","name":"Kuta Barat"},{"id":"1111062006","district_id":"1111062","postal_code":"24357","name":"Trienggadeng"},{"id":"1111062007","district_id":"1111062","postal_code":"24357","name":"Cot Kruet"},{"id":"1111062008","district_id":"1111062","postal_code":"24357","name":"Blang Khutang"},{"id":"1111062009","district_id":"1111062","postal_code":"24357","name":"Buket Seulamat"},{"id":"1111062010","district_id":"1111062","postal_code":"24357","name":"Lapehan Mesjid"},{"id":"1111062011","district_id":"1111062","postal_code":"24357","name":"Ulee Glee"},{"id":"1111062012","district_id":"1111062","postal_code":"24357","name":"Mona Ara"},{"id":"1111062013","district_id":"1111062","postal_code":"24357","name":"Pandak"},{"id":"1111062014","district_id":"1111062","postal_code":"24357","name":"Blang Dalam"},{"id":"1111062015","district_id":"1111062","postal_code":"24357","name":"Alue Dua"},{"id":"1111062016","district_id":"1111062","postal_code":"24357","name":"Seuneubok Baro"},{"id":"1111062017","district_id":"1111062","postal_code":"24357","name":"Panteu Breuh"},{"id":"1111062018","district_id":"1111062","postal_code":"24357","name":"Tanjong Mulia"},{"id":"1111062019","district_id":"1111062","postal_code":"24357","name":"Blang Mane"},{"id":"1111062020","district_id":"1111062","postal_code":"24357","name":"Meureubo"},{"id":"1111062021","district_id":"1111062","postal_code":"24357","name":"Blang Perlak"},{"id":"1111062022","district_id":"1111062","postal_code":"24357","name":"Panton Mesjid"},{"id":"1111062023","district_id":"1111062","postal_code":"24357","name":"Sukarame"},{"id":"1111062024","district_id":"1111062","postal_code":"24357","name":"Matang Kumbang"},{"id":"1111062025","district_id":"1111062","postal_code":"24357","name":"Pulo Teungoh"},{"id":"1111062026","district_id":"1111062","postal_code":"24357","name":"Batee Dabai"},{"id":"1111062027","district_id":"1111062","postal_code":"24357","name":"Ara Lipeh"}]