[{"id":"1111072001","district_id":"1111072","postal_code":"24356","name":"Keude Lapang"},{"id":"1111072002","district_id":"1111072","postal_code":"24356","name":"Lapang Barat"},{"id":"1111072003","district_id":"1111072","postal_code":"24356","name":"Lingka Kuta"},{"id":"1111072004","district_id":"1111072","postal_code":"24356","name":"Lapang Timu"},{"id":"1111072005","district_id":"1111072","postal_code":"24356","name":"Teupin Siron"},{"id":"1111072006","district_id":"1111072","postal_code":"24356","name":"Ie Rhop"},{"id":"1111072007","district_id":"1111072","postal_code":"24356","name":"Ceubo"},{"id":"1111072008","district_id":"1111072","postal_code":"24356","name":"Paloh Me"},{"id":"1111072009","district_id":"1111072","postal_code":"24356","name":"Lhok Mambang"},{"id":"1111072010","district_id":"1111072","postal_code":"24356","name":"Samuti Krueng"},{"id":"1111072011","district_id":"1111072","postal_code":"24356","name":"Cot Mane"},{"id":"1111072012","district_id":"1111072","postal_code":"24356","name":"Samuti Makmur"},{"id":"1111072013","district_id":"1111072","postal_code":"24356","name":"Samuti Rayeuk"},{"id":"1111072014","district_id":"1111072","postal_code":"24356","name":"Cot Puuk"},{"id":"1111072015","district_id":"1111072","postal_code":"24356","name":"Samuti Aman"},{"id":"1111072016","district_id":"1111072","postal_code":"24356","name":"Alue Mangki"},{"id":"1111072017","district_id":"1111072","postal_code":"24356","name":"Mon Keulayu"},{"id":"1111072018","district_id":"1111072","postal_code":"24356","name":"Geurugok"},{"id":"1111072019","district_id":"1111072","postal_code":"24356","name":"Blang Kede"},{"id":"1111072020","district_id":"1111072","postal_code":"24356","name":"Cot Tufah"},{"id":"1111072021","district_id":"1111072","postal_code":"24356","name":"Cot Tunong"},{"id":"1111072022","district_id":"1111072","postal_code":"24356","name":"Paya Baro"},{"id":"1111072023","district_id":"1111072","postal_code":"24356","name":"Paloh Kaye Kunyet"},{"id":"1111072024","district_id":"1111072","postal_code":"24356","name":"Cot Jabet"},{"id":"1111072025","district_id":"1111072","postal_code":"24356","name":"Cot Tube"},{"id":"1111072026","district_id":"1111072","postal_code":"24356","name":"Pante Sikumbong"},{"id":"1111072027","district_id":"1111072","postal_code":"24356","name":"Blang Guron"},{"id":"1111072028","district_id":"1111072","postal_code":"24356","name":"Dama Kawan"},{"id":"1111072029","district_id":"1111072","postal_code":"24356","name":"Paya Seupat"},{"id":"1111072030","district_id":"1111072","postal_code":"24356","name":"Cot Rambat"},{"id":"1111072031","district_id":"1111072","postal_code":"24356","name":"Paya Kareung"},{"id":"1111072032","district_id":"1111072","postal_code":"24356","name":"Mon Jeurujak"},{"id":"1111072033","district_id":"1111072","postal_code":"24356","name":"Tanjong Raya"},{"id":"1111072034","district_id":"1111072","postal_code":"24356","name":"Tanjong Mesjid"},{"id":"1111072035","district_id":"1111072","postal_code":"24356","name":"Blang Kubu"},{"id":"1111072036","district_id":"1111072","postal_code":"24356","name":"Tanjong Bungong"},{"id":"1111072037","district_id":"1111072","postal_code":"24356","name":"Pulo Gisa"},{"id":"1111072038","district_id":"1111072","postal_code":"24356","name":"Ujong Bayu"},{"id":"1111072078","district_id":"1111072","postal_code":"24356","name":"Mon Jambe"},{"id":"1111072079","district_id":"1111072","postal_code":"24356","name":"Blang Rheue"}]