[{"id":"1111132001","district_id":"1111132","postal_code":"24252","name":"Bandar Bireuen"},{"id":"1111132002","district_id":"1111132","postal_code":"24252","name":"Bireuen Meunasah Reulet"},{"id":"1111132003","district_id":"1111132","postal_code":"24252","name":"Bireuen Meunasah Blang"},{"id":"1111132004","district_id":"1111132","postal_code":"24252","name":"Bireuen Meunasah Capa"},{"id":"1111132005","district_id":"1111132","postal_code":"24252","name":"Bireuen Meunasah Dayah"},{"id":"1111132006","district_id":"1111132","postal_code":"24252","name":"Bireuen Mns. Tgk Digadon"},{"id":"1111132007","district_id":"1111132","postal_code":"24252","name":"Geudong-geudong"},{"id":"1111132008","district_id":"1111132","postal_code":"24252","name":"Pulo Ara Geudong Teungoh"},{"id":"1111132009","district_id":"1111132","postal_code":"24252","name":"Geudong Aleu"},{"id":"1111132010","district_id":"1111132","postal_code":"24252","name":"Pulo Kiton"},{"id":"1111132011","district_id":"1111132","postal_code":"24252","name":"Lhok Awe Teungoh"},{"id":"1111132012","district_id":"1111132","postal_code":"24252","name":"Geulanggang Teungoh"},{"id":"1111132013","district_id":"1111132","postal_code":"24252","name":"Cot Gapu"},{"id":"1111132014","district_id":"1111132","postal_code":"24252","name":"Geulanggang Kulam"},{"id":"1111132015","district_id":"1111132","postal_code":"24252","name":"Geulanggang Gampong"},{"id":"1111132016","district_id":"1111132","postal_code":"24252","name":"Blang Tingkeum"},{"id":"1111132017","district_id":"1111132","postal_code":"24252","name":"Buket Teukueh"},{"id":"1111132018","district_id":"1111132","postal_code":"24252","name":"Blang Reuling"},{"id":"1111132019","district_id":"1111132","postal_code":"24252","name":"Cot Jrat"},{"id":"1111132020","district_id":"1111132","postal_code":"24252","name":"Cot Peutek"},{"id":"1111132021","district_id":"1111132","postal_code":"24252","name":"Uteun Reutoh"},{"id":"1111132022","district_id":"1111132","postal_code":"24252","name":"Geulanggang Baro"},{"id":"1111132023","district_id":"1111132","postal_code":"24252","name":"Gampong Baro"}]