[{"id":"1112062001","district_id":"1112062","postal_code":"23767","name":"Pante Rakyat"},{"id":"1112062002","district_id":"1112062","postal_code":"23767","name":"Ie Mirah"},{"id":"1112062003","district_id":"1112062","postal_code":"23767","name":"Gunung Samarinda"},{"id":"1112062004","district_id":"1112062","postal_code":"23767","name":"Alue Jeuruejak"},{"id":"1112062005","district_id":"1112062","postal_code":"23767","name":"Blang Dalam"},{"id":"1112062006","district_id":"1112062","postal_code":"23767","name":"Alue Peunawa"},{"id":"1112062007","district_id":"1112062","postal_code":"23767","name":"Pante Cermin"},{"id":"1112062008","district_id":"1112062","postal_code":"23767","name":"Blang Raja"},{"id":"1112062009","district_id":"1112062","postal_code":"23767","name":"Rukoen Dame"},{"id":"1112062010","district_id":"1112062","postal_code":"23767","name":"Simpang Gadeng"},{"id":"1112062011","district_id":"1112062","postal_code":"23767","name":"Teladan Jaya"},{"id":"1112062012","district_id":"1112062","postal_code":"23767","name":"Lhok Gayo"},{"id":"1112062013","district_id":"1112062","postal_code":"23767","name":"Alue Dawah"},{"id":"1112062014","district_id":"1112062","postal_code":"23767","name":"Cot Seumantok"}]