[{"id":"1113042001","district_id":"1113042","postal_code":"24656","name":"Jabo"},{"id":"1113042002","district_id":"1113042","postal_code":"24656","name":"Kutesange"},{"id":"1113042003","district_id":"1113042","postal_code":"24656","name":"Padang"},{"id":"1113042006","district_id":"1113042","postal_code":"24656","name":"Rumpi"},{"id":"1113042007","district_id":"1113042","postal_code":"24656","name":"Bukut"},{"id":"1113042008","district_id":"1113042","postal_code":"24656","name":"Terangun"},{"id":"1113042010","district_id":"1113042","postal_code":"24656","name":"Rempelam Pinang"},{"id":"1113042011","district_id":"1113042","postal_code":"24656","name":"Soyo"},{"id":"1113042012","district_id":"1113042","postal_code":"24656","name":"Terlis"},{"id":"1113042013","district_id":"1113042","postal_code":"24656","name":"Kutereje"},{"id":"1113042014","district_id":"1113042","postal_code":"24656","name":"Persada Tongra"},{"id":"1113042015","district_id":"1113042","postal_code":"24656","name":"Berhut"},{"id":"1113042016","district_id":"1113042","postal_code":"24656","name":"Gewat"},{"id":"1113042017","district_id":"1113042","postal_code":"24656","name":"Pantan Lues"},{"id":"1113042018","district_id":"1113042","postal_code":"24656","name":"Makmur Jaya"},{"id":"1113042020","district_id":"1113042","postal_code":"24656","name":"Blang Kuncir"},{"id":"1113042023","district_id":"1113042","postal_code":"24656","name":"Reje Pudung"},{"id":"1113042024","district_id":"1113042","postal_code":"24656","name":"Garut"},{"id":"1113042025","district_id":"1113042","postal_code":"24656","name":"Telege Jernih"},{"id":"1113042026","district_id":"1113042","postal_code":"24656","name":"Rime Raya"},{"id":"1113042027","district_id":"1113042","postal_code":"24656","name":"Lestari"},{"id":"1113042028","district_id":"1113042","postal_code":"24656","name":"Gawar Belangi"},{"id":"1113042029","district_id":"1113042","postal_code":"24656","name":"Blang Kala"}]