[{"id":"1114072001","district_id":"1114072","postal_code":"23657","name":"Ujong Muloh"},{"id":"1114072002","district_id":"1114072","postal_code":"23657","name":"Janguet"},{"id":"1114072003","district_id":"1114072","postal_code":"23657","name":"Meunasah Rayeuk"},{"id":"1114072004","district_id":"1114072","postal_code":"23657","name":"Mukhan"},{"id":"1114072005","district_id":"1114072","postal_code":"23657","name":"Meunasah Teungoh"},{"id":"1114072006","district_id":"1114072","postal_code":"23657","name":"Meunasah Tutong"},{"id":"1114072007","district_id":"1114072","postal_code":"23657","name":"Babah Dua"},{"id":"1114072008","district_id":"1114072","postal_code":"23657","name":"Alue Mie"},{"id":"1114072009","district_id":"1114072","postal_code":"23657","name":"Teumareum"},{"id":"1114072010","district_id":"1114072","postal_code":"23657","name":"Kuala"},{"id":"1114072011","district_id":"1114072","postal_code":"23657","name":"Meudhang Ghon"},{"id":"1114072012","district_id":"1114072","postal_code":"23657","name":"Kareung Ateuh"},{"id":"1114072013","district_id":"1114072","postal_code":"23657","name":"Keude Unga"},{"id":"1114072014","district_id":"1114072","postal_code":"23657","name":"Ceunamprong"}]