[{"id":"1116022001","district_id":"1116022","postal_code":"24470","name":"Mesjid Sungai Iyu"},{"id":"1116022002","district_id":"1116022","postal_code":"24470","name":"Alur Cantek"},{"id":"1116022003","district_id":"1116022","postal_code":"24470","name":"Tanjung Lipat I"},{"id":"1116022004","district_id":"1116022","postal_code":"24470","name":"Tanjung Lipat Ii"},{"id":"1116022005","district_id":"1116022","postal_code":"24470","name":"Seuneubok Dalam Mesjid"},{"id":"1116022006","district_id":"1116022","postal_code":"24470","name":"Bandar Baru"},{"id":"1116022007","district_id":"1116022","postal_code":"24470","name":"Cinta Raja"},{"id":"1116022008","district_id":"1116022","postal_code":"24470","name":"Kuala Genting"},{"id":"1116022009","district_id":"1116022","postal_code":"24470","name":"Bandar Khalifah"},{"id":"1116022010","district_id":"1116022","postal_code":"24470","name":"Suka Mulia Bendahara"},{"id":"1116022011","district_id":"1116022","postal_code":"24470","name":"Seuneubok Aceh"},{"id":"1116022012","district_id":"1116022","postal_code":"24470","name":"Tengku Tinggi"},{"id":"1116022013","district_id":"1116022","postal_code":"24470","name":"Perkebunan Sungai Iyu"},{"id":"1116022014","district_id":"1116022","postal_code":"24470","name":"Marlempang"},{"id":"1116022015","district_id":"1116022","postal_code":"24470","name":"Balai"},{"id":"1116022016","district_id":"1116022","postal_code":"24470","name":"Lubuk Batil"},{"id":"1116022017","district_id":"1116022","postal_code":"24470","name":"Lambung Blang"},{"id":"1116022018","district_id":"1116022","postal_code":"24470","name":"Tanjung Parit"},{"id":"1116022019","district_id":"1116022","postal_code":"24470","name":"Tanjung"},{"id":"1116022020","district_id":"1116022","postal_code":"24470","name":"Raja"},{"id":"1116022021","district_id":"1116022","postal_code":"24470","name":"Tumpok Tengoh"},{"id":"1116022029","district_id":"1116022","postal_code":"24470","name":"Upah"},{"id":"1116022030","district_id":"1116022","postal_code":"24470","name":"Perkebunan Upah"},{"id":"1116022031","district_id":"1116022","postal_code":"24470","name":"Matang Tepah"},{"id":"1116022035","district_id":"1116022","postal_code":"24470","name":"Seuneubok Dalam Upah"},{"id":"1116022036","district_id":"1116022","postal_code":"24470","name":"Mesjid Bendahara"},{"id":"1116022037","district_id":"1116022","postal_code":"24470","name":"Teluk Kemiri"},{"id":"1116022038","district_id":"1116022","postal_code":"24470","name":"Teluk Kepayang"},{"id":"1116022039","district_id":"1116022","postal_code":"24470","name":"Teluk Halban"},{"id":"1116022040","district_id":"1116022","postal_code":"24470","name":"Rantau Pakam"},{"id":"1116022041","district_id":"1116022","postal_code":"24470","name":"Tanjung Binjai"},{"id":"1116022042","district_id":"1116022","postal_code":"24470","name":"Tanjung Mulia"},{"id":"1116022043","district_id":"1116022","postal_code":"24470","name":"Kuala Penaga"}]