[{"id":"1117012001","district_id":"1117012","postal_code":"24554","name":"Blang Rakal"},{"id":"1117012002","district_id":"1117012","postal_code":"24554","name":"Negeri Antara"},{"id":"1117012003","district_id":"1117012","postal_code":"24554","name":"Alur Cincin"},{"id":"1117012004","district_id":"1117012","postal_code":"24554","name":"Pantan Sinaku"},{"id":"1117012005","district_id":"1117012","postal_code":"24554","name":"Bintang Berangun"},{"id":"1117012006","district_id":"1117012","postal_code":"24554","name":"Taman Firdaus"},{"id":"1117012007","district_id":"1117012","postal_code":"24554","name":"Uning Mas"},{"id":"1117012008","district_id":"1117012","postal_code":"24554","name":"Perdamaian"},{"id":"1117012009","district_id":"1117012","postal_code":"24554","name":"Ulu Naron"},{"id":"1117012010","district_id":"1117012","postal_code":"24554","name":"Pantan Lah"},{"id":"1117012011","district_id":"1117012","postal_code":"24554","name":"Pancar Jelobok"},{"id":"1117012012","district_id":"1117012","postal_code":"24554","name":"Alur Gading"},{"id":"1117012013","district_id":"1117012","postal_code":"24554","name":"Rime Raya"},{"id":"1117012014","district_id":"1117012","postal_code":"24554","name":"Singah Mulo"},{"id":"1117012015","district_id":"1117012","postal_code":"24554","name":"Simpang Lancang"},{"id":"1117012016","district_id":"1117012","postal_code":"24554","name":"Wih Porak"},{"id":"1117012017","district_id":"1117012","postal_code":"24554","name":"Bener Meriah"},{"id":"1117012018","district_id":"1117012","postal_code":"24554","name":"Musara 58"},{"id":"1117012019","district_id":"1117012","postal_code":"24554","name":"Musara Pakat"},{"id":"1117012020","district_id":"1117012","postal_code":"24554","name":"Rata Ara"},{"id":"1117012021","district_id":"1117012","postal_code":"24554","name":"Gemasih"},{"id":"1117012022","district_id":"1117012","postal_code":"24554","name":"Pulo Intan"},{"id":"1117012023","district_id":"1117012","postal_code":"24554","name":"Blang Ara"}]