[{"id":"1118082001","district_id":"1118082","postal_code":"24185","name":"Sagoe"},{"id":"1118082002","district_id":"1118082","postal_code":"24185","name":"Mee Peuduek"},{"id":"1118082003","district_id":"1118082","postal_code":"24185","name":"Mesjid Peuduek"},{"id":"1118082004","district_id":"1118082","postal_code":"24185","name":"Tuha"},{"id":"1118082005","district_id":"1118082","postal_code":"24185","name":"Reuseb"},{"id":"1118082006","district_id":"1118082","postal_code":"24185","name":"Dee"},{"id":"1118082007","district_id":"1118082","postal_code":"24185","name":"Panton Raya"},{"id":"1118082008","district_id":"1118082","postal_code":"24185","name":"Deah Teumanah"},{"id":"1118082009","district_id":"1118082","postal_code":"24185","name":"Tampui"},{"id":"1118082010","district_id":"1118082","postal_code":"24185","name":"Keude Trienggadeng"},{"id":"1118082011","district_id":"1118082","postal_code":"24185","name":"Raya"},{"id":"1118082012","district_id":"1118082","postal_code":"24185","name":"Paya"},{"id":"1118082013","district_id":"1118082","postal_code":"24185","name":"Meue"},{"id":"1118082014","district_id":"1118082","postal_code":"24185","name":"Mesjid Trienggadeng"},{"id":"1118082015","district_id":"1118082","postal_code":"24185","name":"Teungkluet"},{"id":"1118082016","district_id":"1118082","postal_code":"24185","name":"Matang"},{"id":"1118082017","district_id":"1118082","postal_code":"24185","name":"Deah Ujong Baroh"},{"id":"1118082018","district_id":"1118082","postal_code":"24185","name":"Peulandok Teungoh"},{"id":"1118082019","district_id":"1118082","postal_code":"24185","name":"Peulandok Tunong"},{"id":"1118082020","district_id":"1118082","postal_code":"24185","name":"Deah Pangwa"},{"id":"1118082021","district_id":"1118082","postal_code":"24185","name":"Meucat"},{"id":"1118082022","district_id":"1118082","postal_code":"24185","name":"Cot Makaso"},{"id":"1118082023","district_id":"1118082","postal_code":"24185","name":"Buloh"},{"id":"1118082024","district_id":"1118082","postal_code":"24185","name":"Mee Pangwa"},{"id":"1118082025","district_id":"1118082","postal_code":"24185","name":"Kuta Pangwa"},{"id":"1118082026","district_id":"1118082","postal_code":"24185","name":"Cot Lheue Rheng"},{"id":"1118082027","district_id":"1118082","postal_code":"24185","name":"Rawasari"}]