[{"id":"1173032001","district_id":"1173032","postal_code":"24375","name":"Kuala"},{"id":"1173032002","district_id":"1173032","postal_code":"24375","name":"Blang Cut"},{"id":"1173032003","district_id":"1173032","postal_code":"24375","name":"Jambo Mesjid"},{"id":"1173032004","district_id":"1173032","postal_code":"24375","name":"Jambo Timu"},{"id":"1173032005","district_id":"1173032","postal_code":"24375","name":"Tunong"},{"id":"1173032006","district_id":"1173032","postal_code":"24375","name":"Blang Teue"},{"id":"1173032007","district_id":"1173032","postal_code":"24375","name":"Teungoh"},{"id":"1173032008","district_id":"1173032","postal_code":"24375","name":"Baloi"},{"id":"1173032009","district_id":"1173032","postal_code":"24375","name":"Mane Kareung"},{"id":"1173032010","district_id":"1173032","postal_code":"24375","name":"Asan Kareung"},{"id":"1173032011","district_id":"1173032","postal_code":"24375","name":"Rayeuk Kareung"},{"id":"1173032012","district_id":"1173032","postal_code":"24375","name":"Blang Punteuet"},{"id":"1173032013","district_id":"1173032","postal_code":"24375","name":"Kumbang Punteuet"},{"id":"1173032014","district_id":"1173032","postal_code":"24375","name":"Mesjid Punteuet"},{"id":"1173032015","district_id":"1173032","postal_code":"24375","name":"Ulee Blang Mane"},{"id":"1173032016","district_id":"1173032","postal_code":"24375","name":"Keude Punteuet"},{"id":"1173032017","district_id":"1173032","postal_code":"24375","name":"Alue Lim"},{"id":"1173032018","district_id":"1173032","postal_code":"24375","name":"Blang Buloh"},{"id":"1173032019","district_id":"1173032","postal_code":"24375","name":"Blang Weu Panjoe"},{"id":"1173032020","district_id":"1173032","postal_code":"24375","name":"Jeulikat"},{"id":"1173032021","district_id":"1173032","postal_code":"24375","name":"Blang Weu Baroh"},{"id":"1173032022","district_id":"1173032","postal_code":"24375","name":"Seuneubok"}]