[{"id":"1174012007","district_id":"1174012","postal_code":"24411","name":"Buket Medang Ara"},{"id":"1174012009","district_id":"1174012","postal_code":"24411","name":"Matang Seutui"},{"id":"1174012010","district_id":"1174012","postal_code":"24411","name":"Buket Pulo"},{"id":"1174012011","district_id":"1174012","postal_code":"24411","name":"Matang Panyang"},{"id":"1174012012","district_id":"1174012","postal_code":"24411","name":"Simpang Wie"},{"id":"1174012013","district_id":"1174012","postal_code":"24411","name":"Buket Rata"},{"id":"1174012014","district_id":"1174012","postal_code":"24411","name":"Buket Meutuah"},{"id":"1174012015","district_id":"1174012","postal_code":"24411","name":"Alue Merbau"},{"id":"1174012016","district_id":"1174012","postal_code":"24411","name":"Matang Cengai"},{"id":"1174012017","district_id":"1174012","postal_code":"24411","name":"Seunebok Antara"},{"id":"1174012018","district_id":"1174012","postal_code":"24411","name":"Alue Pineung"},{"id":"1174012019","district_id":"1174012","postal_code":"24411","name":"Sukarejo"},{"id":"1174012020","district_id":"1174012","postal_code":"24411","name":"Cinta Raja"},{"id":"1174012021","district_id":"1174012","postal_code":"24411","name":"Sungai Lueng"},{"id":"1174012025","district_id":"1174012","postal_code":"24411","name":"Alue Pineung Timue"},{"id":"1174012026","district_id":"1174012","postal_code":"24411","name":"Kapa"}]