[{"id":"1174022005","district_id":"1174022","postal_code":"24415","name":"Lhok Banie"},{"id":"1174022006","district_id":"1174022","postal_code":"24415","name":"Pb. Teungoh"},{"id":"1174022007","district_id":"1174022","postal_code":"24414","name":"Pb. Beuramo"},{"id":"1174022008","district_id":"1174022","postal_code":"24451","name":"Simpang Lhee"},{"id":"1174022009","district_id":"1174022","postal_code":"24415","name":"Seuriget"},{"id":"1174022015","district_id":"1174022","postal_code":"24413","name":"Matang Seulimeng"},{"id":"1174022016","district_id":"1174022","postal_code":"24410","name":"Sungai Pauh"},{"id":"1174022017","district_id":"1174022","postal_code":"24410","name":"Kuala Langsa"},{"id":"1174022018","district_id":"1174022","postal_code":"24410","name":"Teulaga Tujuh"},{"id":"1174022019","district_id":"1174022","postal_code":"24410","name":"Serambi Indah"},{"id":"1174022020","district_id":"1174022","postal_code":"24410","name":"Sungai Pauh Pusaka"},{"id":"1174022021","district_id":"1174022","postal_code":"24410","name":"Sungai Pauh Tanjong"},{"id":"1174022022","district_id":"1174022","postal_code":"24410","name":"Sungai Pauh Firdaus"}]