[{"id":"1202032001","district_id":"1202032","postal_code":"22461","name":"Dolok Nauli"},{"id":"1202032002","district_id":"1202032","postal_code":"22461","name":"Pansurbatu"},{"id":"1202032003","district_id":"1202032","postal_code":"22461","name":"Pardomuan Nauli"},{"id":"1202032004","district_id":"1202032","postal_code":"22461","name":"Siantar Naipospos"},{"id":"1202032005","district_id":"1202032","postal_code":"22461","name":"Sibalanga"},{"id":"1202032006","district_id":"1202032","postal_code":"22461","name":"Pagaran Lambung Iii"},{"id":"1202032007","district_id":"1202032","postal_code":"22461","name":"Pagaran Lambung Iv"},{"id":"1202032008","district_id":"1202032","postal_code":"22461","name":"Adian Koting"},{"id":"1202032009","district_id":"1202032","postal_code":"22461","name":"Pangaran Pisang"},{"id":"1202032010","district_id":"1202032","postal_code":"22461","name":"Banuaji Iv"},{"id":"1202032011","district_id":"1202032","postal_code":"22461","name":"Banuaji I"},{"id":"1202032012","district_id":"1202032","postal_code":"22461","name":"Banuaji Ii"},{"id":"1202032013","district_id":"1202032","postal_code":"22461","name":"Pangaran Lambung I"},{"id":"1202032014","district_id":"1202032","postal_code":"22461","name":"Pangaran Lambung Ii"},{"id":"1202032015","district_id":"1202032","postal_code":"22461","name":"Pansurbatu I"},{"id":"1202032016","district_id":"1202032","postal_code":"22461","name":"Pansurbatu Ii"}]