[{"id":"1202052002","district_id":"1202052","postal_code":"22463","name":"Simasom"},{"id":"1202052003","district_id":"1202052","postal_code":"22463","name":"Janji Natogu"},{"id":"1202052004","district_id":"1202052","postal_code":"22463","name":"Pagur Dotan"},{"id":"1202052005","district_id":"1202052","postal_code":"22463","name":"Sibaganding"},{"id":"1202052006","district_id":"1202052","postal_code":"22463","name":"Lumban Garaga"},{"id":"1202052007","district_id":"1202052","postal_code":"22463","name":"Sitolu Ama"},{"id":"1202052008","district_id":"1202052","postal_code":"22463","name":"Lumban Tonga"},{"id":"1202052009","district_id":"1202052","postal_code":"22463","name":"Lumban Dolok"},{"id":"1202052010","district_id":"1202052","postal_code":"22463","name":"Simataniari"},{"id":"1202052011","district_id":"1202052","postal_code":"22463","name":"Lumban Jaean"},{"id":"1202052012","district_id":"1202052","postal_code":"22463","name":"Huta Barat"},{"id":"1202052013","district_id":"1202052","postal_code":"22463","name":"Lontung Dolok"},{"id":"1202052014","district_id":"1202052","postal_code":"22463","name":"Simanampang"},{"id":"1202052015","district_id":"1202052","postal_code":"22463","name":"Lobu Pining"},{"id":"1202052016","district_id":"1202052","postal_code":"22463","name":"Pantis"},{"id":"1202052017","district_id":"1202052","postal_code":"22463","name":"Lumban Gaol"},{"id":"1202052018","district_id":"1202052","postal_code":"22463","name":"Simardangiang"},{"id":"1202052019","district_id":"1202052","postal_code":"22463","name":"Simasom Toruan"}]