[{"id":"1202062002","district_id":"1202062","postal_code":"22465","name":"Tordolok Nauli"},{"id":"1202062003","district_id":"1202062","postal_code":"22465","name":"Sigurung-gurung"},{"id":"1202062004","district_id":"1202062","postal_code":"22465","name":"Silangkitang"},{"id":"1202062005","district_id":"1202062","postal_code":"22465","name":"Sitoluompu"},{"id":"1202062006","district_id":"1202062","postal_code":"22465","name":"Siopat Bahal"},{"id":"1202062007","district_id":"1202062","postal_code":"22465","name":"Pardomuan Nainggolan"},{"id":"1202062008","district_id":"1202062","postal_code":"22465","name":"Nahornop Marsada"},{"id":"1202062009","district_id":"1202062","postal_code":"22465","name":"Parsaoran Samosir"},{"id":"1202062010","district_id":"1202062","postal_code":"22465","name":"Suka Maju"},{"id":"1202062011","district_id":"1202062","postal_code":"22465","name":"Setia"},{"id":"1202062012","district_id":"1202062","postal_code":"22465","name":"Parsaoran Nainggolan"},{"id":"1202062013","district_id":"1202062","postal_code":"22465","name":"Pardameannainggolan"}]