[{"id":"1203322009","district_id":"1203322","postal_code":"22773","name":"Janji Mauli Mt"},{"id":"1203322008","district_id":"1203322","postal_code":"22773","name":"Muara Tais Iii"},{"id":"1203322006","district_id":"1203322","postal_code":"22773","name":"Muara Tais I"},{"id":"1203322007","district_id":"1203322","postal_code":"22773","name":"Muara Tais Ii"},{"id":"1203322005","district_id":"1203322","postal_code":"22773","name":"Huta Holbung"},{"id":"1203322004","district_id":"1203322","postal_code":"22773","name":"Sipangko"},{"id":"1203322003","district_id":"1203322","postal_code":"22773","name":"Basilam Baru"},{"id":"1203322015","district_id":"1203322","postal_code":"22773","name":"Tatengger"},{"id":"1203322012","district_id":"1203322","postal_code":"22773","name":"Pasir Matogu"},{"id":"1203322014","district_id":"1203322","postal_code":"22773","name":"Muara Purba Nauli"},{"id":"1203322013","district_id":"1203322","postal_code":"22773","name":"Sori Manoan"},{"id":"1203322011","district_id":"1203322","postal_code":"22773","name":"Pangaribuan"},{"id":"1203322010","district_id":"1203322","postal_code":"22773","name":"Pargumbangan"}]