[{"id":"1203072005","district_id":"1203072","postal_code":"22773","name":"Aek Nauli"},{"id":"1203072016","district_id":"1203072","postal_code":"22773","name":"Sidadi I"},{"id":"1203072018","district_id":"1203072","postal_code":"22773","name":"Janji Manaon"},{"id":"1203072020","district_id":"1203072","postal_code":"22773","name":"Sitampa Simatoras"},{"id":"1203072021","district_id":"1203072","postal_code":"22773","name":"Pasar Lama"},{"id":"1203072027","district_id":"1203072","postal_code":"22773","name":"Benteng Huraba"},{"id":"1203072029","district_id":"1203072","postal_code":"22773","name":"Padang Kahombu"},{"id":"1203072030","district_id":"1203072","postal_code":"22773","name":"Sorik"},{"id":"1203072045","district_id":"1203072","postal_code":"22773","name":"Sibulele Muara"},{"id":"1203072047","district_id":"1203072","postal_code":"22773","name":"Bargot Topong"},{"id":"1203072053","district_id":"1203072","postal_code":"22773","name":"Sigulang Losung"},{"id":"1203072055","district_id":"1203072","postal_code":"22773","name":"Hurase"},{"id":"1203072057","district_id":"1203072","postal_code":"22773","name":"Sorimadingin Pp"},{"id":"1203072058","district_id":"1203072","postal_code":"22773","name":"Huta Padang"},{"id":"1203072062","district_id":"1203072","postal_code":"22773","name":"Tahalak Ujung Gading"},{"id":"1203072063","district_id":"1203072","postal_code":"22773","name":"Sidadi Ii"},{"id":"1203072067","district_id":"1203072","postal_code":"22773","name":"Aek Gunung"}]