[{"id":"1204272001","district_id":"1204272","postal_code":"22861","name":"Orahili"},{"id":"1204272002","district_id":"1204272","postal_code":"22861","name":"Hiliwetogela"},{"id":"1204272003","district_id":"1204272","postal_code":"22861","name":"Lawalawa Luo"},{"id":"1204272004","district_id":"1204272","postal_code":"22861","name":"Hilimbowo"},{"id":"1204272005","district_id":"1204272","postal_code":"22861","name":"Hilibadalu"},{"id":"1204272006","district_id":"1204272","postal_code":"22861","name":"Fatodano"},{"id":"1204272007","district_id":"1204272","postal_code":"22861","name":"Fahandrona"},{"id":"1204272008","district_id":"1204272","postal_code":"22861","name":"Onodalinga"},{"id":"1204272009","district_id":"1204272","postal_code":"22861","name":"Holi"},{"id":"1204272010","district_id":"1204272","postal_code":"22861","name":"Sisobahili Ulu Gawo"},{"id":"1204272011","district_id":"1204272","postal_code":"22861","name":"Sifaroasi Ulu Gawo"},{"id":"1204272012","district_id":"1204272","postal_code":"22861","name":"Mohili"},{"id":"1204272013","district_id":"1204272","postal_code":"22861","name":"Hiligafoa"},{"id":"1204272014","district_id":"1204272","postal_code":"22861","name":"Sisarahili Soromaasi"}]