[{"id":"1207262001","district_id":"1207262","postal_code":"20371","name":"Pematang Lalang"},{"id":"1207262002","district_id":"1207262","postal_code":"20371","name":"Sambirejo Timur"},{"id":"1207262003","district_id":"1207262","postal_code":"20371","name":"Kolam"},{"id":"1207262004","district_id":"1207262","postal_code":"20371","name":"Percut"},{"id":"1207262005","district_id":"1207262","postal_code":"20371","name":"Laut Dendang"},{"id":"1207262006","district_id":"1207262","postal_code":"20371","name":"Tembung"},{"id":"1207262007","district_id":"1207262","postal_code":"20371","name":"Cinta Rakyat"},{"id":"1207262008","district_id":"1207262","postal_code":"20371","name":"Amplas"},{"id":"1207262009","district_id":"1207262","postal_code":"20371","name":"Saentis"},{"id":"1207262010","district_id":"1207262","postal_code":"20371","name":"Sampali"},{"id":"1207262011","district_id":"1207262","postal_code":"20371","name":"Bandar Khalipah"},{"id":"1207262012","district_id":"1207262","postal_code":"20371","name":"Bandar Klippa"},{"id":"1207262013","district_id":"1207262","postal_code":"20371","name":"Tanjung Selamat"},{"id":"1207262014","district_id":"1207262","postal_code":"20371","name":"Tanjung Rejo"},{"id":"1207262015","district_id":"1207262","postal_code":"20371","name":"Medan Estate"},{"id":"1207262016","district_id":"1207262","postal_code":"20371","name":"Cinta Damai"},{"id":"1207262017","district_id":"1207262","postal_code":"20371","name":"Bandar Setia"},{"id":"1207262018","district_id":"1207262","postal_code":"20371","name":"Sei Rotan"}]