[{"id":"1207232001","district_id":"1207232","postal_code":"20351","name":"Sei Semayang"},{"id":"1207232002","district_id":"1207232","postal_code":"20351","name":"Lalang"},{"id":"1207232003","district_id":"1207232","postal_code":"20351","name":"Puji Mulyo"},{"id":"1207232004","district_id":"1207232","postal_code":"20351","name":"Paya Geli"},{"id":"1207232005","district_id":"1207232","postal_code":"20351","name":"Mulio Rejo"},{"id":"1207232006","district_id":"1207232","postal_code":"20351","name":"Purwodadi"},{"id":"1207232007","district_id":"1207232","postal_code":"20351","name":"Sumber Melati Diski"},{"id":"1207232008","district_id":"1207232","postal_code":"20351","name":"Tanjung Gusta"},{"id":"1207232009","district_id":"1207232","postal_code":"20351","name":"Helvetia"},{"id":"1207232010","district_id":"1207232","postal_code":"20351","name":"Medan Krio"},{"id":"1207232011","district_id":"1207232","postal_code":"20351","name":"Sei Mencirim"},{"id":"1207232012","district_id":"1207232","postal_code":"20351","name":"Sukamaju"},{"id":"1207232013","district_id":"1207232","postal_code":"20351","name":"Sunggal Kanan"},{"id":"1207232014","district_id":"1207232","postal_code":"20351","name":"Serbajadi"},{"id":"1207232015","district_id":"1207232","postal_code":"20351","name":"Telaga Sari"},{"id":"1207232016","district_id":"1207232","postal_code":"20351","name":"Tanjung Selamat"},{"id":"1207232017","district_id":"1207232","postal_code":"20351","name":"Sei Beras Sekata"}]