[{"id":"1207202001","district_id":"1207202","postal_code":"20582","name":"Tiga Juhar"},{"id":"1207202002","district_id":"1207202","postal_code":"20582","name":"Tanjung Bampu"},{"id":"1207202003","district_id":"1207202","postal_code":"20582","name":"Rumah Rih"},{"id":"1207202004","district_id":"1207202","postal_code":"20582","name":"Liang Muda"},{"id":"1207202005","district_id":"1207202","postal_code":"20582","name":"Durian Iv Mbelang"},{"id":"1207202006","district_id":"1207202","postal_code":"20582","name":"Tanah Gara Hulu"},{"id":"1207202007","district_id":"1207202","postal_code":"20582","name":"Gunung Manupak A"},{"id":"1207202008","district_id":"1207202","postal_code":"20582","name":"Bah Bah Buntu"},{"id":"1207202009","district_id":"1207202","postal_code":"20582","name":"Tanjung Muda"},{"id":"1207202010","district_id":"1207202","postal_code":"20582","name":"Tanjung Raja"},{"id":"1207202011","district_id":"1207202","postal_code":"20582","name":"Kuta Mbelin"},{"id":"1207202012","district_id":"1207202","postal_code":"20582","name":"Rumah Sumbul"},{"id":"1207202013","district_id":"1207202","postal_code":"20582","name":"Ranggit-git"},{"id":"1207202014","district_id":"1207202","postal_code":"20582","name":"Liang Pematang"},{"id":"1207202015","district_id":"1207202","postal_code":"20582","name":"Gunung Manupak B"},{"id":"1207202016","district_id":"1207202","postal_code":"20582","name":"Rumah Lengo"},{"id":"1207202017","district_id":"1207202","postal_code":"20582","name":"Sipinggan"},{"id":"1207202018","district_id":"1207202","postal_code":"20582","name":"Tanjung Timur"},{"id":"1207202019","district_id":"1207202","postal_code":"20582","name":"Durian Tinggung"},{"id":"1207202020","district_id":"1207202","postal_code":"20582","name":"Sibunga Bunga Hilir"}]