[{"id":"1207242001","district_id":"1207242","postal_code":"20374","name":"Hamparan Perak"},{"id":"1207242002","district_id":"1207242","postal_code":"20374","name":"Sei Baharu"},{"id":"1207242003","district_id":"1207242","postal_code":"20374","name":"Klumpang Kebun"},{"id":"1207242004","district_id":"1207242","postal_code":"20374","name":"Klumpang Kampung"},{"id":"1207242005","district_id":"1207242","postal_code":"20374","name":"Klambir Lima Kampung"},{"id":"1207242006","district_id":"1207242","postal_code":"20374","name":"Tandem Hulu Ii"},{"id":"1207242007","district_id":"1207242","postal_code":"20374","name":"Klambir"},{"id":"1207242008","district_id":"1207242","postal_code":"20374","name":"Selemak"},{"id":"1207242009","district_id":"1207242","postal_code":"20374","name":"Kelambir Lima Kebun"},{"id":"1207242010","district_id":"1207242","postal_code":"20374","name":"Sialang Muda"},{"id":"1207242011","district_id":"1207242","postal_code":"20374","name":"Paya Bakung"},{"id":"1207242012","district_id":"1207242","postal_code":"20374","name":"Tandem Hulu I"},{"id":"1207242013","district_id":"1207242","postal_code":"20374","name":"Tandem Hilir I"},{"id":"1207242014","district_id":"1207242","postal_code":"20374","name":"Tandem Hilir Ii"},{"id":"1207242015","district_id":"1207242","postal_code":"20374","name":"Kota Datar"},{"id":"1207242016","district_id":"1207242","postal_code":"20374","name":"Bulu Cina"},{"id":"1207242017","district_id":"1207242","postal_code":"20374","name":"Kota Rantang"},{"id":"1207242018","district_id":"1207242","postal_code":"20374","name":"Paluh Manan"},{"id":"1207242019","district_id":"1207242","postal_code":"20374","name":"Lama"},{"id":"1207242020","district_id":"1207242","postal_code":"20374","name":"Paluh Kurau"}]