[{"id":"1209142001","district_id":"1209142","postal_code":"21278","name":"Sei Piring"},{"id":"1209142002","district_id":"1209142","postal_code":"21278","name":"Pulau Rakyat Tua"},{"id":"1209142003","district_id":"1209142","postal_code":"21278","name":"Pulau Rakyat Pekan"},{"id":"1209142004","district_id":"1209142","postal_code":"21278","name":"Orika"},{"id":"1209142005","district_id":"1209142","postal_code":"21278","name":"Manis"},{"id":"1209142006","district_id":"1209142","postal_code":"21278","name":"Tunggul"},{"id":"1209142007","district_id":"1209142","postal_code":"21278","name":"Bangun"},{"id":"1209142008","district_id":"1209142","postal_code":"21278","name":"Persatuan"},{"id":"1209142009","district_id":"1209142","postal_code":"21278","name":"Padang Mahondang"},{"id":"1209142010","district_id":"1209142","postal_code":"21278","name":"Ofa Padang Mahondang"},{"id":"1209142011","district_id":"1209142","postal_code":"21278","name":"Baru"},{"id":"1209142012","district_id":"1209142","postal_code":"21278","name":"Mekar Sari"}]