[{"id":"1212042002","district_id":"1212042","postal_code":"22383","name":"Lumban Rau Selatan"},{"id":"1212042004","district_id":"1212042","postal_code":"22383","name":"Lumban Rau Barat"},{"id":"1212042006","district_id":"1212042","postal_code":"22383","name":"Lumban Balik"},{"id":"1212042007","district_id":"1212042","postal_code":"22383","name":"Panamparan"},{"id":"1212042008","district_id":"1212042","postal_code":"22383","name":"Lumban Pinasa"},{"id":"1212042010","district_id":"1212042","postal_code":"22383","name":"Parsoburan Barat"},{"id":"1212042011","district_id":"1212042","postal_code":"22383","name":"Lumban Ruhap"},{"id":"1212042012","district_id":"1212042","postal_code":"22383","name":"Lumban Pea"},{"id":"1212042014","district_id":"1212042","postal_code":"22383","name":"Hitetano"},{"id":"1212042017","district_id":"1212042","postal_code":"22383","name":"Lobu Hole"},{"id":"1212042018","district_id":"1212042","postal_code":"22383","name":"Batu Nabolon"},{"id":"1212042019","district_id":"1212042","postal_code":"22383","name":"Lumban Gaol"},{"id":"1212042020","district_id":"1212042","postal_code":"22383","name":"Tornagodang"},{"id":"1212042021","district_id":"1212042","postal_code":"22383","name":"Taon Marisi"},{"id":"1212042022","district_id":"1212042","postal_code":"22383","name":"Pagar Batu"},{"id":"1212042023","district_id":"1212042","postal_code":"22383","name":"Sibuntuon"},{"id":"1212042024","district_id":"1212042","postal_code":"22383","name":"Pararungan"},{"id":"1212042025","district_id":"1212042","postal_code":"22383","name":"Lumban Lintong"},{"id":"1212042026","district_id":"1212042","postal_code":"22383","name":"Pangunjungan"},{"id":"1212042027","district_id":"1212042","postal_code":"22383","name":"Lumban Pinasa Saroba"},{"id":"1212042028","district_id":"1212042","postal_code":"22383","name":"Aek Ulok"}]