[{"id":"1212072001","district_id":"1212072","postal_code":"22384","name":"Patane Iv"},{"id":"1212072003","district_id":"1212072","postal_code":"22384","name":"Lumban Gurning"},{"id":"1212072004","district_id":"1212072","postal_code":"22384","name":"Amborgang"},{"id":"1212072005","district_id":"1212072","postal_code":"22384","name":"Nalela"},{"id":"1212072007","district_id":"1212072","postal_code":"22384","name":"Patane Ii"},{"id":"1212072022","district_id":"1212072","postal_code":"22384","name":"Gala Gala Pangkailan"},{"id":"1212072023","district_id":"1212072","postal_code":"22384","name":"Silamosik I"},{"id":"1212072030","district_id":"1212072","postal_code":"22384","name":"Parparean Iv"},{"id":"1212072031","district_id":"1212072","postal_code":"22384","name":"Parparean I"},{"id":"1212072033","district_id":"1212072","postal_code":"22384","name":"Parparean Ii"},{"id":"1212072036","district_id":"1212072","postal_code":"22384","name":"Patane I"},{"id":"1212072040","district_id":"1212072","postal_code":"22384","name":"Patane V"},{"id":"1212072041","district_id":"1212072","postal_code":"22384","name":"Simpang Sigura-gura"},{"id":"1212072042","district_id":"1212072","postal_code":"22384","name":"Raut Bosi"}]