[{"id":"1213012001","district_id":"1213012","postal_code":"22912","name":"Adian Jior"},{"id":"1213012002","district_id":"1213012","postal_code":"22912","name":"Aek Banir"},{"id":"1213012003","district_id":"1213012","postal_code":"22912","name":"Aek Mata"},{"id":"1213012004","district_id":"1213012","postal_code":"22912","name":"Darussalam"},{"id":"1213012005","district_id":"1213012","postal_code":"22912","name":"Gunung Barani"},{"id":"1213012006","district_id":"1213012","postal_code":"22912","name":"Gunung Manaon"},{"id":"1213012007","district_id":"1213012","postal_code":"22918","name":"Gunung Tua Jae"},{"id":"1213012008","district_id":"1213012","postal_code":"22918","name":"Gunung Tua Julu"},{"id":"1213012009","district_id":"1213012","postal_code":"22918","name":"Gunung Tua Tonga"},{"id":"1213012010","district_id":"1213012","postal_code":"22912","name":"Huta Lombang Lubis"},{"id":"1213012012","district_id":"1213012","postal_code":"22918","name":"Ipar Bondar"},{"id":"1213012013","district_id":"1213012","postal_code":"22912","name":"Kampung Padang"},{"id":"1213012015","district_id":"1213012","postal_code":"22912","name":"Lumban Pasir"},{"id":"1213012016","district_id":"1213012","postal_code":"22912","name":"Manyabar"},{"id":"1213012017","district_id":"1213012","postal_code":"22912","name":"Pagaran Tonga"},{"id":"1213012018","district_id":"1213012","postal_code":"22917","name":"Panyabungan Jae"},{"id":"1213012019","district_id":"1213012","postal_code":"22916","name":"Panyabungan Julu"},{"id":"1213012020","district_id":"1213012","postal_code":"22916","name":"Panyabungan Tonga"},{"id":"1213012021","district_id":"1213012","postal_code":"22912","name":"Perbangunan"},{"id":"1213012024","district_id":"1213012","postal_code":"22915","name":"Pidoli Lombang"},{"id":"1213012025","district_id":"1213012","postal_code":"22912","name":"Salam Bue"},{"id":"1213012026","district_id":"1213012","postal_code":"22912","name":"Sarak Matua"},{"id":"1213012027","district_id":"1213012","postal_code":"22912","name":"Sigalapang Julu"},{"id":"1213012028","district_id":"1213012","postal_code":"22912","name":"Siobon Julu"},{"id":"1213012029","district_id":"1213012","postal_code":"22912","name":"Sipapaga"},{"id":"1213012030","district_id":"1213012","postal_code":"22912","name":"Sopobatu"},{"id":"1213012037","district_id":"1213012","postal_code":"22912","name":"Siobon Jae"},{"id":"1213012038","district_id":"1213012","postal_code":"22912","name":"Panggorengan"},{"id":"1213012039","district_id":"1213012","postal_code":"22912","name":"Saba Jambu"},{"id":"1213012040","district_id":"1213012","postal_code":"22912","name":"Manyabar Jae"}]