[{"id":"1213082001","district_id":"1213082","postal_code":"22994","name":"Batahan"},{"id":"1213082002","district_id":"1213082","postal_code":"22994","name":"Botung"},{"id":"1213082003","district_id":"1213082","postal_code":"22994","name":"Gading Bain"},{"id":"1213082004","district_id":"1213082","postal_code":"22994","name":"Gunung Tua Ms"},{"id":"1213082005","district_id":"1213082","postal_code":"22994","name":"Gunung Tua Sm"},{"id":"1213082006","district_id":"1213082","postal_code":"22994","name":"Hutapuli"},{"id":"1213082007","district_id":"1213082","postal_code":"22994","name":"Huta Padang Ms"},{"id":"1213082008","district_id":"1213082","postal_code":"22994","name":"Hutarimbaru Sm"},{"id":"1213082009","district_id":"1213082","postal_code":"22994","name":"Huta Baringin Tb"},{"id":"1213082010","district_id":"1213082","postal_code":"22994","name":"Huta Pungkut Jae"},{"id":"1213082011","district_id":"1213082","postal_code":"22994","name":"Huta Pungkut Tonga"},{"id":"1213082012","district_id":"1213082","postal_code":"22994","name":"Huta Pungkut Julu"},{"id":"1213082013","district_id":"1213082","postal_code":"22994","name":"Huta Dangka"},{"id":"1213082014","district_id":"1213082","postal_code":"22994","name":"Muara Potan"},{"id":"1213082015","district_id":"1213082","postal_code":"22994","name":"Muara Siambak"},{"id":"1213082016","district_id":"1213082","postal_code":"22994","name":"Manambin"},{"id":"1213082017","district_id":"1213082","postal_code":"22994","name":"Muara Pungkut"},{"id":"1213082018","district_id":"1213082","postal_code":"22994","name":"Muara Botung"},{"id":"1213082019","district_id":"1213082","postal_code":"22994","name":"Pagar Gunung"},{"id":"1213082020","district_id":"1213082","postal_code":"22994","name":"Padang Bulan"},{"id":"1213082021","district_id":"1213082","postal_code":"22994","name":"Patialo"},{"id":"1213082022","district_id":"1213082","postal_code":"22994","name":"Saba Dolok"},{"id":"1213082023","district_id":"1213082","postal_code":"22994","name":"Singengu Jae"},{"id":"1213082024","district_id":"1213082","postal_code":"22994","name":"Singengu Julu"},{"id":"1213082025","district_id":"1213082","postal_code":"22994","name":"Sayur Maincat"},{"id":"1213082026","district_id":"1213082","postal_code":"22994","name":"Simpang Tolang Jae"},{"id":"1213082027","district_id":"1213082","postal_code":"22994","name":"Simpang Tolang Julu"},{"id":"1213082028","district_id":"1213082","postal_code":"22994","name":"Sibio Bio"},{"id":"1213082029","district_id":"1213082","postal_code":"22994","name":"Sopo Sorik"},{"id":"1213082030","district_id":"1213082","postal_code":"22994","name":"Simandolam"},{"id":"1213082031","district_id":"1213082","postal_code":"22994","name":"Tombang Bustak"},{"id":"1213082033","district_id":"1213082","postal_code":"22994","name":"Tobang"},{"id":"1213082034","district_id":"1213082","postal_code":"22994","name":"Ujung Marisi"},{"id":"1213082035","district_id":"1213082","postal_code":"22994","name":"Usor Tolang"},{"id":"1213082037","district_id":"1213082","postal_code":"22994","name":"Muara Saladi"}]