[{"id":"1214152001","district_id":"1214152","postal_code":"22866","name":"Hilitotao"},{"id":"1214152002","district_id":"1214152","postal_code":"22866","name":"Hiliorudua"},{"id":"1214152003","district_id":"1214152","postal_code":"22866","name":"Sisobambowo"},{"id":"1214152004","district_id":"1214152","postal_code":"22866","name":"Hiliamauzula"},{"id":"1214152005","district_id":"1214152","postal_code":"22866","name":"Aramo"},{"id":"1214152006","district_id":"1214152","postal_code":"22866","name":"Sikhorilafau"},{"id":"1214152007","district_id":"1214152","postal_code":"22866","name":"Hilifadolo"},{"id":"1214152008","district_id":"1214152","postal_code":"22866","name":"Hume"},{"id":"1214152009","district_id":"1214152","postal_code":"22866","name":"Dao-dao"},{"id":"1214152010","district_id":"1214152","postal_code":"22866","name":"Hilimagiao"},{"id":"1214152011","district_id":"1214152","postal_code":"22866","name":"Hilisawato"},{"id":"1214152012","district_id":"1214152","postal_code":"22866","name":"Balohao"},{"id":"1214152013","district_id":"1214152","postal_code":"22866","name":"Hiligafoa"},{"id":"1214152014","district_id":"1214152","postal_code":"22866","name":"Hilimbowo"},{"id":"1214152015","district_id":"1214152","postal_code":"22866","name":"Hilimezaya"},{"id":"1214152016","district_id":"1214152","postal_code":"22866","name":"Hiliadolowa"},{"id":"1214152017","district_id":"1214152","postal_code":"22866","name":"Hiligumbu"},{"id":"1214152018","district_id":"1214152","postal_code":"22866","name":"Bagoa"}]