[{"id":"1214092001","district_id":"1214092","postal_code":"22873","name":"Sifalago Susua"},{"id":"1214092002","district_id":"1214092","postal_code":"22873","name":"Orahili Susua"},{"id":"1214092003","district_id":"1214092","postal_code":"22873","name":"Hilianaa Susua"},{"id":"1214092004","district_id":"1214092","postal_code":"22873","name":"Hiliorahua"},{"id":"1214092005","district_id":"1214092","postal_code":"22873","name":"Hilimboe"},{"id":"1214092006","district_id":"1214092","postal_code":"22873","name":"Hilimboho"},{"id":"1214092008","district_id":"1214092","postal_code":"22873","name":"Hiliwaebu"},{"id":"1214092009","district_id":"1214092","postal_code":"22873","name":"Hilidanayao"},{"id":"1214092010","district_id":"1214092","postal_code":"22873","name":"Hilizamurugo"},{"id":"1214092011","district_id":"1214092","postal_code":"22873","name":"Sisobahili"},{"id":"1214092012","district_id":"1214092","postal_code":"22873","name":"Dao-dao Zanuwo"},{"id":"1214092013","district_id":"1214092","postal_code":"22873","name":"Hiliorudua"},{"id":"1214092014","district_id":"1214092","postal_code":"22873","name":"Bintang Baru"},{"id":"1214092015","district_id":"1214092","postal_code":"22873","name":"Hilitobara Susua"},{"id":"1214092016","district_id":"1214092","postal_code":"22873","name":"Orahua Uluzoi"},{"id":"1214092017","district_id":"1214092","postal_code":"22873","name":"Hilisibohou"},{"id":"1214092018","district_id":"1214092","postal_code":"22873","name":"Hiliadulosoi"},{"id":"1214092019","district_id":"1214092","postal_code":"22873","name":"Orahili Boe"}]