[{"id":"1214102001","district_id":"1214102","postal_code":"22865","name":"Hilisimaetano"},{"id":"1214102002","district_id":"1214102","postal_code":"22865","name":"Bawogosali"},{"id":"1214102003","district_id":"1214102","postal_code":"22865","name":"Hilifalawu"},{"id":"1214102005","district_id":"1214102","postal_code":"22865","name":"Samadaya Hilisimaetano"},{"id":"1214102006","district_id":"1214102","postal_code":"22865","name":"Idala Jaya Hilisimaetano"},{"id":"1214102007","district_id":"1214102","postal_code":"22865","name":"Pekan Hilisimaetano"},{"id":"1214102008","district_id":"1214102","postal_code":"22865","name":"Bonia Hilisimaetano"},{"id":"1214102009","district_id":"1214102","postal_code":"22865","name":"Ndraso Hilisimaetano"},{"id":"1214102010","district_id":"1214102","postal_code":"22865","name":"Faomasi Hilisimaetano"},{"id":"1214102011","district_id":"1214102","postal_code":"22865","name":"Eho Hilisimaetano"},{"id":"1214102012","district_id":"1214102","postal_code":"22865","name":"Sotoo Hilisimaetano"},{"id":"1214102013","district_id":"1214102","postal_code":"22865","name":"Hiliaurifa Hilisimaetano"},{"id":"1214102015","district_id":"1214102","postal_code":"22865","name":"Bawohosi Maniamolo"},{"id":"1214102016","district_id":"1214102","postal_code":"22865","name":"Bawosaodano"}]