[{"id":"1217052001","district_id":"1217052","postal_code":"22391","name":"Sosor Dolok"},{"id":"1217052002","district_id":"1217052","postal_code":"22391","name":"Partungkonaginjang"},{"id":"1217052003","district_id":"1217052","postal_code":"22391","name":"Hariara Pohan"},{"id":"1217052004","district_id":"1217052","postal_code":"22391","name":"Dolok Raja"},{"id":"1217052006","district_id":"1217052","postal_code":"22391","name":"Sampur Toba"},{"id":"1217052007","district_id":"1217052","postal_code":"22391","name":"Siparmahan"},{"id":"1217052008","district_id":"1217052","postal_code":"22391","name":"Turpuk Limbong"},{"id":"1217052009","district_id":"1217052","postal_code":"22391","name":"Turpuk Sagala"},{"id":"1217052010","district_id":"1217052","postal_code":"22391","name":"Turpuk Malau"},{"id":"1217052011","district_id":"1217052","postal_code":"22391","name":"Turpuk Sihotang"},{"id":"1217052012","district_id":"1217052","postal_code":"22391","name":"Janji Martahan"},{"id":"1217052014","district_id":"1217052","postal_code":"22391","name":"Hutagalung"},{"id":"1217052015","district_id":"1217052","postal_code":"22391","name":"Hariara Pintu"}]