[{"id":"1217032001","district_id":"1217032","postal_code":"22394","name":"Pangaloan"},{"id":"1217032002","district_id":"1217032","postal_code":"22394","name":"Hutarihit"},{"id":"1217032003","district_id":"1217032","postal_code":"22394","name":"Sinaga Uruk Pandiangan"},{"id":"1217032004","district_id":"1217032","postal_code":"22394","name":"Toguan Galung"},{"id":"1217032005","district_id":"1217032","postal_code":"22394","name":"Pananggangan"},{"id":"1217032006","district_id":"1217032","postal_code":"22394","name":"Pasaran Parsaoran"},{"id":"1217032007","district_id":"1217032","postal_code":"22394","name":"Sipinggan Lumban Siantar"},{"id":"1217032008","district_id":"1217032","postal_code":"22394","name":"Sibonor Ompu Ratus"},{"id":"1217032009","district_id":"1217032","postal_code":"22394","name":"Nainggolan"},{"id":"1217032010","district_id":"1217032","postal_code":"22394","name":"Pasaran I"},{"id":"1217032013","district_id":"1217032","postal_code":"22394","name":"Pananggangan Ii"},{"id":"1217032014","district_id":"1217032","postal_code":"22394","name":"Sipinggan"},{"id":"1217032015","district_id":"1217032","postal_code":"22394","name":"Janji Marapot"}]