[{"id":"1221122001","district_id":"1221122","postal_code":"22755","name":"Lubuk Gonting"},{"id":"1221122002","district_id":"1221122","postal_code":"22755","name":"Padang Hasior Dolok"},{"id":"1221122003","district_id":"1221122","postal_code":"22755","name":"Padang Hasior Lombang"},{"id":"1221122004","district_id":"1221122","postal_code":"22755","name":"Sitada-tada"},{"id":"1221122005","district_id":"1221122","postal_code":"22755","name":"Paran Dolok"},{"id":"1221122006","district_id":"1221122","postal_code":"22755","name":"Ujung Gading"},{"id":"1221122007","district_id":"1221122","postal_code":"22755","name":"Simaninggir"},{"id":"1221122008","district_id":"1221122","postal_code":"22755","name":"Tanjung Morang"},{"id":"1221122009","district_id":"1221122","postal_code":"22755","name":"Silenjeng"},{"id":"1221122010","district_id":"1221122","postal_code":"22755","name":"Aek Goti"},{"id":"1221122011","district_id":"1221122","postal_code":"22755","name":"Gulangan"},{"id":"1221122012","district_id":"1221122","postal_code":"22755","name":"Ujung Padang"},{"id":"1221122013","district_id":"1221122","postal_code":"22755","name":"Balangka"}]