[{"id":"1223062002","district_id":"1223062","postal_code":"21454","name":"Pematang"},{"id":"1223062003","district_id":"1223062","postal_code":"21454","name":"Batu Tunggal"},{"id":"1223062004","district_id":"1223062","postal_code":"21454","name":"Sungai Raja"},{"id":"1223062005","district_id":"1223062","postal_code":"21454","name":"Perkebunan Berangir"},{"id":"1223062006","district_id":"1223062","postal_code":"21454","name":"Silumajang"},{"id":"1223062007","district_id":"1223062","postal_code":"21454","name":"Pulo Jantan"},{"id":"1223062008","district_id":"1223062","postal_code":"21454","name":"Kampung Pajak"},{"id":"1223062009","district_id":"1223062","postal_code":"21454","name":"Meranti Omas"},{"id":"1223062010","district_id":"1223062","postal_code":"21454","name":"Hatapang"},{"id":"1223062011","district_id":"1223062","postal_code":"21454","name":"Pasang Lela"},{"id":"1223062012","district_id":"1223062","postal_code":"21454","name":"Simpang Marbau"},{"id":"1223062013","district_id":"1223062","postal_code":"21454","name":"Bangun Rejo"}]