[{"id":"1271101001","district_id":"1271101","postal_code":"20216","name":"Sukaramai I"},{"id":"1271101002","district_id":"1271101","postal_code":"20216","name":"Sukaramai Ii"},{"id":"1271101003","district_id":"1271101","postal_code":"20214","name":"Sei Rengas Ii"},{"id":"1271101004","district_id":"1271101","postal_code":"20214","name":"S. Rengas Permata"},{"id":"1271101005","district_id":"1271101","postal_code":"20211","name":"Pandau Hulu Ii"},{"id":"1271101006","district_id":"1271101","postal_code":"20215","name":"Kota Matsum I"},{"id":"1271101007","district_id":"1271101","postal_code":"20215","name":"Kota Matsum Ii"},{"id":"1271101008","district_id":"1271101","postal_code":"20215","name":"Kota Matsum Iv"},{"id":"1271101009","district_id":"1271101","postal_code":"20217","name":"Pasar Merah Timur"},{"id":"1271101010","district_id":"1271101","postal_code":"20216","name":"Tegal Sari I"},{"id":"1271101011","district_id":"1271101","postal_code":"20216","name":"Tegal Sari Ii"},{"id":"1271101012","district_id":"1271101","postal_code":"20216","name":"Tegal Sari Iii"}]