[{"id":"1277032003","district_id":"1277032","postal_code":"22731","name":"Purwodadi"},{"id":"1277032004","district_id":"1277032","postal_code":"22731","name":"Gunung Hasahatan"},{"id":"1277032005","district_id":"1277032","postal_code":"22731","name":"Ujunggurap"},{"id":"1277032006","district_id":"1277032","postal_code":"22731","name":"Aek Tuhul"},{"id":"1277032007","district_id":"1277032","postal_code":"22731","name":"Baruas"},{"id":"1277032008","district_id":"1277032","postal_code":"22731","name":"Siloting"},{"id":"1277032009","district_id":"1277032","postal_code":"22731","name":"Aek Bayur"},{"id":"1277032010","district_id":"1277032","postal_code":"22731","name":"Pudun Jae"},{"id":"1277032011","district_id":"1277032","postal_code":"22731","name":"Pudun Julu"},{"id":"1277032012","district_id":"1277032","postal_code":"22731","name":"Batang Bahal"},{"id":"1277032013","district_id":"1277032","postal_code":"22731","name":"Aek Najaji"},{"id":"1277032014","district_id":"1277032","postal_code":"22731","name":"Simirik"},{"id":"1277032015","district_id":"1277032","postal_code":"22731","name":"Bargottopong"}]