[{"id":"1278012001","district_id":"1278012","postal_code":"22810","name":"Bawodesolo"},{"id":"1278012002","district_id":"1278012","postal_code":"22810","name":"Boyo"},{"id":"1278012003","district_id":"1278012","postal_code":"22810","name":"Dahadano Gawu-gawu"},{"id":"1278012004","district_id":"1278012","postal_code":"22810","name":"Dahana Tabaloho"},{"id":"1278012005","district_id":"1278012","postal_code":"22810","name":"Fadoro Lasara"},{"id":"1278012006","district_id":"1278012","postal_code":"22810","name":"Hilihao"},{"id":"1278012007","district_id":"1278012","postal_code":"22810","name":"Hilimbaruzo"},{"id":"1278012008","district_id":"1278012","postal_code":"22810","name":"Hilinaa"},{"id":"1278012009","district_id":"1278012","postal_code":"22810","name":"Iraonogeba"},{"id":"1278012010","district_id":"1278012","postal_code":"22810","name":"Lasara Bahili"},{"id":"1278012011","district_id":"1278012","postal_code":"22810","name":"Lolowonu Nikootano"},{"id":"1278012012","district_id":"1278012","postal_code":"22810","name":"Madula"},{"id":"1278012013","district_id":"1278012","postal_code":"22810","name":"Madolaoli"},{"id":"1278012014","district_id":"1278012","postal_code":"22810","name":"Mudik"},{"id":"1278012015","district_id":"1278012","postal_code":"22810","name":"Miga"},{"id":"1278012016","district_id":"1278012","postal_code":"22810","name":"Moawo"},{"id":"1278012017","district_id":"1278012","postal_code":"22810","name":"Ombolata Ulu"},{"id":"1278012018","district_id":"1278012","postal_code":"22810","name":"Onowaembo"},{"id":"1278012019","district_id":"1278012","postal_code":"22810","name":"Onozitoli Olora"},{"id":"1278012020","district_id":"1278012","postal_code":"22810","name":"Onozitoli Sifaoroasi"},{"id":"1278012021","district_id":"1278012","postal_code":"22810","name":"Saewe"},{"id":"1278012022","district_id":"1278012","postal_code":"22810","name":"Sifalaete Tabaloho"},{"id":"1278012023","district_id":"1278012","postal_code":"22810","name":"Sifalaete Ulu"},{"id":"1278012024","district_id":"1278012","postal_code":"22810","name":"Sihareo Ii Tabaloho"},{"id":"1278012025","district_id":"1278012","postal_code":"22810","name":"Simandraolo"},{"id":"1278012026","district_id":"1278012","postal_code":"22810","name":"Sisarahiligamo"},{"id":"1278012027","district_id":"1278012","postal_code":"22810","name":"Sisarahili Sisambualahe"},{"id":"1278012028","district_id":"1278012","postal_code":"22810","name":"Sisobahili Tabaloho"},{"id":"1278012029","district_id":"1278012","postal_code":"22810","name":"Tuhemberua Ulu"}]