[{"id":"1377022005","district_id":"1377022","postal_code":"25522","name":"Ampalu"},{"id":"1377022006","district_id":"1377022","postal_code":"25522","name":"Apar"},{"id":"1377022007","district_id":"1377022","postal_code":"25523","name":"Tanjung Sabar"},{"id":"1377022008","district_id":"1377022","postal_code":"25524","name":"Cubadak Air Selatan"},{"id":"1377022009","district_id":"1377022","postal_code":"25526","name":"Sikapak Barat"},{"id":"1377022010","district_id":"1377022","postal_code":"25526","name":"Sikapak Timur"},{"id":"1377022011","district_id":"1377022","postal_code":"25522","name":"Manggung"},{"id":"1377022012","district_id":"1377022","postal_code":"25524","name":"Cubadak Air Utara"},{"id":"1377022013","district_id":"1377022","postal_code":"25521","name":"Tungkal Selatan"},{"id":"1377022014","district_id":"1377022","postal_code":"25522","name":"Naras Hilir"},{"id":"1377022015","district_id":"1377022","postal_code":"25521","name":"Naras I"},{"id":"1377022016","district_id":"1377022","postal_code":"25521","name":"Balai Naras"},{"id":"1377022017","district_id":"1377022","postal_code":"25521","name":"Padang Birik Birik"},{"id":"1377022018","district_id":"1377022","postal_code":"25521","name":"Sintuk"},{"id":"1377022019","district_id":"1377022","postal_code":"25529","name":"Sungai Rambai"},{"id":"1377022020","district_id":"1377022","postal_code":"25521","name":"Tungkal Utara"},{"id":"1377022021","district_id":"1377022","postal_code":"25524","name":"Cubadak Air"}]