[{"id":"1377011001","district_id":"1377011","postal_code":"25514","name":"Karan Aur"},{"id":"1377011002","district_id":"1377011","postal_code":"25513","name":"Kampung Perak"},{"id":"1377011003","district_id":"1377011","postal_code":"25513","name":"Lohong"},{"id":"1377011004","district_id":"1377011","postal_code":"25513","name":"Pasir"},{"id":"1377011005","district_id":"1377011","postal_code":"25512","name":"Kampung Pondok"},{"id":"1377011006","district_id":"1377011","postal_code":"25512","name":"Pondok Ii"},{"id":"1377011007","district_id":"1377011","postal_code":"25511","name":"Kampung Jawa I"},{"id":"1377011008","district_id":"1377011","postal_code":"25511","name":"Kampung Jawa Ii"},{"id":"1377011009","district_id":"1377011","postal_code":"25519","name":"Alai Gelombang"},{"id":"1377011010","district_id":"1377011","postal_code":"25518","name":"Jawi Jawi I"},{"id":"1377011011","district_id":"1377011","postal_code":"25518","name":"Jawi Jawi Ii"},{"id":"1377011012","district_id":"1377011","postal_code":"25515","name":"Jalan Baru"},{"id":"1377011013","district_id":"1377011","postal_code":"25517","name":"Taratak"},{"id":"1377011014","district_id":"1377011","postal_code":"25515","name":"Jalan Kereta Api"},{"id":"1377011015","district_id":"1377011","postal_code":"25516","name":"Ujung Batung"},{"id":"1377011016","district_id":"1377011","postal_code":"25519","name":"Jati Hilir"}]