[{"id":"1401022001","district_id":"1401022","postal_code":"28461","name":"Batu Belah"},{"id":"1401022003","district_id":"1401022","postal_code":"28461","name":"Tanjung Berulak"},{"id":"1401022006","district_id":"1401022","postal_code":"28461","name":"Ranah"},{"id":"1401022007","district_id":"1401022","postal_code":"28461","name":"Penyasawan"},{"id":"1401022008","district_id":"1401022","postal_code":"28461","name":"Rumbio"},{"id":"1401022013","district_id":"1401022","postal_code":"28461","name":"Padang Mutung"},{"id":"1401022023","district_id":"1401022","postal_code":"28461","name":"Pulau Jambu"},{"id":"1401022024","district_id":"1401022","postal_code":"28461","name":"Tanjung Rambutan"},{"id":"1401022025","district_id":"1401022","postal_code":"28461","name":"Simpang Kubu"},{"id":"1401022028","district_id":"1401022","postal_code":"28461","name":"Limau Manis"},{"id":"1401022030","district_id":"1401022","postal_code":"28461","name":"Naumbai"},{"id":"1401022031","district_id":"1401022","postal_code":"28461","name":"Pulau Tinggi"},{"id":"1401022032","district_id":"1401022","postal_code":"28461","name":"Ranah Baru"},{"id":"1401022033","district_id":"1401022","postal_code":"28461","name":"Bukit Ranah"},{"id":"1401022034","district_id":"1401022","postal_code":"28461","name":"Pulau Sarak"},{"id":"1401022035","district_id":"1401022","postal_code":"28461","name":"Koto Tibun"},{"id":"1401022036","district_id":"1401022","postal_code":"28461","name":"Ranah Singkuang"}]