[{"id":"1403012004","district_id":"1403012","postal_code":"28716","name":"Kelapapati"},{"id":"1403012005","district_id":"1403012","postal_code":"28726","name":"Pedekik"},{"id":"1403012006","district_id":"1403012","postal_code":"28724","name":"Pangkalan Batang"},{"id":"1403012007","district_id":"1403012","postal_code":"28733","name":"Sebauk"},{"id":"1403012008","district_id":"1403012","postal_code":"28739","name":"Teluklatak"},{"id":"1403012009","district_id":"1403012","postal_code":"28722","name":"Meskom"},{"id":"1403012010","district_id":"1403012","postal_code":"28714","name":"Senggoro"},{"id":"1403012011","district_id":"1403012","postal_code":"28711","name":"Air Putih"},{"id":"1403012012","district_id":"1403012","postal_code":"28734","name":"Sei Alam"},{"id":"1403012013","district_id":"1403012","postal_code":"28729","name":"Penampi"},{"id":"1403012014","district_id":"1403012","postal_code":"28740","name":"Temeran"},{"id":"1403012015","district_id":"1403012","postal_code":"28730","name":"Penebal"},{"id":"1403012016","district_id":"1403012","postal_code":"28727","name":"Pematang Duku"},{"id":"1403012017","district_id":"1403012","postal_code":"28720","name":"Ketam Putih"},{"id":"1403012018","district_id":"1403012","postal_code":"28718","name":"Kelemantan"},{"id":"1403012019","district_id":"1403012","postal_code":"28735","name":"Sekodi"},{"id":"1403012020","district_id":"1403012","postal_code":"28741","name":"Wonosari"},{"id":"1403012021","district_id":"1403012","postal_code":"28721","name":"Kuala Alam"},{"id":"1403012022","district_id":"1403012","postal_code":"28717","name":"Kelebuk"},{"id":"1403012023","district_id":"1403012","postal_code":"28723","name":"Palkun"},{"id":"1403012024","district_id":"1403012","postal_code":"28738","name":"Sungaibatang"},{"id":"1403012025","district_id":"1403012","postal_code":"28731","name":"Prapat Tunggal"},{"id":"1403012026","district_id":"1403012","postal_code":"28737","name":"Simpang Ayam"},{"id":"1403012027","district_id":"1403012","postal_code":"28736","name":"Senderek"},{"id":"1403012028","district_id":"1403012","postal_code":"28719","name":"Kelemantan Barat"},{"id":"1403012029","district_id":"1403012","postal_code":"28715","name":"Damai"},{"id":"1403012030","district_id":"1403012","postal_code":"28725","name":"Pangkalan Batang Barat"},{"id":"1403012031","district_id":"1403012","postal_code":"28728","name":"Pematang Duku Timur"}]