[{"id":"1403122001","district_id":"1403122","postal_code":"28771","name":"Lubuk Muda"},{"id":"1403122002","district_id":"1403122","postal_code":"28771","name":"Tanjungbelit"},{"id":"1403122003","district_id":"1403122","postal_code":"28771","name":"Sungaisiput"},{"id":"1403122004","district_id":"1403122","postal_code":"28771","name":"Sepotong"},{"id":"1403122005","district_id":"1403122","postal_code":"28771","name":"Lubuk Gaung"},{"id":"1403122006","district_id":"1403122","postal_code":"28771","name":"Langkat"},{"id":"1403122007","district_id":"1403122","postal_code":"28771","name":"Sadar Jaya"},{"id":"1403122008","district_id":"1403122","postal_code":"28771","name":"Sungailinau"},{"id":"1403122009","district_id":"1403122","postal_code":"28771","name":"Bandar Jaya"},{"id":"1403122010","district_id":"1403122","postal_code":"28771","name":"Muara Dua"},{"id":"1403122011","district_id":"1403122","postal_code":"28771","name":"Tanjungdamai"},{"id":"1403122012","district_id":"1403122","postal_code":"28771","name":"Sumber Jaya"},{"id":"1403122013","district_id":"1403122","postal_code":"28771","name":"Lubuk Garam"},{"id":"1403122014","district_id":"1403122","postal_code":"28771","name":"Liang Banir"},{"id":"1403122015","district_id":"1403122","postal_code":"28771","name":"Tanjungdatuk"},{"id":"1403122016","district_id":"1403122","postal_code":"28771","name":"Koto Raja"},{"id":"1403122017","district_id":"1403122","postal_code":"28771","name":"Sungainibung"}]