[{"id":"1403022001","district_id":"1403022","postal_code":"28763","name":"Bantan Tengah"},{"id":"1403022002","district_id":"1403022","postal_code":"28763","name":"Bantan Air"},{"id":"1403022003","district_id":"1403022","postal_code":"28763","name":"Bantan Tua"},{"id":"1403022004","district_id":"1403022","postal_code":"28763","name":"Telukpambang"},{"id":"1403022005","district_id":"1403022","postal_code":"28763","name":"Selat Baru"},{"id":"1403022006","district_id":"1403022","postal_code":"28763","name":"Teluklancar"},{"id":"1403022007","district_id":"1403022","postal_code":"28763","name":"Kembung Luar"},{"id":"1403022008","district_id":"1403022","postal_code":"28763","name":"Jangkang"},{"id":"1403022009","district_id":"1403022","postal_code":"28763","name":"Muntai"},{"id":"1403022010","district_id":"1403022","postal_code":"28763","name":"Resam Lapis"},{"id":"1403022011","district_id":"1403022","postal_code":"28763","name":"Berancah"},{"id":"1403022012","district_id":"1403022","postal_code":"28763","name":"Ulu Pulau"},{"id":"1403022013","district_id":"1403022","postal_code":"28763","name":"Mentayan"},{"id":"1403022014","district_id":"1403022","postal_code":"28763","name":"Pampang Pesisir"},{"id":"1403022015","district_id":"1403022","postal_code":"28763","name":"Sukamaju"},{"id":"1403022016","district_id":"1403022","postal_code":"28763","name":"Pampang Baru"},{"id":"1403022017","district_id":"1403022","postal_code":"28763","name":"Kembung Baru"},{"id":"1403022018","district_id":"1403022","postal_code":"28763","name":"Pasiran"},{"id":"1403022019","district_id":"1403022","postal_code":"28763","name":"Bantan Sari"},{"id":"1403022020","district_id":"1403022","postal_code":"28763","name":"Bantan Timur"},{"id":"1403022021","district_id":"1403022","postal_code":"28763","name":"Telukpapal"},{"id":"1403022022","district_id":"1403022","postal_code":"28763","name":"Muntai Barat"},{"id":"1403022023","district_id":"1403022","postal_code":"28763","name":"Deluk"}]