[{"id":"1404152001","district_id":"1404152","postal_code":"29257","name":"Rotan Semelur"},{"id":"1404152003","district_id":"1404152","postal_code":"29257","name":"Simpang Kateman"},{"id":"1404152004","district_id":"1404152","postal_code":"29257","name":"Tanjungsimpang"},{"id":"1404152005","district_id":"1404152","postal_code":"29257","name":"Baung Rejo Jaya"},{"id":"1404152006","district_id":"1404152","postal_code":"29257","name":"Tagagiri Tama Jaya"},{"id":"1404152007","district_id":"1404152","postal_code":"29257","name":"Pinang Jaya"},{"id":"1404152008","district_id":"1404152","postal_code":"29257","name":"Wonosari"},{"id":"1404152009","district_id":"1404152","postal_code":"29257","name":"Tegal Rejo"},{"id":"1404152010","district_id":"1404152","postal_code":"29257","name":"Intan Mulia Jaya"},{"id":"1404152011","district_id":"1404152","postal_code":"29257","name":"Saka Palas Jaya"},{"id":"1404152012","district_id":"1404152","postal_code":"29257","name":"Catur Karya"},{"id":"1404152013","district_id":"1404152","postal_code":"29257","name":"Bagan Jaya"},{"id":"1404152014","district_id":"1404152","postal_code":"29257","name":"Telukbunian"},{"id":"1404152015","district_id":"1404152","postal_code":"29257","name":"Terusan Beringin Jaya"},{"id":"1404152016","district_id":"1404152","postal_code":"29257","name":"Hidayah"}]