[{"id":"1404112002","district_id":"1404112","postal_code":"29252","name":"Sungailuar"},{"id":"1404112003","district_id":"1404112","postal_code":"29252","name":"Sungaidusun"},{"id":"1404112004","district_id":"1404112","postal_code":"29252","name":"Sungaijunjangan"},{"id":"1404112005","district_id":"1404112","postal_code":"29252","name":"Sungairaya"},{"id":"1404112006","district_id":"1404112","postal_code":"29252","name":"Kuala Sebatu"},{"id":"1404112007","district_id":"1404112","postal_code":"29252","name":"Tanjungsiantar"},{"id":"1404112008","district_id":"1404112","postal_code":"29252","name":"Sungairawa"},{"id":"1404112009","district_id":"1404112","postal_code":"29252","name":"Sialang Jaya"},{"id":"1404112010","district_id":"1404112","postal_code":"29252","name":"Gemilang Jaya"},{"id":"1404112011","district_id":"1404112","postal_code":"29252","name":"Tasik Raya"},{"id":"1404112012","district_id":"1404112","postal_code":"29252","name":"Pasir Emas"},{"id":"1404112013","district_id":"1404112","postal_code":"29252","name":"Simpang Jaya"}]