[{"id":"1406022002","district_id":"1406022","postal_code":"28551","name":"Cipang Kanan"},{"id":"1406022003","district_id":"1406022","postal_code":"28551","name":"Cipang Kiri Hulu"},{"id":"1406022004","district_id":"1406022","postal_code":"28551","name":"Cipang Kiri Hilir"},{"id":"1406022006","district_id":"1406022","postal_code":"28551","name":"Tanjung Medan"},{"id":"1406022007","district_id":"1406022","postal_code":"28551","name":"Lubuk Bendahara Timur"},{"id":"1406022008","district_id":"1406022","postal_code":"28551","name":"Lubuk Bendahara"},{"id":"1406022010","district_id":"1406022","postal_code":"28551","name":"Sikebau Jaya"},{"id":"1406022013","district_id":"1406022","postal_code":"28551","name":"Rokan Koto Ruang"},{"id":"1406022014","district_id":"1406022","postal_code":"28551","name":"Rokan Timur"},{"id":"1406022016","district_id":"1406022","postal_code":"28551","name":"Lubuk Betung"},{"id":"1406022017","district_id":"1406022","postal_code":"28551","name":"Pemandang"},{"id":"1406022018","district_id":"1406022","postal_code":"28551","name":"Alahan"},{"id":"1406022019","district_id":"1406022","postal_code":"28551","name":"Tibawan"}]