[{"id":"1409072001","district_id":"1409072","postal_code":"29565","name":"Pulaumungkur"},{"id":"1409072002","district_id":"1409072","postal_code":"29565","name":"Telukberingin"},{"id":"1409072003","district_id":"1409072","postal_code":"29565","name":"Pulaurumput"},{"id":"1409072004","district_id":"1409072","postal_code":"29565","name":"Seberang Gunung"},{"id":"1409072005","district_id":"1409072","postal_code":"29565","name":"Teberau Panjang"},{"id":"1409072006","district_id":"1409072","postal_code":"29565","name":"Koto Gunung"},{"id":"1409072007","district_id":"1409072","postal_code":"29565","name":"Gunung"},{"id":"1409072008","district_id":"1409072","postal_code":"29565","name":"Toar"},{"id":"1409072009","district_id":"1409072","postal_code":"29565","name":"Petapahan"},{"id":"1409072010","district_id":"1409072","postal_code":"29565","name":"Kampung Baru"},{"id":"1409072011","district_id":"1409072","postal_code":"29565","name":"Pisang Berebus"},{"id":"1409072012","district_id":"1409072","postal_code":"29565","name":"Lubuk Terentang"},{"id":"1409072013","district_id":"1409072","postal_code":"29565","name":"Siberobah"},{"id":"1409072014","district_id":"1409072","postal_code":"29565","name":"Seberang Sungai"}]