[{"id":"1471101001","district_id":"1471101","postal_code":"28286","name":"Kulim"},{"id":"1471101002","district_id":"1471101","postal_code":"28285","name":"Bencahlesung"},{"id":"1471101003","district_id":"1471101","postal_code":"28289","name":"Tangkerang Timur"},{"id":"1471101004","district_id":"1471101","postal_code":"28281","name":"Rejosari"},{"id":"1471101005","district_id":"1471101","postal_code":"28281","name":"Bambukuning"},{"id":"1471101006","district_id":"1471101","postal_code":"28286","name":"Pebatuan"},{"id":"1471101007","district_id":"1471101","postal_code":"28286","name":"Sialangrampai"},{"id":"1471101008","district_id":"1471101","postal_code":"28286","name":"Mentangor"},{"id":"1471101009","district_id":"1471101","postal_code":"28289","name":"Pematangkapau"},{"id":"1471101010","district_id":"1471101","postal_code":"28285","name":"Melebung"},{"id":"1471101011","district_id":"1471101","postal_code":"28285","name":"Industritenayan"},{"id":"1471101012","district_id":"1471101","postal_code":"28285","name":"Sialangsakti"},{"id":"1471101013","district_id":"1471101","postal_code":"28285","name":"Tuahnegeri"}]