[{"id":"1504052001","district_id":"1504052","postal_code":"36657","name":"Tebing Tinggi"},{"id":"1504052003","district_id":"1504052","postal_code":"36657","name":"Serasah"},{"id":"1504052004","district_id":"1504052","postal_code":"36657","name":"Lubuk Ruso"},{"id":"1504052005","district_id":"1504052","postal_code":"36657","name":"Kuap"},{"id":"1504052006","district_id":"1504052","postal_code":"36657","name":"Senaning"},{"id":"1504052007","district_id":"1504052","postal_code":"36657","name":"Kubu Kandang"},{"id":"1504052008","district_id":"1504052","postal_code":"36657","name":"Ture"},{"id":"1504052009","district_id":"1504052","postal_code":"36657","name":"Pulau Betung"},{"id":"1504052010","district_id":"1504052","postal_code":"36657","name":"Lopak Aur"},{"id":"1504052011","district_id":"1504052","postal_code":"36657","name":"Selat"},{"id":"1504052012","district_id":"1504052","postal_code":"36657","name":"Teluk"},{"id":"1504052013","district_id":"1504052","postal_code":"36657","name":"Pulau Raman"},{"id":"1504052014","district_id":"1504052","postal_code":"36657","name":"Kaos"},{"id":"1504052015","district_id":"1504052","postal_code":"36657","name":"Simpang Kubu Kandang"},{"id":"1504052016","district_id":"1504052","postal_code":"36657","name":"Awin"},{"id":"1504052017","district_id":"1504052","postal_code":"36657","name":"Olak Rambahan"},{"id":"1504052019","district_id":"1504052","postal_code":"36657","name":"Teluk Ketapang"},{"id":"1504052020","district_id":"1504052","postal_code":"36657","name":"Kampung Pulau"}]