[{"id":"1504032006","district_id":"1504032","postal_code":"36611","name":"Pasar Terusan"},{"id":"1504032007","district_id":"1504032","postal_code":"36611","name":"Simpang Terusan"},{"id":"1504032008","district_id":"1504032","postal_code":"36611","name":"Malapari"},{"id":"1504032009","district_id":"1504032","postal_code":"36611","name":"Napal Sisik"},{"id":"1504032010","district_id":"1504032","postal_code":"36612","name":"Rambahan"},{"id":"1504032011","district_id":"1504032","postal_code":"36611","name":"Olak"},{"id":"1504032012","district_id":"1504032","postal_code":"36611","name":"Muaro Singoan"},{"id":"1504032013","district_id":"1504032","postal_code":"36611","name":"Aro"},{"id":"1504032014","district_id":"1504032","postal_code":"36611","name":"Rantau Puri"},{"id":"1504032015","district_id":"1504032","postal_code":"36611","name":"Sungai Baung"},{"id":"1504032016","district_id":"1504032","postal_code":"36611","name":"Bajubang Laut"},{"id":"1504032017","district_id":"1504032","postal_code":"36611","name":"Singkawang"},{"id":"1504032018","district_id":"1504032","postal_code":"36611","name":"Tenam"},{"id":"1504032019","district_id":"1504032","postal_code":"36611","name":"Sungai Buluh"},{"id":"1504032020","district_id":"1504032","postal_code":"36611","name":"Kilangan"},{"id":"1504032021","district_id":"1504032","postal_code":"36611","name":"Pelayangan"}]