[{"id":"1601092001","district_id":"1601092","postal_code":"32191","name":"Kepayang"},{"id":"1601092002","district_id":"1601092","postal_code":"32191","name":"Kedondong"},{"id":"1601092003","district_id":"1601092","postal_code":"32191","name":"Belimbing"},{"id":"1601092004","district_id":"1601092","postal_code":"32191","name":"Durian"},{"id":"1601092006","district_id":"1601092","postal_code":"32191","name":"Lubuk Rukam"},{"id":"1601092007","district_id":"1601092","postal_code":"32191","name":"Bindu"},{"id":"1601092009","district_id":"1601092","postal_code":"32191","name":"Mendala"},{"id":"1601092010","district_id":"1601092","postal_code":"32191","name":"Peninjauan"},{"id":"1601092011","district_id":"1601092","postal_code":"32191","name":"Saung Naga"},{"id":"1601092022","district_id":"1601092","postal_code":"32191","name":"Makartitama"},{"id":"1601092023","district_id":"1601092","postal_code":"32191","name":"Espetiga"},{"id":"1601092024","district_id":"1601092","postal_code":"32191","name":"Makarti Jaya"},{"id":"1601092025","district_id":"1601092","postal_code":"32191","name":"Mitra Kencana"},{"id":"1601092026","district_id":"1601092","postal_code":"32191","name":"Penilikan"},{"id":"1601092027","district_id":"1601092","postal_code":"32191","name":"Panji Jaya"},{"id":"1601092028","district_id":"1601092","postal_code":"32191","name":"Karang Dapo"}]