[{"id":"1602052011","district_id":"1602052","postal_code":"30618","name":"Kijang Ulu"},{"id":"1602052012","district_id":"1602052","postal_code":"30618","name":"Muarabaru"},{"id":"1602052013","district_id":"1602052","postal_code":"30617","name":"Tanjung Lubuk"},{"id":"1602052014","district_id":"1602052","postal_code":"30618","name":"Arisan Buntal"},{"id":"1602052015","district_id":"1602052","postal_code":"30611","name":"Celikah"},{"id":"1602052016","district_id":"1602052","postal_code":"30618","name":"Banding Anyar"},{"id":"1602052017","district_id":"1602052","postal_code":"30618","name":"Buluh Cawang"},{"id":"1602052018","district_id":"1602052","postal_code":"30618","name":"Lubuk Dalam"},{"id":"1602052019","district_id":"1602052","postal_code":"30618","name":"Anyar"},{"id":"1602052020","district_id":"1602052","postal_code":"30618","name":"Tanjung Menang"},{"id":"1602052021","district_id":"1602052","postal_code":"30618","name":"Teloko"},{"id":"1602052022","district_id":"1602052","postal_code":"30618","name":"Tanjung Serang"},{"id":"1602052023","district_id":"1602052","postal_code":"30618","name":"Serigeni Baru"},{"id":"1602052024","district_id":"1602052","postal_code":"30618","name":"Serigeni"}]