[{"id":"1602112001","district_id":"1602112","postal_code":"30655","name":"Simpang Tiga"},{"id":"1602112002","district_id":"1602112","postal_code":"30655","name":"Pulau Beruang"},{"id":"1602112003","district_id":"1602112","postal_code":"30655","name":"Penyandingan"},{"id":"1602112004","district_id":"1602112","postal_code":"30655","name":"Tanjung Batu"},{"id":"1602112005","district_id":"1602112","postal_code":"30655","name":"Toman"},{"id":"1602112006","district_id":"1602112","postal_code":"30655","name":"Cambai"},{"id":"1602112007","district_id":"1602112","postal_code":"30655","name":"Kayuara"},{"id":"1602112008","district_id":"1602112","postal_code":"30655","name":"Petaling"},{"id":"1602112009","district_id":"1602112","postal_code":"30655","name":"Tulung Selapan Ilir"},{"id":"1602112010","district_id":"1602112","postal_code":"30655","name":"Ujung Tanjung"},{"id":"1602112011","district_id":"1602112","postal_code":"30655","name":"Lebung Gajah"},{"id":"1602112012","district_id":"1602112","postal_code":"30655","name":"Lebung Itam"},{"id":"1602112013","district_id":"1602112","postal_code":"30655","name":"Penanggoan Duren"},{"id":"1602112014","district_id":"1602112","postal_code":"30655","name":"Jerambah Rengas"},{"id":"1602112015","district_id":"1602112","postal_code":"30655","name":"Simpang Tiga Makmur"},{"id":"1602112017","district_id":"1602112","postal_code":"30655","name":"Simpang Tiga Jaya"},{"id":"1602112018","district_id":"1602112","postal_code":"30655","name":"Simpang Tiga Sakti"},{"id":"1602112019","district_id":"1602112","postal_code":"30655","name":"Tulung Seluang"},{"id":"1602112020","district_id":"1602112","postal_code":"30655","name":"Rantau Lurus"},{"id":"1602112021","district_id":"1602112","postal_code":"30655","name":"Kuala Dua Belas"},{"id":"1602112022","district_id":"1602112","postal_code":"30655","name":"Simpang Tiga Abadi"},{"id":"1602112023","district_id":"1602112","postal_code":"30655","name":"Tulung Selapan Timur"}]