[{"id":"1602232001","district_id":"1602232","postal_code":"30673","name":"Benawa"},{"id":"1602232002","district_id":"1602232","postal_code":"30673","name":"Serapek"},{"id":"1602232003","district_id":"1602232","postal_code":"30673","name":"Sugih Waras"},{"id":"1602232004","district_id":"1602232","postal_code":"30673","name":"Muara Telang"},{"id":"1602232005","district_id":"1602232","postal_code":"30673","name":"Kuripan"},{"id":"1602232006","district_id":"1602232","postal_code":"30673","name":"Cinta Marga"},{"id":"1602232007","district_id":"1602232","postal_code":"30673","name":"Penyandingan"},{"id":"1602232008","district_id":"1602232","postal_code":"30673","name":"Talang Pengeran"},{"id":"1602232009","district_id":"1602232","postal_code":"30673","name":"Ulak Ketapang"},{"id":"1602232010","district_id":"1602232","postal_code":"30673","name":"Mulyaguna"},{"id":"1602232011","district_id":"1602232","postal_code":"30673","name":"Panca Tunggal Benawa"},{"id":"1602232012","district_id":"1602232","postal_code":"30673","name":"Bumi Harapan"},{"id":"1602232013","district_id":"1602232","postal_code":"30673","name":"Sinar Harapan Mulya"},{"id":"1602232014","district_id":"1602232","postal_code":"30673","name":"Seriguna"}]