[{"id":"1602212001","district_id":"1602212","postal_code":"30683","name":"Embacang"},{"id":"1602212002","district_id":"1602212","postal_code":"30683","name":"Balian"},{"id":"1602212003","district_id":"1602212","postal_code":"30683","name":"Sumbu Sari"},{"id":"1602212004","district_id":"1602212","postal_code":"30683","name":"Suka Sari"},{"id":"1602212005","district_id":"1602212","postal_code":"30683","name":"Ciptasari"},{"id":"1602212006","district_id":"1602212","postal_code":"30683","name":"Mataram Jaya"},{"id":"1602212007","district_id":"1602212","postal_code":"30683","name":"Bumi Makmur"},{"id":"1602212008","district_id":"1602212","postal_code":"30683","name":"Sumber Baru"},{"id":"1602212009","district_id":"1602212","postal_code":"30683","name":"Mulya Jaya"},{"id":"1602212010","district_id":"1602212","postal_code":"30683","name":"Rotan Mulya"},{"id":"1602212011","district_id":"1602212","postal_code":"30683","name":"Embacang Permai"},{"id":"1602212012","district_id":"1602212","postal_code":"30683","name":"Gedung Rejo"},{"id":"1602212013","district_id":"1602212","postal_code":"30683","name":"Kertamukti"},{"id":"1602212014","district_id":"1602212","postal_code":"30683","name":"Kemang Indah"},{"id":"1602212015","district_id":"1602212","postal_code":"30683","name":"Balian Makmur"},{"id":"1602212016","district_id":"1602212","postal_code":"30683","name":"Sedyomulyo"},{"id":"1602212017","district_id":"1602212","postal_code":"30683","name":"Dabuk Makmur"}]