[{"id":"1602152001","district_id":"1602152","postal_code":"30684","name":"Sungai Menang"},{"id":"1602152002","district_id":"1602152","postal_code":"30684","name":"Karangsia"},{"id":"1602152003","district_id":"1602152","postal_code":"30684","name":"Sungai Ceper"},{"id":"1602152004","district_id":"1602152","postal_code":"30684","name":"Gajah Mati"},{"id":"1602152005","district_id":"1602152","postal_code":"30684","name":"Sungai Tepuk"},{"id":"1602152006","district_id":"1602152","postal_code":"30684","name":"Sungai Sibur"},{"id":"1602152007","district_id":"1602152","postal_code":"30684","name":"Talang Makmur"},{"id":"1602152008","district_id":"1602152","postal_code":"30684","name":"Harapan Jaya"},{"id":"1602152009","district_id":"1602152","postal_code":"30684","name":"Talang Jaya"},{"id":"1602152010","district_id":"1602152","postal_code":"30684","name":"Sidomulyo"},{"id":"1602152011","district_id":"1602152","postal_code":"30684","name":"Bumi Pratama Mandira"},{"id":"1602152012","district_id":"1602152","postal_code":"30684","name":"Pinang Indah"},{"id":"1602152013","district_id":"1602152","postal_code":"30684","name":"Gajah Makmur"},{"id":"1602152014","district_id":"1602152","postal_code":"30684","name":"Gading Jaya"},{"id":"1602152015","district_id":"1602152","postal_code":"30684","name":"Gajah Mukti"},{"id":"1602152016","district_id":"1602152","postal_code":"30684","name":"Gajah Mulya"},{"id":"1602152017","district_id":"1602152","postal_code":"30684","name":"Sri Gading"},{"id":"1602152018","district_id":"1602152","postal_code":"30684","name":"Gading Mas"}]