[{"id":"1604162001","district_id":"1604162","postal_code":"31451","name":"Pandan Arang"},{"id":"1604162002","district_id":"1604162","postal_code":"31451","name":"Tanjung Kurung"},{"id":"1604162003","district_id":"1604162","postal_code":"31451","name":"Nanjungan"},{"id":"1604162004","district_id":"1604162","postal_code":"31451","name":"Pagardin"},{"id":"1604162005","district_id":"1604162","postal_code":"31451","name":"Pulau Beringin"},{"id":"1604162006","district_id":"1604162","postal_code":"31451","name":"Beriningin Jaya"},{"id":"1604162007","district_id":"1604162","postal_code":"31451","name":"Banu Ayu"},{"id":"1604162008","district_id":"1604162","postal_code":"31451","name":"Tanjung Alam"},{"id":"1604162009","district_id":"1604162","postal_code":"31451","name":"Sirah Pulau"},{"id":"1604162010","district_id":"1604162","postal_code":"31451","name":"Tanjung Beringin"},{"id":"1604162011","district_id":"1604162","postal_code":"31451","name":"Pagar Jati"},{"id":"1604162012","district_id":"1604162","postal_code":"31451","name":"Karang Cahaya"},{"id":"1604162013","district_id":"1604162","postal_code":"31451","name":"Jaga Baya"},{"id":"1604162014","district_id":"1604162","postal_code":"31451","name":"Keban Agung"},{"id":"1604162015","district_id":"1604162","postal_code":"31451","name":"Padang Bindu"},{"id":"1604162016","district_id":"1604162","postal_code":"31451","name":"Beringin Janggut"},{"id":"1604162017","district_id":"1604162","postal_code":"31451","name":"Keban Raya"},{"id":"1604162018","district_id":"1604162","postal_code":"31451","name":"Lubuk Tungkang"}]