[{"id":"1604102012","district_id":"1604102","postal_code":"31419","name":"Padang Lengkuas"},{"id":"1604102027","district_id":"1604102","postal_code":"31419","name":"Selawi"},{"id":"1604102030","district_id":"1604102","postal_code":"31419","name":"Sukanegara"},{"id":"1604102034","district_id":"1604102","postal_code":"31419","name":"Kota Raya"},{"id":"1604102035","district_id":"1604102","postal_code":"31419","name":"Keban"},{"id":"1604102036","district_id":"1604102","postal_code":"31419","name":"Pagar Sari"},{"id":"1604102039","district_id":"1604102","postal_code":"31419","name":"Pagar Negara"},{"id":"1604102049","district_id":"1604102","postal_code":"31419","name":"Senabing"},{"id":"1604102050","district_id":"1604102","postal_code":"31419","name":"Manggul"},{"id":"1604102053","district_id":"1604102","postal_code":"31419","name":"Ulak Lebar"},{"id":"1604102055","district_id":"1604102","postal_code":"31419","name":"Giri Mulya"},{"id":"1604102056","district_id":"1604102","postal_code":"31419","name":"Makarti Tama"},{"id":"1604102057","district_id":"1604102","postal_code":"31419","name":"Ulak Mas"}]