[{"id":"1605082001","district_id":"1605082","postal_code":"31665","name":"Giri Yoso"},{"id":"1605082002","district_id":"1605082","postal_code":"31665","name":"Kertosono"},{"id":"1605082003","district_id":"1605082","postal_code":"31665","name":"Margoyoso"},{"id":"1605082004","district_id":"1605082","postal_code":"31665","name":"Bumi Rejo"},{"id":"1605082005","district_id":"1605082","postal_code":"31665","name":"Sidodadi"},{"id":"1605082007","district_id":"1605082","postal_code":"31665","name":"Marga Tani"},{"id":"1605082008","district_id":"1605082","postal_code":"31665","name":"Sukowono"},{"id":"1605082010","district_id":"1605082","postal_code":"31665","name":"Purwodadi"},{"id":"1605082012","district_id":"1605082","postal_code":"31665","name":"Dono Rejo"},{"id":"1605082015","district_id":"1605082","postal_code":"31665","name":"Ngesti Boga I"},{"id":"1605082016","district_id":"1605082","postal_code":"31665","name":"Ngesti Boga Ii"},{"id":"1605082020","district_id":"1605082","postal_code":"31665","name":"Ngestikarya"}]