[{"id":"1605122002","district_id":"1605122","postal_code":"31657","name":"Muara Megang"},{"id":"1605122003","district_id":"1605122","postal_code":"31657","name":"Megang Sakti Ii"},{"id":"1605122004","district_id":"1605122","postal_code":"31657","name":"Megang Sakti Iii"},{"id":"1605122005","district_id":"1605122","postal_code":"31657","name":"Megang Sakti Iv"},{"id":"1605122006","district_id":"1605122","postal_code":"31657","name":"Jajaran Baru"},{"id":"1605122007","district_id":"1605122","postal_code":"31657","name":"Sumber Rejo"},{"id":"1605122008","district_id":"1605122","postal_code":"31657","name":"Rejo Sari"},{"id":"1605122009","district_id":"1605122","postal_code":"31657","name":"Mekar Sari"},{"id":"1605122010","district_id":"1605122","postal_code":"31657","name":"Campur Sari"},{"id":"1605122011","district_id":"1605122","postal_code":"31657","name":"Tegal Sari"},{"id":"1605122012","district_id":"1605122","postal_code":"31657","name":"Marga Puspita"},{"id":"1605122013","district_id":"1605122","postal_code":"31657","name":"Megang Sakti V"},{"id":"1605122014","district_id":"1605122","postal_code":"31657","name":"Pagar Ayu"},{"id":"1605122015","district_id":"1605122","postal_code":"31657","name":"Karya Mulia"},{"id":"1605122016","district_id":"1605122","postal_code":"31657","name":"Wonosari"},{"id":"1605122017","district_id":"1605122","postal_code":"31657","name":"Trisakti"},{"id":"1605122018","district_id":"1605122","postal_code":"31657","name":"Jajaran Baru Ii"},{"id":"1605122019","district_id":"1605122","postal_code":"31657","name":"Muara Megang I"},{"id":"1605122020","district_id":"1605122","postal_code":"31657","name":"Mulyo Sari"}]