[{"id":"1606132001","district_id":"1606132","postal_code":"30753","name":"Ulak Paceh"},{"id":"1606132002","district_id":"1606132","postal_code":"30753","name":"Ulak Paceh Jaya"},{"id":"1606132003","district_id":"1606132","postal_code":"30753","name":"Tanjung Durian"},{"id":"1606132004","district_id":"1606132","postal_code":"30753","name":"Napal"},{"id":"1606132005","district_id":"1606132","postal_code":"30753","name":"Rantau Kasih"},{"id":"1606132006","district_id":"1606132","postal_code":"30753","name":"Karang Ringin I"},{"id":"1606132007","district_id":"1606132","postal_code":"30753","name":"Karang Ringin Ii"},{"id":"1606132008","district_id":"1606132","postal_code":"30753","name":"Ulak Teberau"},{"id":"1606132009","district_id":"1606132","postal_code":"30753","name":"Bumi Ayu"},{"id":"1606132010","district_id":"1606132","postal_code":"30753","name":"Karang Waru"},{"id":"1606132011","district_id":"1606132","postal_code":"30753","name":"Karang Anyar"},{"id":"1606132012","district_id":"1606132","postal_code":"30753","name":"Rantau Panjang"},{"id":"1606132013","district_id":"1606132","postal_code":"30753","name":"Simpang Sari"},{"id":"1606132014","district_id":"1606132","postal_code":"30753","name":"Talang Piase"},{"id":"1606132015","district_id":"1606132","postal_code":"30753","name":"Pandan Dulang"}]