[{"id":"1607142001","district_id":"1607142","postal_code":"30973","name":"Air Solok Batu"},{"id":"1607142002","district_id":"1607142","postal_code":"30973","name":"Sri Mulyo"},{"id":"1607142003","district_id":"1607142","postal_code":"30973","name":"Sri Katon"},{"id":"1607142004","district_id":"1607142","postal_code":"30973","name":"Sido Harjo"},{"id":"1607142005","district_id":"1607142","postal_code":"30973","name":"Bintaran"},{"id":"1607142006","district_id":"1607142","postal_code":"30973","name":"Damar Wulan"},{"id":"1607142007","district_id":"1607142","postal_code":"30973","name":"Enggal Rejo"},{"id":"1607142008","district_id":"1607142","postal_code":"30973","name":"Saleh Jaya"},{"id":"1607142009","district_id":"1607142","postal_code":"30973","name":"Saleh Agung"},{"id":"1607142010","district_id":"1607142","postal_code":"30973","name":"Saleh Mulya"},{"id":"1607142011","district_id":"1607142","postal_code":"30973","name":"Saleh Mukti"},{"id":"1607142012","district_id":"1607142","postal_code":"30973","name":"Saleh Makmur"},{"id":"1607142013","district_id":"1607142","postal_code":"30973","name":"Upang"},{"id":"1607142014","district_id":"1607142","postal_code":"30973","name":"Upang Marga"}]