[{"id":"1607042002","district_id":"1607042","postal_code":"30959","name":"Teluk Betung"},{"id":"1607042004","district_id":"1607042","postal_code":"30959","name":"Mukut"},{"id":"1607042006","district_id":"1607042","postal_code":"30959","name":"Sumber Rejeki"},{"id":"1607042007","district_id":"1607042","postal_code":"30959","name":"Dana Mulya"},{"id":"1607042008","district_id":"1607042","postal_code":"30959","name":"Wana Mukti"},{"id":"1607042009","district_id":"1607042","postal_code":"30959","name":"Budi Asih"},{"id":"1607042013","district_id":"1607042","postal_code":"30959","name":"Rukun Makmur"},{"id":"1607042014","district_id":"1607042","postal_code":"30959","name":"Nunggal Sari"},{"id":"1607042017","district_id":"1607042","postal_code":"30959","name":"Majatra"},{"id":"1607042018","district_id":"1607042","postal_code":"30959","name":"Wonosari"},{"id":"1607042031","district_id":"1607042","postal_code":"30959","name":"Sumber Mulya"},{"id":"1607042032","district_id":"1607042","postal_code":"30959","name":"Rawa Banda"},{"id":"1607042037","district_id":"1607042","postal_code":"30959","name":"Senda Mukti"},{"id":"1607042038","district_id":"1607042","postal_code":"30959","name":"Tirta Mulya"},{"id":"1607042039","district_id":"1607042","postal_code":"30959","name":"Banjar Sari"},{"id":"1607042040","district_id":"1607042","postal_code":"30959","name":"Buana Mukti"},{"id":"1607042041","district_id":"1607042","postal_code":"30959","name":"Tabuan Asri"}]