[{"id":"1610112001","district_id":"1610112","postal_code":"30661","name":"Kotadaro I"},{"id":"1610112002","district_id":"1610112","postal_code":"30661","name":"Ketapang I"},{"id":"1610112003","district_id":"1610112","postal_code":"30661","name":"Rantau Panjang Ilir"},{"id":"1610112004","district_id":"1610112","postal_code":"30661","name":"Jagaraja"},{"id":"1610112005","district_id":"1610112","postal_code":"30661","name":"Jagalano"},{"id":"1610112006","district_id":"1610112","postal_code":"30661","name":"Sejangko I"},{"id":"1610112007","district_id":"1610112","postal_code":"30661","name":"Kota Daro Ii"},{"id":"1610112008","district_id":"1610112","postal_code":"30661","name":"Sungai Rotan"},{"id":"1610112009","district_id":"1610112","postal_code":"30661","name":"Rantau Panjang Ulu"},{"id":"1610112010","district_id":"1610112","postal_code":"30661","name":"Ketapang Ii"},{"id":"1610112011","district_id":"1610112","postal_code":"30661","name":"Sejangko Ii"},{"id":"1610112012","district_id":"1610112","postal_code":"30661","name":"Arisan Deras"}]