[{"id":"1610032002","district_id":"1610032","postal_code":"30663","name":"Suka Pindah"},{"id":"1610032007","district_id":"1610032","postal_code":"30663","name":"Tanjung Temiang"},{"id":"1610032008","district_id":"1610032","postal_code":"30663","name":"Seri Dalam"},{"id":"1610032018","district_id":"1610032","postal_code":"30663","name":"Kerinjing"},{"id":"1610032019","district_id":"1610032","postal_code":"30663","name":"Ulak Kerbau Baru"},{"id":"1610032020","district_id":"1610032","postal_code":"30663","name":"Ulak Kerbau Lama"},{"id":"1610032021","district_id":"1610032","postal_code":"30663","name":"Tanjung Agas"},{"id":"1610032022","district_id":"1610032","postal_code":"30663","name":"Siring Alam"},{"id":"1610032023","district_id":"1610032","postal_code":"30663","name":"Talang Balai Baru I"},{"id":"1610032024","district_id":"1610032","postal_code":"30663","name":"Talang Balai Lama"},{"id":"1610032030","district_id":"1610032","postal_code":"30663","name":"Skonjing"},{"id":"1610032031","district_id":"1610032","postal_code":"30663","name":"Tanjung Raja Selatan"},{"id":"1610032032","district_id":"1610032","postal_code":"30663","name":"Belanti"},{"id":"1610032033","district_id":"1610032","postal_code":"30663","name":"Tanjung Harapan"},{"id":"1610032034","district_id":"1610032","postal_code":"30663","name":"Talang Balai Baru Ii"}]