[{"id":"1610052015","district_id":"1610052","postal_code":"30653","name":"Aurstanding"},{"id":"1610052016","district_id":"1610052","postal_code":"30653","name":"Sukarami"},{"id":"1610052017","district_id":"1610052","postal_code":"30653","name":"Muara Dua"},{"id":"1610052018","district_id":"1610052","postal_code":"30653","name":"Palu"},{"id":"1610052019","district_id":"1610052","postal_code":"30653","name":"Teluk Kecapi"},{"id":"1610052020","district_id":"1610052","postal_code":"30653","name":"Pelabuhan Dalam"},{"id":"1610052021","district_id":"1610052","postal_code":"30653","name":"Pemulutan Ulu"},{"id":"1610052022","district_id":"1610052","postal_code":"30653","name":"Pemulutan Ilir"},{"id":"1610052023","district_id":"1610052","postal_code":"30653","name":"Sungai Rasau"},{"id":"1610052024","district_id":"1610052","postal_code":"30653","name":"Ibul Besar I"},{"id":"1610052025","district_id":"1610052","postal_code":"30653","name":"Pegayut"},{"id":"1610052029","district_id":"1610052","postal_code":"30653","name":"S. Pelabuhan Dlm"},{"id":"1610052030","district_id":"1610052","postal_code":"30653","name":"Ibul Besar Ii"},{"id":"1610052031","district_id":"1610052","postal_code":"30653","name":"Ibul Besar Iii"},{"id":"1610052032","district_id":"1610052","postal_code":"30653","name":"Mekar Jaya"},{"id":"1610052033","district_id":"1610052","postal_code":"30653","name":"Kedukan Bujang"},{"id":"1610052034","district_id":"1610052","postal_code":"30653","name":"Rawa Jaya"},{"id":"1610052035","district_id":"1610052","postal_code":"30653","name":"Babatan Saudagar"},{"id":"1610052036","district_id":"1610052","postal_code":"30653","name":"Tanjung Pasir"},{"id":"1610052037","district_id":"1610052","postal_code":"30653","name":"Harapan"},{"id":"1610052038","district_id":"1610052","postal_code":"30653","name":"Pipa Putih"},{"id":"1610052039","district_id":"1610052","postal_code":"30653","name":"Sungai Buaya"},{"id":"1610052040","district_id":"1610052","postal_code":"30653","name":"Muara Baru"},{"id":"1610052041","district_id":"1610052","postal_code":"30653","name":"Sembadak"},{"id":"1610052042","district_id":"1610052","postal_code":"30653","name":"Lebung Jangkar"}]