[{"id":"1610062006","district_id":"1610062","postal_code":"30866","name":"Sirah Pulau Kilip"},{"id":"1610062011","district_id":"1610062","postal_code":"30866","name":"Kelampaian"},{"id":"1610062012","district_id":"1610062","postal_code":"30866","name":"Sukananti"},{"id":"1610062013","district_id":"1610062","postal_code":"30866","name":"Sukamarga"},{"id":"1610062014","district_id":"1610062","postal_code":"30866","name":"Rantau Alai"},{"id":"1610062015","district_id":"1610062","postal_code":"30866","name":"Kerta Bayang"},{"id":"1610062016","district_id":"1610062","postal_code":"30866","name":"Tanjung Mas"},{"id":"1610062017","district_id":"1610062","postal_code":"30866","name":"Talang Sari"},{"id":"1610062018","district_id":"1610062","postal_code":"30866","name":"Lebung Bandung"},{"id":"1610062020","district_id":"1610062","postal_code":"30866","name":"Sanding Marga"},{"id":"1610062021","district_id":"1610062","postal_code":"30866","name":"Sukamaju"},{"id":"1610062022","district_id":"1610062","postal_code":"30866","name":"Mekar Sari"},{"id":"1610062023","district_id":"1610062","postal_code":"30866","name":"Sukananti Baru"}]