[{"id":"1611042001","district_id":"1611042","postal_code":"31456","name":"Ujung Alih"},{"id":"1611042002","district_id":"1611042","postal_code":"31456","name":"Lb. Gelanggang"},{"id":"1611042003","district_id":"1611042","postal_code":"31456","name":"Ulak Mengkudu"},{"id":"1611042004","district_id":"1611042","postal_code":"31456","name":"Batu Pance"},{"id":"1611042005","district_id":"1611042","postal_code":"31456","name":"Aur Gading"},{"id":"1611042006","district_id":"1611042","postal_code":"31456","name":"Terusan Lama"},{"id":"1611042007","district_id":"1611042","postal_code":"31456","name":"Terusan Baru"},{"id":"1611042008","district_id":"1611042","postal_code":"31456","name":"Rantau Tenang"},{"id":"1611042009","district_id":"1611042","postal_code":"31456","name":"Seguring Kecil"},{"id":"1611042011","district_id":"1611042","postal_code":"31456","name":"Kemang Manis"},{"id":"1611042012","district_id":"1611042","postal_code":"31456","name":"Lampar Baru"},{"id":"1611042021","district_id":"1611042","postal_code":"31456","name":"Kota Gading"},{"id":"1611042022","district_id":"1611042","postal_code":"31456","name":"Batu Raja Baru"},{"id":"1611042023","district_id":"1611042","postal_code":"31456","name":"Batu Raja Lama"},{"id":"1611042024","district_id":"1611042","postal_code":"31456","name":"Sugi Waras"},{"id":"1611042027","district_id":"1611042","postal_code":"31456","name":"Mekar Jaya"},{"id":"1611042030","district_id":"1611042","postal_code":"31456","name":"Fajar Bakti"},{"id":"1611042032","district_id":"1611042","postal_code":"31456","name":"Pancur Mas"},{"id":"1611042034","district_id":"1611042","postal_code":"31456","name":"Makarti Jaya"},{"id":"1611042035","district_id":"1611042","postal_code":"31456","name":"Tanjung Kupang Baru"}]