[{"id":"1612012001","district_id":"1612012","postal_code":"31214","name":"Talang Bulang"},{"id":"1612012002","district_id":"1612012","postal_code":"31214","name":"Benuang"},{"id":"1612012004","district_id":"1612012","postal_code":"31214","name":"Talang Akar"},{"id":"1612012005","district_id":"1612012","postal_code":"31214","name":"Sungai Ibul"},{"id":"1612012006","district_id":"1612012","postal_code":"31214","name":"Karta Dewa"},{"id":"1612012007","district_id":"1612012","postal_code":"31214","name":"Panta Dewa"},{"id":"1612012008","district_id":"1612012","postal_code":"31214","name":"Sungai Baung"},{"id":"1612012009","district_id":"1612012","postal_code":"31214","name":"Semangus"},{"id":"1612012013","district_id":"1612012","postal_code":"31214","name":"Sinar Dewa"},{"id":"1612012014","district_id":"1612012","postal_code":"31214","name":"Benakat Minyak"},{"id":"1612012015","district_id":"1612012","postal_code":"31214","name":"Suka Maju"},{"id":"1612012016","district_id":"1612012","postal_code":"31214","name":"Suka Damai"},{"id":"1612012019","district_id":"1612012","postal_code":"31214","name":"Beruge Darat"},{"id":"1612012020","district_id":"1612012","postal_code":"31214","name":"Simpang Tais"}]