[{"id":"1701062001","district_id":"1701062","postal_code":"38572","name":"Selali"},{"id":"1701062002","district_id":"1701062","postal_code":"38572","name":"Air Kemang"},{"id":"1701062003","district_id":"1701062","postal_code":"38572","name":"Pasar Pino"},{"id":"1701062004","district_id":"1701062","postal_code":"38572","name":"Tanggo Raso"},{"id":"1701062005","district_id":"1701062","postal_code":"38572","name":"Talang Padang"},{"id":"1701062006","district_id":"1701062","postal_code":"38572","name":"Tungkal I"},{"id":"1701062007","district_id":"1701062","postal_code":"38572","name":"Tungkal Ii"},{"id":"1701062008","district_id":"1701062","postal_code":"38572","name":"Bandung Ayu"},{"id":"1701062009","district_id":"1701062","postal_code":"38572","name":"Napal Melintang"},{"id":"1701062010","district_id":"1701062","postal_code":"38572","name":"Serang Bulan"},{"id":"1701062011","district_id":"1701062","postal_code":"38572","name":"Suka Bandung"},{"id":"1701062012","district_id":"1701062","postal_code":"38572","name":"Pagar Gading"},{"id":"1701062013","district_id":"1701062","postal_code":"38572","name":"Cinto Mandi"},{"id":"1701062014","district_id":"1701062","postal_code":"38572","name":"Kembang Seri"},{"id":"1701062015","district_id":"1701062","postal_code":"38572","name":"Karang Cayo"},{"id":"1701062016","district_id":"1701062","postal_code":"38572","name":"Tanjung Aur Ii"},{"id":"1701062017","district_id":"1701062","postal_code":"38572","name":"Nanjungan"},{"id":"1701062018","district_id":"1701062","postal_code":"38572","name":"Kemang Manis"},{"id":"1701062019","district_id":"1701062","postal_code":"38572","name":"Padang Beriang"},{"id":"1701062020","district_id":"1701062","postal_code":"38572","name":"Padang Serasan"},{"id":"1701062021","district_id":"1701062","postal_code":"38572","name":"Telaga Dalam"}]