[{"id":"1703102008","district_id":"1703102","postal_code":"38654","name":"Datar Lebar"},{"id":"1703102009","district_id":"1703102","postal_code":"38654","name":"Air Padang"},{"id":"1703102011","district_id":"1703102","postal_code":"38654","name":"Durian Daun"},{"id":"1703102012","district_id":"1703102","postal_code":"38654","name":"Dusun Raja"},{"id":"1703102013","district_id":"1703102","postal_code":"38654","name":"Lubuk Lesung"},{"id":"1703102014","district_id":"1703102","postal_code":"38654","name":"Pal 30"},{"id":"1703102015","district_id":"1703102","postal_code":"38654","name":"Jagobayo"},{"id":"1703102017","district_id":"1703102","postal_code":"38654","name":"Talang Rasau"},{"id":"1703102018","district_id":"1703102","postal_code":"38654","name":"Lubuk Gedang"},{"id":"1703102019","district_id":"1703102","postal_code":"38654","name":"Suka Langu"},{"id":"1703102020","district_id":"1703102","postal_code":"38654","name":"Taba Baru"},{"id":"1703102021","district_id":"1703102","postal_code":"38654","name":"Kalbang"}]