[{"id":"1704072001","district_id":"1704072","postal_code":"38964","name":"Muara Dua"},{"id":"1704072002","district_id":"1704072","postal_code":"38964","name":"Gedung Menung"},{"id":"1704072003","district_id":"1704072","postal_code":"38964","name":"Ulak Pandan"},{"id":"1704072005","district_id":"1704072","postal_code":"38964","name":"Merpas"},{"id":"1704072007","district_id":"1704072","postal_code":"38964","name":"Tanjung Betuah"},{"id":"1704072008","district_id":"1704072","postal_code":"38964","name":"Air Palawan"},{"id":"1704072009","district_id":"1704072","postal_code":"38964","name":"Tebing Rambutan"},{"id":"1704072010","district_id":"1704072","postal_code":"38964","name":"Batu Lungun"},{"id":"1704072011","district_id":"1704072","postal_code":"38964","name":"Sumber Harapan"},{"id":"1704072012","district_id":"1704072","postal_code":"38964","name":"Suku Tiga"},{"id":"1704072013","district_id":"1704072","postal_code":"38964","name":"Bukit Indah"},{"id":"1704072014","district_id":"1704072","postal_code":"38964","name":"Suka Jaya"},{"id":"1704072015","district_id":"1704072","postal_code":"38964","name":"Pasar Baru"},{"id":"1704072016","district_id":"1704072","postal_code":"38964","name":"Tri Jaya"},{"id":"1704072017","district_id":"1704072","postal_code":"38964","name":"Air Batang"},{"id":"1704072018","district_id":"1704072","postal_code":"38964","name":"Sinar Banten"},{"id":"1704072019","district_id":"1704072","postal_code":"38964","name":"Pasar Jumat"}]