[{"id":"1705132001","district_id":"1705132","postal_code":"38886","name":"Pagar"},{"id":"1705132002","district_id":"1705132","postal_code":"38886","name":"Muara Simpur"},{"id":"1705132003","district_id":"1705132","postal_code":"38886","name":"Pagar Agung"},{"id":"1705132004","district_id":"1705132","postal_code":"38886","name":"Pagar Banyu"},{"id":"1705132005","district_id":"1705132","postal_code":"38886","name":"Simpur Ijang"},{"id":"1705132006","district_id":"1705132","postal_code":"38886","name":"Air Keruh"},{"id":"1705132007","district_id":"1705132","postal_code":"38886","name":"Hargo Binangun"},{"id":"1705132008","district_id":"1705132","postal_code":"38886","name":"Mekar Jaya"},{"id":"1705132009","district_id":"1705132","postal_code":"38886","name":"Giri Nanto"},{"id":"1705132010","district_id":"1705132","postal_code":"38886","name":"Banyu Kencana"},{"id":"1705132011","district_id":"1705132","postal_code":"38886","name":"Muara Nibung"},{"id":"1705132012","district_id":"1705132","postal_code":"38886","name":"Tanjung Agung"},{"id":"1705132013","district_id":"1705132","postal_code":"38886","name":"Giri Mulya"}]