[{"id":"1705142001","district_id":"1705142","postal_code":"38887","name":"Pasar Talo"},{"id":"1705142002","district_id":"1705142","postal_code":"38887","name":"Dusun Baru"},{"id":"1705142003","district_id":"1705142","postal_code":"38887","name":"Talang Kabu"},{"id":"1705142004","district_id":"1705142","postal_code":"38887","name":"Tanah Abang"},{"id":"1705142005","district_id":"1705142","postal_code":"38887","name":"Penago Baru"},{"id":"1705142006","district_id":"1705142","postal_code":"38887","name":"Nanti Agung"},{"id":"1705142007","district_id":"1705142","postal_code":"38887","name":"Talang Panjang"},{"id":"1705142008","district_id":"1705142","postal_code":"38887","name":"Penago I"},{"id":"1705142009","district_id":"1705142","postal_code":"38887","name":"Penago Ii"},{"id":"1705142010","district_id":"1705142","postal_code":"38887","name":"Rawah Indah"},{"id":"1705142011","district_id":"1705142","postal_code":"38887","name":"Padang Cekur"},{"id":"1705142012","district_id":"1705142","postal_code":"38887","name":"Padang Batu"},{"id":"1705142013","district_id":"1705142","postal_code":"38887","name":"Paluah Terap"},{"id":"1705142014","district_id":"1705142","postal_code":"38887","name":"Margo Sari"},{"id":"1705142015","district_id":"1705142","postal_code":"38887","name":"Mekar Sari"}]