[{"id":"1709082001","district_id":"1709082","postal_code":"38383","name":"Komering"},{"id":"1709082002","district_id":"1709082","postal_code":"38383","name":"Bajak Tiga"},{"id":"1709082003","district_id":"1709082","postal_code":"38383","name":"Rajak Besi"},{"id":"1709082004","district_id":"1709082","postal_code":"38383","name":"Punjung"},{"id":"1709082005","district_id":"1709082","postal_code":"38383","name":"Susup"},{"id":"1709082006","district_id":"1709082","postal_code":"38383","name":"Arga Indah Ii"},{"id":"1709082007","district_id":"1709082","postal_code":"38383","name":"Curup"},{"id":"1709082008","district_id":"1709082","postal_code":"38383","name":"Karang Panggung"},{"id":"1709082009","district_id":"1709082","postal_code":"38383","name":"Lubuk Pendam"},{"id":"1709082010","district_id":"1709082","postal_code":"38383","name":"Lubuk Puar"},{"id":"1709082011","district_id":"1709082","postal_code":"38383","name":"Durian Lebar"},{"id":"1709082012","district_id":"1709082","postal_code":"38383","name":"Pagar Agung"},{"id":"1709082013","district_id":"1709082","postal_code":"38383","name":"Pungguk Jaya"},{"id":"1709082014","district_id":"1709082","postal_code":"38383","name":"Taba Gemantung"},{"id":"1709082015","district_id":"1709082","postal_code":"38383","name":"Pagar Besi"}]