[{"id":"1801172001","district_id":"1801172","postal_code":"35356","name":"Batuliman Indah"},{"id":"1801172002","district_id":"1801172","postal_code":"35356","name":"Sinar Palembang"},{"id":"1801172003","district_id":"1801172","postal_code":"35356","name":"Rantau Minyak"},{"id":"1801172004","district_id":"1801172","postal_code":"35356","name":"Sidosari"},{"id":"1801172005","district_id":"1801172","postal_code":"35356","name":"Way Gelam"},{"id":"1801172006","district_id":"1801172","postal_code":"35356","name":"Cinta Mulya"},{"id":"1801172007","district_id":"1801172","postal_code":"35356","name":"Banyumas"},{"id":"1801172008","district_id":"1801172","postal_code":"35356","name":"Beringin Kencana"},{"id":"1801172009","district_id":"1801172","postal_code":"35356","name":"Sinar Pasemah"},{"id":"1801172010","district_id":"1801172","postal_code":"35356","name":"Rawa Selapan"},{"id":"1801172011","district_id":"1801172","postal_code":"35356","name":"Bumi Jaya"},{"id":"1801172012","district_id":"1801172","postal_code":"35356","name":"Trimomukti"},{"id":"1801172013","district_id":"1801172","postal_code":"35356","name":"Titiwangi"},{"id":"1801172014","district_id":"1801172","postal_code":"35356","name":"Karya Mulya Sari"}]