[{"id":"1801162001","district_id":"1801162","postal_code":"35552","name":"Banding"},{"id":"1801162002","district_id":"1801162","postal_code":"35552","name":"Betung"},{"id":"1801162003","district_id":"1801162","postal_code":"35552","name":"Batu Balak"},{"id":"1801162004","district_id":"1801162","postal_code":"35552","name":"Canti"},{"id":"1801162005","district_id":"1801162","postal_code":"35552","name":"Canggung"},{"id":"1801162006","district_id":"1801162","postal_code":"35552","name":"Cugung"},{"id":"1801162007","district_id":"1801162","postal_code":"35552","name":"Hargo Pancuran"},{"id":"1801162008","district_id":"1801162","postal_code":"35552","name":"Kerinjing"},{"id":"1801162009","district_id":"1801162","postal_code":"35552","name":"Kunjir"},{"id":"1801162010","district_id":"1801162","postal_code":"35552","name":"Kota Guring"},{"id":"1801162011","district_id":"1801162","postal_code":"35552","name":"Rajabasa"},{"id":"1801162012","district_id":"1801162","postal_code":"35552","name":"Sukaraja"},{"id":"1801162013","district_id":"1801162","postal_code":"35552","name":"Tanjung Gading"},{"id":"1801162014","district_id":"1801162","postal_code":"35552","name":"Tejang Pulau Sebesi"},{"id":"1801162015","district_id":"1801162","postal_code":"35552","name":"Way Muli"},{"id":"1801162016","district_id":"1801162","postal_code":"35552","name":"Wai Muli Timur"}]