[{"id":"1802102001","district_id":"1802102","postal_code":"34156","name":"Sumber Bahagia"},{"id":"1802102002","district_id":"1802102","postal_code":"34156","name":"Tanjung Harapan"},{"id":"1802102003","district_id":"1802102","postal_code":"34156","name":"Setia Budi"},{"id":"1802102004","district_id":"1802102","postal_code":"34156","name":"Sumber Baru"},{"id":"1802102005","district_id":"1802102","postal_code":"34156","name":"Siswo Binangun"},{"id":"1802102006","district_id":"1802102","postal_code":"34156","name":"Sanggar Buana"},{"id":"1802102007","district_id":"1802102","postal_code":"34156","name":"Sakti Buana"},{"id":"1802102008","district_id":"1802102","postal_code":"34156","name":"Setia Bakti"},{"id":"1802102009","district_id":"1802102","postal_code":"34156","name":"Sri Basuki"},{"id":"1802102010","district_id":"1802102","postal_code":"34156","name":"Sri Bhakti"},{"id":"1802102011","district_id":"1802102","postal_code":"34156","name":"Swastika Buana"},{"id":"1802102012","district_id":"1802102","postal_code":"34156","name":"Sumber Fajar"},{"id":"1802102013","district_id":"1802102","postal_code":"34156","name":"Tanjung Kerajan"}]