[{"id":"1802122001","district_id":"1802122","postal_code":"34158","name":"Gaya Baru Vi"},{"id":"1802122002","district_id":"1802122","postal_code":"34158","name":"Sumber Katon"},{"id":"1802122003","district_id":"1802122","postal_code":"34158","name":"Srikaton"},{"id":"1802122004","district_id":"1802122","postal_code":"34158","name":"Gaya Baru Vii"},{"id":"1802122005","district_id":"1802122","postal_code":"34158","name":"Gaya Baru Iv"},{"id":"1802122006","district_id":"1802122","postal_code":"34158","name":"Gaya Baru Iii"},{"id":"1802122007","district_id":"1802122","postal_code":"34158","name":"Gaya Baru Ii"},{"id":"1802122008","district_id":"1802122","postal_code":"34158","name":"Gaya Baru Viii"},{"id":"1802122009","district_id":"1802122","postal_code":"34158","name":"Gaya Baru I"},{"id":"1802122010","district_id":"1802122","postal_code":"34158","name":"Mataram Ilir"},{"id":"1802122011","district_id":"1802122","postal_code":"34158","name":"Rawa Betik"},{"id":"1802122012","district_id":"1802122","postal_code":"34158","name":"Srimulya Jaya"},{"id":"1802122013","district_id":"1802122","postal_code":"34158","name":"Kenanga Sari"}]