[{"id":"1803082005","district_id":"1803082","postal_code":"34563","name":"Ogan Jaya"},{"id":"1803082009","district_id":"1803082","postal_code":"34563","name":"Ciamis"},{"id":"1803082010","district_id":"1803082","postal_code":"34563","name":"Padang Ratu"},{"id":"1803082011","district_id":"1803082","postal_code":"34563","name":"Negeri Sakti"},{"id":"1803082012","district_id":"1803082","postal_code":"34563","name":"Negeri Ratu"},{"id":"1803082019","district_id":"1803082","postal_code":"34563","name":"Negara Ratu"},{"id":"1803082020","district_id":"1803082","postal_code":"34563","name":"Batu Raja"},{"id":"1803082021","district_id":"1803082","postal_code":"34563","name":"Gedung Batin"},{"id":"1803082022","district_id":"1803082","postal_code":"34563","name":"Negara Batin"},{"id":"1803082023","district_id":"1803082","postal_code":"34563","name":"Kota Negara"},{"id":"1803082024","district_id":"1803082","postal_code":"34563","name":"Bangun Jaya"},{"id":"1803082028","district_id":"1803082","postal_code":"34563","name":"Baru Raharja"},{"id":"1803082029","district_id":"1803082","postal_code":"34563","name":"Hanakau Jaya"},{"id":"1803082032","district_id":"1803082","postal_code":"34563","name":"Negara Batin Ii"},{"id":"1803082033","district_id":"1803082","postal_code":"34563","name":"Kota Negara Ilir"}]