[{"id":"1803072004","district_id":"1803072","postal_code":"34581","name":"Trimodadi"},{"id":"1803072005","district_id":"1803072","postal_code":"34581","name":"Cabang Empat"},{"id":"1803072006","district_id":"1803072","postal_code":"34581","name":"Sinar Ogan"},{"id":"1803072007","district_id":"1803072","postal_code":"34581","name":"Kalibalangan"},{"id":"1803072009","district_id":"1803072","postal_code":"34581","name":"Gilih Sukanegeri"},{"id":"1803072010","district_id":"1803072","postal_code":"34581","name":"Candimas"},{"id":"1803072011","district_id":"1803072","postal_code":"34581","name":"Kembang Tanjung"},{"id":"1803072012","district_id":"1803072","postal_code":"34581","name":"Abung Jayo"},{"id":"1803072013","district_id":"1803072","postal_code":"34581","name":"Kembang Gading"},{"id":"1803072014","district_id":"1803072","postal_code":"34581","name":"Ratu Abung"},{"id":"1803072015","district_id":"1803072","postal_code":"34581","name":"Bandar Kagungan Raya"},{"id":"1803072016","district_id":"1803072","postal_code":"34581","name":"Bumi Raya"},{"id":"1803072017","district_id":"1803072","postal_code":"34581","name":"Kemalo Abung"},{"id":"1803072018","district_id":"1803072","postal_code":"34581","name":"Cabang Abung Raya"},{"id":"1803072019","district_id":"1803072","postal_code":"34581","name":"Kalibening Raya"},{"id":"1803072020","district_id":"1803072","postal_code":"34581","name":"Way Lunik"}]