[{"id":"1806012016","district_id":"1806012","postal_code":"35381","name":"Negeri Ratu"},{"id":"1806012019","district_id":"1806012","postal_code":"35381","name":"Pananggungan"},{"id":"1806012020","district_id":"1806012","postal_code":"35381","name":"Terdana"},{"id":"1806012021","district_id":"1806012","postal_code":"35381","name":"Kelungu"},{"id":"1806012022","district_id":"1806012","postal_code":"35381","name":"Pardasuka"},{"id":"1806012023","district_id":"1806012","postal_code":"35381","name":"Teratas"},{"id":"1806012024","district_id":"1806012","postal_code":"35381","name":"Kusa"},{"id":"1806012025","district_id":"1806012","postal_code":"35381","name":"Terbaya"},{"id":"1806012026","district_id":"1806012","postal_code":"35381","name":"Kedamaian"},{"id":"1806012027","district_id":"1806012","postal_code":"35381","name":"Kota Agung"},{"id":"1806012039","district_id":"1806012","postal_code":"35381","name":"Kota Batu"},{"id":"1806012040","district_id":"1806012","postal_code":"35381","name":"Campang Tiga"},{"id":"1806012041","district_id":"1806012","postal_code":"35381","name":"Benteng Jaya"}]