[{"id":"1807062001","district_id":"1807062","postal_code":"34381","name":"Banarjoyo"},{"id":"1807062002","district_id":"1807062","postal_code":"34381","name":"Buana Sakti"},{"id":"1807062003","district_id":"1807062","postal_code":"34381","name":"Balekencono"},{"id":"1807062004","district_id":"1807062","postal_code":"34381","name":"Rejo Agung"},{"id":"1807062005","district_id":"1807062","postal_code":"34381","name":"Adiwarno"},{"id":"1807062006","district_id":"1807062","postal_code":"34381","name":"Telogorejo"},{"id":"1807062007","district_id":"1807062","postal_code":"34381","name":"Nampirejo"},{"id":"1807062008","district_id":"1807062","postal_code":"34381","name":"Sumberejo"},{"id":"1807062009","district_id":"1807062","postal_code":"34381","name":"Banjarejo"},{"id":"1807062010","district_id":"1807062","postal_code":"34381","name":"Balerejo"},{"id":"1807062011","district_id":"1807062","postal_code":"34381","name":"Batangharjo"},{"id":"1807062012","district_id":"1807062","postal_code":"34381","name":"Bumi Harjo"},{"id":"1807062013","district_id":"1807062","postal_code":"34381","name":"Bumi Mas"},{"id":"1807062014","district_id":"1807062","postal_code":"34381","name":"Selorejo"},{"id":"1807062015","district_id":"1807062","postal_code":"34381","name":"Sri Basuki"},{"id":"1807062016","district_id":"1807062","postal_code":"34381","name":"Sumber Agung"},{"id":"1807062017","district_id":"1807062","postal_code":"34381","name":"Purwodadi Mekar"}]