[{"id":"1807212001","district_id":"1807212","postal_code":"34375","name":"Labuhan Ratu"},{"id":"1807212002","district_id":"1807212","postal_code":"34375","name":"Labuhan Ratu Iii"},{"id":"1807212003","district_id":"1807212","postal_code":"34375","name":"Labuhan Ratu Iv"},{"id":"1807212004","district_id":"1807212","postal_code":"34375","name":"Labuhan Ratu V"},{"id":"1807212005","district_id":"1807212","postal_code":"34375","name":"Labuhan Ratu Vi"},{"id":"1807212006","district_id":"1807212","postal_code":"34375","name":"Rajabasa Lama"},{"id":"1807212007","district_id":"1807212","postal_code":"34375","name":"Rajabasa Lama I"},{"id":"1807212008","district_id":"1807212","postal_code":"34375","name":"Rajabasa Lama Ii"},{"id":"1807212009","district_id":"1807212","postal_code":"34375","name":"Labuhan Ratu Vii"},{"id":"1807212010","district_id":"1807212","postal_code":"34375","name":"Labuhan Ratu Viii"},{"id":"1807212011","district_id":"1807212","postal_code":"34375","name":"Labuhan Ratu Ix"}]