[{"id":"1808042001","district_id":"1808042","postal_code":"34761","name":"Setia Negara"},{"id":"1808042002","district_id":"1808042","postal_code":"34761","name":"Gedung Pakuon"},{"id":"1808042003","district_id":"1808042","postal_code":"34761","name":"Bumi Merapi"},{"id":"1808042004","district_id":"1808042","postal_code":"34761","name":"Banjar Sari"},{"id":"1808042005","district_id":"1808042","postal_code":"34761","name":"Gunung Katun"},{"id":"1808042006","district_id":"1808042","postal_code":"34761","name":"Bhakti Negara"},{"id":"1808042007","district_id":"1808042","postal_code":"34761","name":"Bumi Rejo"},{"id":"1808042008","district_id":"1808042","postal_code":"34761","name":"Sukosari"},{"id":"1808042010","district_id":"1808042","postal_code":"34761","name":"Banjar Setia"},{"id":"1808042011","district_id":"1808042","postal_code":"34761","name":"Gedung Rejo"},{"id":"1808042012","district_id":"1808042","postal_code":"34761","name":"Banjar Agung"},{"id":"1808042013","district_id":"1808042","postal_code":"34761","name":"Cugah"},{"id":"1808042014","district_id":"1808042","postal_code":"34761","name":"Tiuh Balak I"},{"id":"1808042017","district_id":"1808042","postal_code":"34761","name":"Tiuh Balak"},{"id":"1808042018","district_id":"1808042","postal_code":"34761","name":"Mekar Asri"},{"id":"1808042019","district_id":"1808042","postal_code":"34761","name":"Banjar Negara"},{"id":"1808042020","district_id":"1808042","postal_code":"34761","name":"Banjar Masin"},{"id":"1808042021","district_id":"1808042","postal_code":"34761","name":"Banjar Mulya"},{"id":"1808042022","district_id":"1808042","postal_code":"34761","name":"Banjar Baru"}]