[{"id":"1808032001","district_id":"1808032","postal_code":"34766","name":"Bunglai"},{"id":"1808032002","district_id":"1808032","postal_code":"34766","name":"Campang Lapan"},{"id":"1808032003","district_id":"1808032","postal_code":"34766","name":"Sumber Baru"},{"id":"1808032004","district_id":"1808032","postal_code":"34766","name":"Rantau Temiang"},{"id":"1808032005","district_id":"1808032","postal_code":"34766","name":"Juku Batu"},{"id":"1808032007","district_id":"1808032","postal_code":"34766","name":"Bali Sadar"},{"id":"1808032008","district_id":"1808032","postal_code":"34766","name":"Dono Mulyo"},{"id":"1808032009","district_id":"1808032","postal_code":"34766","name":"Bali Sadar Utara"},{"id":"1808032010","district_id":"1808032","postal_code":"34766","name":"Bali Sadar Selatan"},{"id":"1808032011","district_id":"1808032","postal_code":"34766","name":"Menanga Jaya"},{"id":"1808032012","district_id":"1808032","postal_code":"34766","name":"Argo Mulyo"},{"id":"1808032013","district_id":"1808032","postal_code":"34766","name":"Rantau Jaya"},{"id":"1808032014","district_id":"1808032","postal_code":"34766","name":"Rebang Tinggi"},{"id":"1808032015","district_id":"1808032","postal_code":"34766","name":"Simpang Asam"},{"id":"1808032016","district_id":"1808032","postal_code":"34766","name":"Bandar Agung"},{"id":"1808032017","district_id":"1808032","postal_code":"34766","name":"Kemu"},{"id":"1808032018","district_id":"1808032","postal_code":"34766","name":"Menanga Siamang"},{"id":"1808032019","district_id":"1808032","postal_code":"34766","name":"Neki"},{"id":"1808032020","district_id":"1808032","postal_code":"34766","name":"Sumber Sari"}]