[{"id":"1808102001","district_id":"1808102","postal_code":"34768","name":"Gunung Labuhan"},{"id":"1808102002","district_id":"1808102","postal_code":"34768","name":"Gunung Baru"},{"id":"1808102003","district_id":"1808102","postal_code":"34768","name":"Banjar Sakti"},{"id":"1808102004","district_id":"1808102","postal_code":"34768","name":"Suka Negeri"},{"id":"1808102005","district_id":"1808102","postal_code":"34768","name":"Negeri Mulyo"},{"id":"1808102006","district_id":"1808102","postal_code":"34768","name":"Negeri Sungkai"},{"id":"1808102007","district_id":"1808102","postal_code":"34768","name":"Gunung Sari"},{"id":"1808102008","district_id":"1808102","postal_code":"34768","name":"Way Tuba"},{"id":"1808102009","district_id":"1808102","postal_code":"34768","name":"Bengkulu"},{"id":"1808102010","district_id":"1808102","postal_code":"34768","name":"Bengkulu Rejo"},{"id":"1808102011","district_id":"1808102","postal_code":"34768","name":"Kayu Batu"},{"id":"1808102012","district_id":"1808102","postal_code":"34768","name":"Bengkulu Raman"},{"id":"1808102013","district_id":"1808102","postal_code":"34768","name":"Bengkulu Jaya"},{"id":"1808102014","district_id":"1808102","postal_code":"34768","name":"Tiuh Balak Ii"},{"id":"1808102015","district_id":"1808102","postal_code":"34768","name":"Curup Patah"},{"id":"1808102016","district_id":"1808102","postal_code":"34768","name":"Sukarame"},{"id":"1808102017","district_id":"1808102","postal_code":"34768","name":"Banjar Ratu"},{"id":"1808102018","district_id":"1808102","postal_code":"34768","name":"Negeri Ujan Mas"},{"id":"1808102019","district_id":"1808102","postal_code":"34768","name":"Bengkulu Tengah"},{"id":"1808102020","district_id":"1808102","postal_code":"34768","name":"Gunungpekuwon"},{"id":"1808102021","district_id":"1808102","postal_code":"34768","name":"Labuhan Jaya"}]