[{"id":"1809072008","district_id":"1809072","postal_code":"35368","name":"Way Kepayang"},{"id":"1809072009","district_id":"1809072","postal_code":"35368","name":"Suka Maju"},{"id":"1809072010","district_id":"1809072","postal_code":"35368","name":"Kedondong"},{"id":"1809072011","district_id":"1809072","postal_code":"35368","name":"Pasar Baru"},{"id":"1809072012","district_id":"1809072","postal_code":"35368","name":"Tempel Rejo"},{"id":"1809072013","district_id":"1809072","postal_code":"35368","name":"Kertasana"},{"id":"1809072014","district_id":"1809072","postal_code":"35368","name":"Gunung Sugih"},{"id":"1809072017","district_id":"1809072","postal_code":"35368","name":"Sinar Harapan"},{"id":"1809072018","district_id":"1809072","postal_code":"35368","name":"Teba Jawa"},{"id":"1809072019","district_id":"1809072","postal_code":"35368","name":"Babakan Loa"},{"id":"1809072020","district_id":"1809072","postal_code":"35368","name":"Pesawaran Indah"},{"id":"1809072021","district_id":"1809072","postal_code":"35368","name":"Harapan Jaya"},{"id":"1809072022","district_id":"1809072","postal_code":"35368","name":"Tanjung Rejo"}]