[{"id":"1810042001","district_id":"1810042","postal_code":"35681","name":"Kedaung"},{"id":"1810042002","district_id":"1810042","postal_code":"35681","name":"Pardasuka"},{"id":"1810042003","district_id":"1810042","postal_code":"35681","name":"Suka Negeri"},{"id":"1810042004","district_id":"1810042","postal_code":"35681","name":"Tanjung Rusia"},{"id":"1810042005","district_id":"1810042","postal_code":"35681","name":"Warga Mulyo"},{"id":"1810042006","district_id":"1810042","postal_code":"35681","name":"Pujodadi"},{"id":"1810042007","district_id":"1810042","postal_code":"35681","name":"Sukorejo"},{"id":"1810042008","district_id":"1810042","postal_code":"35681","name":"Selapan"},{"id":"1810042009","district_id":"1810042","postal_code":"35681","name":"Rantau Tijang"},{"id":"1810042010","district_id":"1810042","postal_code":"35681","name":"Sidodadi"},{"id":"1810042011","district_id":"1810042","postal_code":"35681","name":"Pardasuka Timur"},{"id":"1810042012","district_id":"1810042","postal_code":"35681","name":"Tanjung Rusia Timur"},{"id":"1810042013","district_id":"1810042","postal_code":"35681","name":"Pardasuka Selatan"}]