[{"id":"1810052001","district_id":"1810052","postal_code":"35375","name":"Candi Retno"},{"id":"1810052002","district_id":"1810052","postal_code":"35375","name":"Tanjung Dalom"},{"id":"1810052003","district_id":"1810052","postal_code":"35375","name":"Way Ngison"},{"id":"1810052004","district_id":"1810052","postal_code":"35375","name":"Suka Wangi"},{"id":"1810052005","district_id":"1810052","postal_code":"35375","name":"Suka Ratu"},{"id":"1810052006","district_id":"1810052","postal_code":"35375","name":"Pagelaran"},{"id":"1810052007","district_id":"1810052","postal_code":"35375","name":"Patoman"},{"id":"1810052008","district_id":"1810052","postal_code":"35375","name":"Karangsari"},{"id":"1810052009","district_id":"1810052","postal_code":"35375","name":"Gumuk Mas"},{"id":"1810052010","district_id":"1810052","postal_code":"35375","name":"Bumi Ratu"},{"id":"1810052011","district_id":"1810052","postal_code":"35375","name":"Panutan"},{"id":"1810052012","district_id":"1810052","postal_code":"35375","name":"Lugusari"},{"id":"1810052019","district_id":"1810052","postal_code":"35375","name":"Pamenang"},{"id":"1810052020","district_id":"1810052","postal_code":"35375","name":"Gemah Ripah"},{"id":"1810052023","district_id":"1810052","postal_code":"35375","name":"Pasir Ukir"},{"id":"1810052024","district_id":"1810052","postal_code":"35375","name":"Gumukrejo"},{"id":"1810052027","district_id":"1810052","postal_code":"35375","name":"Puji Harjo"},{"id":"1810052028","district_id":"1810052","postal_code":"35375","name":"Padang Rejo"},{"id":"1810052029","district_id":"1810052","postal_code":"35375","name":"Sidodadi"},{"id":"1810052030","district_id":"1810052","postal_code":"35375","name":"Sumber Rejo"},{"id":"1810052031","district_id":"1810052","postal_code":"35375","name":"Ganjaran"},{"id":"1810052032","district_id":"1810052","postal_code":"35375","name":"Bumi Rejo"}]