[{"id":"1904032002","district_id":"1904032","postal_code":"33675","name":"Kerantai"},{"id":"1904032003","district_id":"1904032","postal_code":"33675","name":"Keretak"},{"id":"1904032004","district_id":"1904032","postal_code":"33675","name":"Lampur"},{"id":"1904032005","district_id":"1904032","postal_code":"33675","name":"Sarang Mandi"},{"id":"1904032006","district_id":"1904032","postal_code":"33675","name":"Munggu"},{"id":"1904032007","district_id":"1904032","postal_code":"33675","name":"Kemingking"},{"id":"1904032008","district_id":"1904032","postal_code":"33675","name":"Sungai Selan Atas"},{"id":"1904032009","district_id":"1904032","postal_code":"33675","name":"Tanjung Pura"},{"id":"1904032010","district_id":"1904032","postal_code":"33675","name":"Romadhon"},{"id":"1904032011","district_id":"1904032","postal_code":"33675","name":"Kerakas"},{"id":"1904032012","district_id":"1904032","postal_code":"33675","name":"Melabun"},{"id":"1904032013","district_id":"1904032","postal_code":"33675","name":"Keretak Atas"}]