[{"id":"3201182001","district_id":"3201182","postal_code":"16350","name":"Rumpin"},{"id":"3201182002","district_id":"3201182","postal_code":"16350","name":"Leuwibatu"},{"id":"3201182003","district_id":"3201182","postal_code":"16350","name":"Cidokom"},{"id":"3201182004","district_id":"3201182","postal_code":"16350","name":"Gobang"},{"id":"3201182005","district_id":"3201182","postal_code":"16350","name":"Cibodas"},{"id":"3201182006","district_id":"3201182","postal_code":"16350","name":"Rabak"},{"id":"3201182007","district_id":"3201182","postal_code":"16350","name":"Kampungsawah"},{"id":"3201182008","district_id":"3201182","postal_code":"16350","name":"Cipinang"},{"id":"3201182009","district_id":"3201182","postal_code":"16350","name":"Sukasari"},{"id":"3201182010","district_id":"3201182","postal_code":"16350","name":"Tamansari"},{"id":"3201182011","district_id":"3201182","postal_code":"16350","name":"Kertajaya"},{"id":"3201182012","district_id":"3201182","postal_code":"16350","name":"Sukamulya"},{"id":"3201182013","district_id":"3201182","postal_code":"16350","name":"Mekarsari"},{"id":"3201182014","district_id":"3201182","postal_code":"16350","name":"Mekarjaya"}]