[{"id":"3201222001","district_id":"3201222","postal_code":"16660","name":"Sukamaju"},{"id":"3201222002","district_id":"3201222","postal_code":"16660","name":"Cigudeg"},{"id":"3201222003","district_id":"3201222","postal_code":"16660","name":"Bunar"},{"id":"3201222004","district_id":"3201222","postal_code":"16660","name":"Banyuresmi"},{"id":"3201222005","district_id":"3201222","postal_code":"16660","name":"Cintamanik"},{"id":"3201222006","district_id":"3201222","postal_code":"16660","name":"Argapura"},{"id":"3201222007","district_id":"3201222","postal_code":"16660","name":"Bangunjaya"},{"id":"3201222008","district_id":"3201222","postal_code":"16660","name":"Rengasjajar"},{"id":"3201222009","district_id":"3201222","postal_code":"16660","name":"Batujajar"},{"id":"3201222010","district_id":"3201222","postal_code":"16660","name":"Wargajaya"},{"id":"3201222011","district_id":"3201222","postal_code":"16660","name":"Sukaraksa"},{"id":"3201222012","district_id":"3201222","postal_code":"16660","name":"Banyuwangi"},{"id":"3201222013","district_id":"3201222","postal_code":"16660","name":"Banyuasih"},{"id":"3201222014","district_id":"3201222","postal_code":"16660","name":"Mekarjaya"},{"id":"3201222015","district_id":"3201222","postal_code":"16660","name":"Tegallega"}]