[{"id":"3201011001","district_id":"3201011","postal_code":"16914","name":"Pondok Rajeg"},{"id":"3201011002","district_id":"3201011","postal_code":"16913","name":"Karadenan"},{"id":"3201011003","district_id":"3201011","postal_code":"16914","name":"Harapanjaya"},{"id":"3201011004","district_id":"3201011","postal_code":"16912","name":"Nanggewer"},{"id":"3201011005","district_id":"3201011","postal_code":"16912","name":"Nanggewer Mekar"},{"id":"3201011006","district_id":"3201011","postal_code":"16911","name":"Cibinong"},{"id":"3201011007","district_id":"3201011","postal_code":"16915","name":"Pakansari"},{"id":"3201011008","district_id":"3201011","postal_code":"16914","name":"Tengah"},{"id":"3201011009","district_id":"3201011","postal_code":"16913","name":"Sukahati"},{"id":"3201011010","district_id":"3201011","postal_code":"16918","name":"Ciriung"},{"id":"3201011011","district_id":"3201011","postal_code":"16917","name":"Cirimekar"},{"id":"3201011012","district_id":"3201011","postal_code":"16916","name":"Pabuaran"},{"id":"3201011013","district_id":"3201011","postal_code":"16916","name":"Pabuaran Mekar"}]