[{"id":"3201072001","district_id":"3201072","postal_code":"16820","name":"Pasirangin"},{"id":"3201072002","district_id":"3201072","postal_code":"16820","name":"Mekarsari"},{"id":"3201072003","district_id":"3201072","postal_code":"16820","name":"Mampir"},{"id":"3201072004","district_id":"3201072","postal_code":"16820","name":"Dayeuh"},{"id":"3201072005","district_id":"3201072","postal_code":"16820","name":"Gandoang"},{"id":"3201072006","district_id":"3201072","postal_code":"16820","name":"Jatisari"},{"id":"3201072007","district_id":"3201072","postal_code":"16820","name":"Cileungsi Kidul"},{"id":"3201072008","district_id":"3201072","postal_code":"16820","name":"Cipeucang"},{"id":"3201072009","district_id":"3201072","postal_code":"16820","name":"Situsari"},{"id":"3201072010","district_id":"3201072","postal_code":"16820","name":"Cipenjo"},{"id":"3201072011","district_id":"3201072","postal_code":"16820","name":"Limusnunggal"},{"id":"3201072012","district_id":"3201072","postal_code":"16820","name":"Cileungsi"}]