[{"id":"3201262001","district_id":"3201262","postal_code":"16770","name":"Sukamaju"},{"id":"3201262002","district_id":"3201262","postal_code":"16770","name":"Kuta"},{"id":"3201262003","district_id":"3201262","postal_code":"16770","name":"Gadog"},{"id":"3201262004","district_id":"3201262","postal_code":"16770","name":"Sukakarya"},{"id":"3201262005","district_id":"3201262","postal_code":"16770","name":"Megamendung"},{"id":"3201262006","district_id":"3201262","postal_code":"16770","name":"Cipayung Datar"},{"id":"3201262007","district_id":"3201262","postal_code":"16770","name":"Sukamanah"},{"id":"3201262008","district_id":"3201262","postal_code":"16770","name":"Sukagalih"},{"id":"3201262009","district_id":"3201262","postal_code":"16770","name":"Cipayung Girang"},{"id":"3201262010","district_id":"3201262","postal_code":"16770","name":"Sukamahi"},{"id":"3201262011","district_id":"3201262","postal_code":"16770","name":"Sukaresmi"},{"id":"3201262012","district_id":"3201262","postal_code":"16770","name":"Pasir Angin"}]