[{"id":"3204282001","district_id":"3204282","postal_code":"40394","name":"Rancaekek Wetan"},{"id":"3204282002","district_id":"3204282","postal_code":"40394","name":"Rancaekek Kulon"},{"id":"3204282003","district_id":"3204282","postal_code":"40394","name":"Bojongsalam"},{"id":"3204282004","district_id":"3204282","postal_code":"40394","name":"Bojongloa"},{"id":"3204282005","district_id":"3204282","postal_code":"40394","name":"Jelegong"},{"id":"3204282006","district_id":"3204282","postal_code":"40394","name":"Linggar"},{"id":"3204282007","district_id":"3204282","postal_code":"40394","name":"Cangkuang"},{"id":"3204282008","district_id":"3204282","postal_code":"40394","name":"Haurpugur"},{"id":"3204282009","district_id":"3204282","postal_code":"40394","name":"Sukamanah"},{"id":"3204282010","district_id":"3204282","postal_code":"40394","name":"Sukamulya"},{"id":"3204282011","district_id":"3204282","postal_code":"40394","name":"Tegal Sumedang"},{"id":"3204282012","district_id":"3204282","postal_code":"40394","name":"Sangiang"},{"id":"3204282013","district_id":"3204282","postal_code":"40394","name":"Nanjung Mekar"}]