[{"id":"3204352001","district_id":"3204352","postal_code":"40383","name":"Cigentur"},{"id":"3204352002","district_id":"3204352","postal_code":"40383","name":"Cipedes"},{"id":"3204352003","district_id":"3204352","postal_code":"40383","name":"Loa"},{"id":"3204352004","district_id":"3204352","postal_code":"40383","name":"Cijagra"},{"id":"3204352005","district_id":"3204352","postal_code":"40383","name":"Cipaku"},{"id":"3204352006","district_id":"3204352","postal_code":"40383","name":"Sindangsari"},{"id":"3204352007","district_id":"3204352","postal_code":"40383","name":"Drawati"},{"id":"3204352008","district_id":"3204352","postal_code":"40383","name":"Sukamanah"},{"id":"3204352009","district_id":"3204352","postal_code":"40383","name":"Sukamantri"},{"id":"3204352010","district_id":"3204352","postal_code":"40383","name":"Karangtunggal"},{"id":"3204352011","district_id":"3204352","postal_code":"40383","name":"Mekarpawitan"},{"id":"3204352012","district_id":"3204352","postal_code":"40383","name":"Tangsimekar"}]