[{"id":"3205072001","district_id":"3205072","postal_code":"44160","name":"Samarang"},{"id":"3205072002","district_id":"3205072","postal_code":"44160","name":"Cintarakyat"},{"id":"3205072003","district_id":"3205072","postal_code":"44160","name":"Sukarasa"},{"id":"3205072004","district_id":"3205072","postal_code":"44160","name":"Parakan"},{"id":"3205072005","district_id":"3205072","postal_code":"44160","name":"Sukakarya"},{"id":"3205072006","district_id":"3205072","postal_code":"44160","name":"Cintakarya"},{"id":"3205072007","district_id":"3205072","postal_code":"44160","name":"Tanjung Karya"},{"id":"3205072008","district_id":"3205072","postal_code":"44160","name":"Cisarua"},{"id":"3205072009","district_id":"3205072","postal_code":"44160","name":"Cintarasa"},{"id":"3205072010","district_id":"3205072","postal_code":"44160","name":"Cintaasih"},{"id":"3205072011","district_id":"3205072","postal_code":"44160","name":"Sirnasari"},{"id":"3205072012","district_id":"3205072","postal_code":"44160","name":"Sukalaksana"},{"id":"3205072013","district_id":"3205072","postal_code":"44160","name":"Tanjunganom"}]