[{"id":"3205312001","district_id":"3205312","postal_code":"44165","name":"Bungbulang"},{"id":"3205312002","district_id":"3205312","postal_code":"44165","name":"Hanjuang"},{"id":"3205312003","district_id":"3205312","postal_code":"44165","name":"Gunamekar"},{"id":"3205312004","district_id":"3205312","postal_code":"44165","name":"Tegallega"},{"id":"3205312005","district_id":"3205312","postal_code":"44165","name":"Mekarbakti"},{"id":"3205312006","district_id":"3205312","postal_code":"44165","name":"Margalaksana"},{"id":"3205312007","district_id":"3205312","postal_code":"44165","name":"Bojong"},{"id":"3205312008","district_id":"3205312","postal_code":"44165","name":"Sinarjaya"},{"id":"3205312009","district_id":"3205312","postal_code":"44165","name":"Mekarjaya"},{"id":"3205312010","district_id":"3205312","postal_code":"44165","name":"Cihikeu"},{"id":"3205312011","district_id":"3205312","postal_code":"44165","name":"Wangunjaya"},{"id":"3205312012","district_id":"3205312","postal_code":"44165","name":"Gunung Jampang"},{"id":"3205312013","district_id":"3205312","postal_code":"44165","name":"Hegarmanah"}]