[{"id":"3205082001","district_id":"3205082","postal_code":"44161","name":"Pasirwangi"},{"id":"3205082002","district_id":"3205082","postal_code":"44161","name":"Pasirkiamis"},{"id":"3205082003","district_id":"3205082","postal_code":"44161","name":"Padasuka"},{"id":"3205082004","district_id":"3205082","postal_code":"44161","name":"Karyamekar"},{"id":"3205082005","district_id":"3205082","postal_code":"44161","name":"Padawaas"},{"id":"3205082006","district_id":"3205082","postal_code":"44161","name":"Padaasih"},{"id":"3205082007","district_id":"3205082","postal_code":"44161","name":"Barusari"},{"id":"3205082008","district_id":"3205082","postal_code":"44161","name":"Talaga"},{"id":"3205082009","district_id":"3205082","postal_code":"44161","name":"Padamukti"},{"id":"3205082010","district_id":"3205082","postal_code":"44161","name":"Sinarjaya"},{"id":"3205082011","district_id":"3205082","postal_code":"44161","name":"Sarimukti"},{"id":"3205082012","district_id":"3205082","postal_code":"44161","name":"Padamulya"}]