[{"id":"3206122001","district_id":"3206122","postal_code":"46473","name":"Parumasan"},{"id":"3206122002","district_id":"3206122","postal_code":"46473","name":"Cukangkawung"},{"id":"3206122003","district_id":"3206122","postal_code":"46473","name":"Sodonghilir"},{"id":"3206122004","district_id":"3206122","postal_code":"46473","name":"Cikalong"},{"id":"3206122005","district_id":"3206122","postal_code":"46473","name":"Cipaingeun"},{"id":"3206122006","district_id":"3206122","postal_code":"46473","name":"Leuwidulang"},{"id":"3206122007","district_id":"3206122","postal_code":"46473","name":"Muncang"},{"id":"3206122008","district_id":"3206122","postal_code":"46473","name":"Sepatnunggal"},{"id":"3206122009","district_id":"3206122","postal_code":"46473","name":"Cukangjayaguna"},{"id":"3206122010","district_id":"3206122","postal_code":"46473","name":"Raksajaya"},{"id":"3206122011","district_id":"3206122","postal_code":"46473","name":"Pakalongan"},{"id":"3206122012","district_id":"3206122","postal_code":"46473","name":"Sukabakti"}]