[{"id":"3207182005","district_id":"3207182","postal_code":"46383","name":"Kawasen"},{"id":"3207182006","district_id":"3207182","postal_code":"46383","name":"Cicapar"},{"id":"3207182007","district_id":"3207182","postal_code":"46383","name":"Cibadak"},{"id":"3207182008","district_id":"3207182","postal_code":"46383","name":"Banjarsari"},{"id":"3207182009","district_id":"3207182","postal_code":"46383","name":"Sindanghayu"},{"id":"3207182010","district_id":"3207182","postal_code":"46383","name":"Sindangasih"},{"id":"3207182012","district_id":"3207182","postal_code":"46383","name":"Sindangsari"},{"id":"3207182013","district_id":"3207182","postal_code":"46383","name":"Ciherang"},{"id":"3207182014","district_id":"3207182","postal_code":"46383","name":"Purwasari"},{"id":"3207182015","district_id":"3207182","postal_code":"46383","name":"Ratawangi"},{"id":"3207182016","district_id":"3207182","postal_code":"46383","name":"Ciulu"},{"id":"3207182018","district_id":"3207182","postal_code":"46383","name":"Sukasari"}]