[{"id":"3208172001","district_id":"3208172","postal_code":"45562","name":"Cimenga"},{"id":"3208172002","district_id":"3208172","postal_code":"45562","name":"Cageur"},{"id":"3208172003","district_id":"3208172","postal_code":"45562","name":"Sakerta Barat"},{"id":"3208172004","district_id":"3208172","postal_code":"45562","name":"Sukarasa"},{"id":"3208172005","district_id":"3208172","postal_code":"45562","name":"Paninggaran"},{"id":"3208172006","district_id":"3208172","postal_code":"45562","name":"Cipasung"},{"id":"3208172007","district_id":"3208172","postal_code":"45562","name":"Kawah Manuk"},{"id":"3208172008","district_id":"3208172","postal_code":"45562","name":"Cikupa"},{"id":"3208172009","district_id":"3208172","postal_code":"45562","name":"Parung"},{"id":"3208172010","district_id":"3208172","postal_code":"45562","name":"Darma"},{"id":"3208172011","district_id":"3208172","postal_code":"45562","name":"Jagara"},{"id":"3208172012","district_id":"3208172","postal_code":"45562","name":"Bakom"},{"id":"3208172013","district_id":"3208172","postal_code":"45562","name":"Karanganyar"},{"id":"3208172014","district_id":"3208172","postal_code":"45562","name":"Karangsari"},{"id":"3208172015","district_id":"3208172","postal_code":"45562","name":"Sagarahiyang"},{"id":"3208172016","district_id":"3208172","postal_code":"45562","name":"Gunungsirah"},{"id":"3208172017","district_id":"3208172","postal_code":"45562","name":"Sakerta Timur"},{"id":"3208172018","district_id":"3208172","postal_code":"45562","name":"Tugumulya"},{"id":"3208172019","district_id":"3208172","postal_code":"45562","name":"Situsari"}]