[{"id":"3209182001","district_id":"3209182","postal_code":"45158","name":"Cempaka"},{"id":"3209182002","district_id":"3209182","postal_code":"45158","name":"Pamijahan"},{"id":"3209182003","district_id":"3209182","postal_code":"45158","name":"Lurah"},{"id":"3209182004","district_id":"3209182","postal_code":"45158","name":"Marikangen"},{"id":"3209182005","district_id":"3209182","postal_code":"45158","name":"Bode Lor"},{"id":"3209182006","district_id":"3209182","postal_code":"45158","name":"Bodesari"},{"id":"3209182007","district_id":"3209182","postal_code":"45158","name":"Gombang"},{"id":"3209182008","district_id":"3209182","postal_code":"45158","name":"Karangmulya"},{"id":"3209182009","district_id":"3209182","postal_code":"45158","name":"Karangasem"},{"id":"3209182010","district_id":"3209182","postal_code":"45158","name":"Plumbon"},{"id":"3209182011","district_id":"3209182","postal_code":"45158","name":"Purbawinangun"},{"id":"3209182012","district_id":"3209182","postal_code":"45158","name":"Kebarepan"},{"id":"3209182013","district_id":"3209182","postal_code":"45158","name":"Pasanggrahan"},{"id":"3209182014","district_id":"3209182","postal_code":"45158","name":"Kedungsana"},{"id":"3209182015","district_id":"3209182","postal_code":"45158","name":"Danamulya"}]