[{"id":"3209212001","district_id":"3209212","postal_code":"45151","name":"Adidharma"},{"id":"3209212002","district_id":"3209212","postal_code":"45151","name":"Pasindangan"},{"id":"3209212003","district_id":"3209212","postal_code":"45151","name":"Jadimulya"},{"id":"3209212004","district_id":"3209212","postal_code":"45151","name":"Klayan"},{"id":"3209212005","district_id":"3209212","postal_code":"45151","name":"Jatimerta"},{"id":"3209212006","district_id":"3209212","postal_code":"45151","name":"Astana"},{"id":"3209212007","district_id":"3209212","postal_code":"45151","name":"Kalisapu"},{"id":"3209212008","district_id":"3209212","postal_code":"45151","name":"Wanakaya"},{"id":"3209212009","district_id":"3209212","postal_code":"45151","name":"Grogol"},{"id":"3209212010","district_id":"3209212","postal_code":"45151","name":"Babadan"},{"id":"3209212011","district_id":"3209212","postal_code":"45151","name":"Buyut"},{"id":"3209212012","district_id":"3209212","postal_code":"45151","name":"Mayung"},{"id":"3209212015","district_id":"3209212","postal_code":"45151","name":"Mertasinga"}]