[{"id":"3210012001","district_id":"3210012","postal_code":"45465","name":"Cipasung"},{"id":"3210012002","district_id":"3210012","postal_code":"45465","name":"Bangbayang"},{"id":"3210012003","district_id":"3210012","postal_code":"45465","name":"Borogojol"},{"id":"3210012004","district_id":"3210012","postal_code":"45465","name":"Cibulan"},{"id":"3210012005","district_id":"3210012","postal_code":"45465","name":"Lemahputih"},{"id":"3210012006","district_id":"3210012","postal_code":"45465","name":"Sadawangi"},{"id":"3210012007","district_id":"3210012","postal_code":"45465","name":"Kepuh"},{"id":"3210012008","district_id":"3210012","postal_code":"45465","name":"Padarek"},{"id":"3210012009","district_id":"3210012","postal_code":"45465","name":"Kalapadua"},{"id":"3210012010","district_id":"3210012","postal_code":"45465","name":"Cigaleuh"},{"id":"3210012011","district_id":"3210012","postal_code":"45465","name":"Margajaya"},{"id":"3210012012","district_id":"3210012","postal_code":"45465","name":"Sukajadi"},{"id":"3210012013","district_id":"3210012","postal_code":"45465","name":"Mekarwangi"},{"id":"3210012014","district_id":"3210012","postal_code":"45465","name":"Sinargalih"},{"id":"3210012015","district_id":"3210012","postal_code":"45465","name":"Mekarmulya"},{"id":"3210012016","district_id":"3210012","postal_code":"45465","name":"Sukamaju"},{"id":"3210012017","district_id":"3210012","postal_code":"45465","name":"Cisalak"},{"id":"3210012018","district_id":"3210012","postal_code":"45465","name":"Dayeuhwangi"},{"id":"3210012019","district_id":"3210012","postal_code":"45465","name":"Lemahsugih"}]