[{"id":"3210062001","district_id":"3210062","postal_code":"45461","name":"Cihaur"},{"id":"3210062002","district_id":"3210062","postal_code":"45461","name":"Wanahayu"},{"id":"3210062003","district_id":"3210062","postal_code":"45461","name":"Cengal"},{"id":"3210062004","district_id":"3210062","postal_code":"45461","name":"Anggrawati"},{"id":"3210062005","district_id":"3210062","postal_code":"45461","name":"Cipicung"},{"id":"3210062006","district_id":"3210062","postal_code":"45461","name":"Malongpong"},{"id":"3210062007","district_id":"3210062","postal_code":"45461","name":"Tegalsari"},{"id":"3210062008","district_id":"3210062","postal_code":"45461","name":"Maja Utara"},{"id":"3210062009","district_id":"3210062","postal_code":"45461","name":"Pasanggrahan"},{"id":"3210062010","district_id":"3210062","postal_code":"45461","name":"Cieurih"},{"id":"3210062011","district_id":"3210062","postal_code":"45461","name":"Kartabasuki"},{"id":"3210062012","district_id":"3210062","postal_code":"45461","name":"Sindangkerta"},{"id":"3210062013","district_id":"3210062","postal_code":"45461","name":"Banjaran"},{"id":"3210062014","district_id":"3210062","postal_code":"45461","name":"Paniis"},{"id":"3210062015","district_id":"3210062","postal_code":"45461","name":"Cicalung"},{"id":"3210062016","district_id":"3210062","postal_code":"45461","name":"Pageraji"},{"id":"3210062017","district_id":"3210062","postal_code":"45461","name":"Maja Selatan"},{"id":"3210062018","district_id":"3210062","postal_code":"45461","name":"Nunuk Baru"}]