[{"id":"3210082001","district_id":"3210082","postal_code":"45470","name":"Ciomas"},{"id":"3210082002","district_id":"3210082","postal_code":"45470","name":"Padahanten"},{"id":"3210082009","district_id":"3210082","postal_code":"45470","name":"Sukahaji"},{"id":"3210082010","district_id":"3210082","postal_code":"45470","name":"Salagedang"},{"id":"3210082011","district_id":"3210082","postal_code":"45470","name":"Cikeusik"},{"id":"3210082012","district_id":"3210082","postal_code":"45470","name":"Jayi"},{"id":"3210082013","district_id":"3210082","postal_code":"45470","name":"Nanggewer"},{"id":"3210082014","district_id":"3210082","postal_code":"45470","name":"Palabuan"},{"id":"3210082015","district_id":"3210082","postal_code":"45470","name":"Cikoneng"},{"id":"3210082016","district_id":"3210082","postal_code":"45470","name":"Babakanmanjeti"},{"id":"3210082017","district_id":"3210082","postal_code":"45470","name":"Tanjungsari"},{"id":"3210082018","district_id":"3210082","postal_code":"45470","name":"Cikalong"},{"id":"3210082019","district_id":"3210082","postal_code":"45470","name":"Candrajaya"}]