[{"id":"3210232001","district_id":"3210232","postal_code":"45467","name":"Sedareja"},{"id":"3210232002","district_id":"3210232","postal_code":"45467","name":"Cidadap"},{"id":"3210232003","district_id":"3210232","postal_code":"45467","name":"Maniis"},{"id":"3210232004","district_id":"3210232","postal_code":"45467","name":"Nagarakembang"},{"id":"3210232005","district_id":"3210232","postal_code":"45467","name":"Wangkelang"},{"id":"3210232006","district_id":"3210232","postal_code":"45467","name":"Cimanggu"},{"id":"3210232007","district_id":"3210232","postal_code":"45467","name":"Cingambul"},{"id":"3210232008","district_id":"3210232","postal_code":"45467","name":"Cikondang"},{"id":"3210232009","district_id":"3210232","postal_code":"45467","name":"Ciranjeng"},{"id":"3210232010","district_id":"3210232","postal_code":"45467","name":"Rawa"},{"id":"3210232011","district_id":"3210232","postal_code":"45467","name":"Kondangmekar"},{"id":"3210232012","district_id":"3210232","postal_code":"45467","name":"Cintaasih"},{"id":"3210232013","district_id":"3210232","postal_code":"45467","name":"Muktisari"}]