[{"id":"3214042001","district_id":"3214042","postal_code":"41162","name":"Plered"},{"id":"3214042002","district_id":"3214042","postal_code":"41162","name":"Palinggihan"},{"id":"3214042003","district_id":"3214042","postal_code":"41162","name":"Cibogohilir"},{"id":"3214042004","district_id":"3214042","postal_code":"41162","name":"Linggasari"},{"id":"3214042005","district_id":"3214042","postal_code":"41162","name":"Gandasoli"},{"id":"3214042006","district_id":"3214042","postal_code":"41162","name":"Citeko"},{"id":"3214042007","district_id":"3214042","postal_code":"41162","name":"Liunggunung"},{"id":"3214042008","district_id":"3214042","postal_code":"41162","name":"Rawasari"},{"id":"3214042009","district_id":"3214042","postal_code":"41162","name":"Anjun"},{"id":"3214042010","district_id":"3214042","postal_code":"41162","name":"Sindangsari"},{"id":"3214042011","district_id":"3214042","postal_code":"41162","name":"Babakansari"},{"id":"3214042012","district_id":"3214042","postal_code":"41162","name":"Gandamekar"},{"id":"3214042013","district_id":"3214042","postal_code":"41162","name":"Citekokaler"},{"id":"3214042014","district_id":"3214042","postal_code":"41162","name":"Pamoyanan"},{"id":"3214042015","district_id":"3214042","postal_code":"41162","name":"Sempur"},{"id":"3214042016","district_id":"3214042","postal_code":"41162","name":"Cibogo Girang"}]