[{"id":"3217052001","district_id":"3217052","postal_code":"40558","name":"Cipeundeuy"},{"id":"3217052002","district_id":"3217052","postal_code":"40558","name":"Ciharashas"},{"id":"3217052003","district_id":"3217052","postal_code":"40558","name":"Bojongmekar"},{"id":"3217052004","district_id":"3217052","postal_code":"40558","name":"Ciroyom"},{"id":"3217052005","district_id":"3217052","postal_code":"40558","name":"Jatimekar"},{"id":"3217052006","district_id":"3217052","postal_code":"40558","name":"Margalaksana"},{"id":"3217052007","district_id":"3217052","postal_code":"40558","name":"Margaluyu"},{"id":"3217052008","district_id":"3217052","postal_code":"40558","name":"Nanggeleng"},{"id":"3217052009","district_id":"3217052","postal_code":"40558","name":"Nyenang"},{"id":"3217052010","district_id":"3217052","postal_code":"40558","name":"Sirnaraja"},{"id":"3217052011","district_id":"3217052","postal_code":"40558","name":"Sirnagalih"},{"id":"3217052012","district_id":"3217052","postal_code":"40558","name":"Sukahaji"}]