[{"id":"3217042001","district_id":"3217042","postal_code":"40556","name":"Ciptagumati"},{"id":"3217042002","district_id":"3217042","postal_code":"40556","name":"Cikalong"},{"id":"3217042003","district_id":"3217042","postal_code":"40556","name":"Cipada"},{"id":"3217042004","district_id":"3217042","postal_code":"40556","name":"Cisomangbarat"},{"id":"3217042005","district_id":"3217042","postal_code":"40556","name":"Ganjarsari"},{"id":"3217042006","district_id":"3217042","postal_code":"40556","name":"Kanangasari"},{"id":"3217042007","district_id":"3217042","postal_code":"40556","name":"Mandalasari"},{"id":"3217042008","district_id":"3217042","postal_code":"40556","name":"Mandalamukti"},{"id":"3217042009","district_id":"3217042","postal_code":"40556","name":"Mekarjaya"},{"id":"3217042010","district_id":"3217042","postal_code":"40556","name":"Puteran"},{"id":"3217042011","district_id":"3217042","postal_code":"40556","name":"Rende"},{"id":"3217042012","district_id":"3217042","postal_code":"40556","name":"Tenjolaut"},{"id":"3217042013","district_id":"3217042","postal_code":"40556","name":"Wangunjaya"}]