[{"id":"3301052001","district_id":"3301052","postal_code":"53283","name":"Karangtawang"},{"id":"3301052002","district_id":"3301052","postal_code":"53283","name":"Karangpakis"},{"id":"3301052003","district_id":"3301052","postal_code":"53283","name":"Banjarsari"},{"id":"3301052004","district_id":"3301052","postal_code":"53283","name":"Jetis"},{"id":"3301052005","district_id":"3301052","postal_code":"53283","name":"Banjareja"},{"id":"3301052006","district_id":"3301052","postal_code":"53283","name":"Kedungbenda"},{"id":"3301052007","district_id":"3301052","postal_code":"53283","name":"Klumprit"},{"id":"3301052008","district_id":"3301052","postal_code":"53283","name":"Karangsembung"},{"id":"3301052009","district_id":"3301052","postal_code":"53283","name":"Purwodadi"},{"id":"3301052010","district_id":"3301052","postal_code":"53283","name":"Nusawangkal"},{"id":"3301052011","district_id":"3301052","postal_code":"53283","name":"Karangputat"},{"id":"3301052012","district_id":"3301052","postal_code":"53283","name":"Banjarwaru"},{"id":"3301052013","district_id":"3301052","postal_code":"53283","name":"Danasri Kidul"},{"id":"3301052014","district_id":"3301052","postal_code":"53283","name":"Nusawungu"},{"id":"3301052015","district_id":"3301052","postal_code":"53283","name":"Danasri Lor"},{"id":"3301052016","district_id":"3301052","postal_code":"53283","name":"Danasri"},{"id":"3301052017","district_id":"3301052","postal_code":"53283","name":"Sikanco"}]