[{"id":"3302052001","district_id":"3302052","postal_code":"53172","name":"Adisana"},{"id":"3302052002","district_id":"3302052","postal_code":"53172","name":"Bangsa"},{"id":"3302052003","district_id":"3302052","postal_code":"53172","name":"Karangsari"},{"id":"3302052004","district_id":"3302052","postal_code":"53172","name":"Randegan"},{"id":"3302052005","district_id":"3302052","postal_code":"53172","name":"Kaliwedi"},{"id":"3302052006","district_id":"3302052","postal_code":"53172","name":"Sawangan"},{"id":"3302052007","district_id":"3302052","postal_code":"53172","name":"Kalisalak"},{"id":"3302052008","district_id":"3302052","postal_code":"53172","name":"Cindaga"},{"id":"3302052009","district_id":"3302052","postal_code":"53172","name":"Kebasen"},{"id":"3302052010","district_id":"3302052","postal_code":"53172","name":"Gambarsari"},{"id":"3302052011","district_id":"3302052","postal_code":"53172","name":"Tumiyang"},{"id":"3302052012","district_id":"3302052","postal_code":"53172","name":"Mandirancan"}]