[{"id":"3302232001","district_id":"3302232","postal_code":"53152","name":"Karangsalam Kidul"},{"id":"3302232002","district_id":"3302232","postal_code":"53152","name":"Kebocoran"},{"id":"3302232003","district_id":"3302232","postal_code":"53152","name":"Kedungbanteng"},{"id":"3302232004","district_id":"3302232","postal_code":"53152","name":"Beji"},{"id":"3302232005","district_id":"3302232","postal_code":"53152","name":"Karangnangka"},{"id":"3302232006","district_id":"3302232","postal_code":"53152","name":"Keniten"},{"id":"3302232007","district_id":"3302232","postal_code":"53152","name":"Dawuhan Wetan"},{"id":"3302232008","district_id":"3302232","postal_code":"53152","name":"Dawuhan Kulon"},{"id":"3302232009","district_id":"3302232","postal_code":"53152","name":"Baseh"},{"id":"3302232010","district_id":"3302232","postal_code":"53152","name":"Kalisalak"},{"id":"3302232011","district_id":"3302232","postal_code":"53152","name":"Windujaya"},{"id":"3302232012","district_id":"3302232","postal_code":"53152","name":"Kalikesur"},{"id":"3302232013","district_id":"3302232","postal_code":"53152","name":"Kutaliman"},{"id":"3302232014","district_id":"3302232","postal_code":"53152","name":"Melung"}]