[{"id":"3304042001","district_id":"3304042","postal_code":"53472","name":"Kalitengah"},{"id":"3304042002","district_id":"3304042","postal_code":"53472","name":"Merden"},{"id":"3304042003","district_id":"3304042","postal_code":"53472","name":"Karanganyar"},{"id":"3304042004","district_id":"3304042","postal_code":"53472","name":"Kaliajir"},{"id":"3304042005","district_id":"3304042","postal_code":"53472","name":"Petir"},{"id":"3304042006","district_id":"3304042","postal_code":"53472","name":"Pucungbedug"},{"id":"3304042007","district_id":"3304042","postal_code":"53472","name":"Parakan"},{"id":"3304042008","district_id":"3304042","postal_code":"53472","name":"Mertasari"},{"id":"3304042009","district_id":"3304042","postal_code":"53472","name":"Danaraja"},{"id":"3304042010","district_id":"3304042","postal_code":"53472","name":"Purwonegoro"},{"id":"3304042011","district_id":"3304042","postal_code":"53472","name":"Kalipelus"},{"id":"3304042012","district_id":"3304042","postal_code":"53472","name":"Gumiwang"},{"id":"3304042013","district_id":"3304042","postal_code":"53472","name":"Kutawuluh"}]