[{"id":"3305182001","district_id":"3305182","postal_code":"54421","name":"Sidoharum"},{"id":"3305182002","district_id":"3305182","postal_code":"54421","name":"Selokerto"},{"id":"3305182003","district_id":"3305182","postal_code":"54421","name":"Kalibeji"},{"id":"3305182004","district_id":"3305182","postal_code":"54421","name":"Jatinegara"},{"id":"3305182005","district_id":"3305182","postal_code":"54421","name":"Bejiruyung"},{"id":"3305182006","district_id":"3305182","postal_code":"54421","name":"Pekuncen"},{"id":"3305182007","district_id":"3305182","postal_code":"54421","name":"Kedungjati"},{"id":"3305182008","district_id":"3305182","postal_code":"54421","name":"Semali"},{"id":"3305182009","district_id":"3305182","postal_code":"54421","name":"Bonosari"},{"id":"3305182010","district_id":"3305182","postal_code":"54421","name":"Sempor"},{"id":"3305182011","district_id":"3305182","postal_code":"54421","name":"Tunjungseto"},{"id":"3305182012","district_id":"3305182","postal_code":"54421","name":"Sampang"},{"id":"3305182013","district_id":"3305182","postal_code":"54421","name":"Donorejo"},{"id":"3305182014","district_id":"3305182","postal_code":"54421","name":"Kedungwringin"},{"id":"3305182015","district_id":"3305182","postal_code":"54421","name":"Kenteng"},{"id":"3305182016","district_id":"3305182","postal_code":"54421","name":"Somagede"}]