[{"id":"3305192001","district_id":"3305192","postal_code":"54416","name":"Kalitengah"},{"id":"3305192002","district_id":"3305192","postal_code":"54416","name":"Kemukus"},{"id":"3305192003","district_id":"3305192","postal_code":"54416","name":"Banjarsari"},{"id":"3305192004","district_id":"3305192","postal_code":"54416","name":"Panjangsari"},{"id":"3305192005","district_id":"3305192","postal_code":"54416","name":"Patemon"},{"id":"3305192006","district_id":"3305192","postal_code":"54416","name":"Kedungpuji"},{"id":"3305192007","district_id":"3305192","postal_code":"54416","name":"Wero"},{"id":"3305192010","district_id":"3305192","postal_code":"54413","name":"Semondo"},{"id":"3305192011","district_id":"3305192","postal_code":"54414","name":"Semanding"},{"id":"3305192012","district_id":"3305192","postal_code":"54416","name":"Sidayu"},{"id":"3305192013","district_id":"3305192","postal_code":"54416","name":"Wonosigro"},{"id":"3305192014","district_id":"3305192","postal_code":"54416","name":"Klopogodo"}]