[{"id":"3305142001","district_id":"3305142","postal_code":"54362","name":"Menganti"},{"id":"3305142002","district_id":"3305142","postal_code":"54362","name":"Trikarso"},{"id":"3305142003","district_id":"3305142","postal_code":"54362","name":"Sidoarjo"},{"id":"3305142004","district_id":"3305142","postal_code":"54362","name":"Giwangretno"},{"id":"3305142005","district_id":"3305142","postal_code":"54362","name":"Jabres"},{"id":"3305142006","district_id":"3305142","postal_code":"54362","name":"Sruweng"},{"id":"3305142007","district_id":"3305142","postal_code":"54362","name":"Karanggedang"},{"id":"3305142008","district_id":"3305142","postal_code":"54362","name":"Purwodeso"},{"id":"3305142009","district_id":"3305142","postal_code":"54362","name":"Klepusanggar"},{"id":"3305142010","district_id":"3305142","postal_code":"54362","name":"Tanggeran"},{"id":"3305142011","district_id":"3305142","postal_code":"54362","name":"Karangsari"},{"id":"3305142012","district_id":"3305142","postal_code":"54362","name":"Karangpule"},{"id":"3305142013","district_id":"3305142","postal_code":"54362","name":"Pakuran"},{"id":"3305142014","district_id":"3305142","postal_code":"54362","name":"Pengempon"},{"id":"3305142015","district_id":"3305142","postal_code":"54362","name":"Kejawang"},{"id":"3305142016","district_id":"3305142","postal_code":"54362","name":"Karangjambu"},{"id":"3305142017","district_id":"3305142","postal_code":"54362","name":"Sidoagung"},{"id":"3305142018","district_id":"3305142","postal_code":"54362","name":"Penusupan"},{"id":"3305142019","district_id":"3305142","postal_code":"54362","name":"Donosari"},{"id":"3305142020","district_id":"3305142","postal_code":"54362","name":"Pandansari"},{"id":"3305142021","district_id":"3305142","postal_code":"54362","name":"Condongcampur"}]