[{"id":"3306152001","district_id":"3306152","postal_code":"54181","name":"Kalinongko"},{"id":"3306152002","district_id":"3306152","postal_code":"54181","name":"Trirejo"},{"id":"3306152003","district_id":"3306152","postal_code":"54181","name":"Karangrejo"},{"id":"3306152004","district_id":"3306152","postal_code":"54181","name":"Kalikalong"},{"id":"3306152005","district_id":"3306152","postal_code":"54181","name":"Rimun"},{"id":"3306152006","district_id":"3306152","postal_code":"54181","name":"Tepansari"},{"id":"3306152007","district_id":"3306152","postal_code":"54181","name":"Kaliglagah"},{"id":"3306152008","district_id":"3306152","postal_code":"54181","name":"Tridadi"},{"id":"3306152009","district_id":"3306152","postal_code":"54181","name":"Banyuasin Separe"},{"id":"3306152010","district_id":"3306152","postal_code":"54181","name":"Guyangan"},{"id":"3306152011","district_id":"3306152","postal_code":"54181","name":"Kalisemo"},{"id":"3306152012","district_id":"3306152","postal_code":"54181","name":"Loano"},{"id":"3306152013","district_id":"3306152","postal_code":"54181","name":"Jetis"},{"id":"3306152014","district_id":"3306152","postal_code":"54181","name":"Kedungpoh"},{"id":"3306152015","district_id":"3306152","postal_code":"54181","name":"Maron"},{"id":"3306152016","district_id":"3306152","postal_code":"54181","name":"Kebongunung"},{"id":"3306152017","district_id":"3306152","postal_code":"54181","name":"Mudalrejo"},{"id":"3306152018","district_id":"3306152","postal_code":"54181","name":"Kemejing"},{"id":"3306152019","district_id":"3306152","postal_code":"54181","name":"Banyuasin Kembaran"},{"id":"3306152020","district_id":"3306152","postal_code":"54181","name":"Sedayu"},{"id":"3306152021","district_id":"3306152","postal_code":"54181","name":"Ngargosari"}]