[{"id":"3306061007","district_id":"3306061","postal_code":"54117","name":"Cangkrepkidul"},{"id":"3306061008","district_id":"3306061","postal_code":"54117","name":"Cangkreplor"},{"id":"3306061010","district_id":"3306061","postal_code":"54118","name":"Tambakrejo"},{"id":"3306061011","district_id":"3306061","postal_code":"54119","name":"Kedungsari"},{"id":"3306061012","district_id":"3306061","postal_code":"54115","name":"Pangenrejo"},{"id":"3306061013","district_id":"3306061","postal_code":"54114","name":"Pangenjurutengah"},{"id":"3306061014","district_id":"3306061","postal_code":"54114","name":"Doplang"},{"id":"3306061015","district_id":"3306061","postal_code":"54113","name":"Sindurjan"},{"id":"3306061016","district_id":"3306061","postal_code":"54112","name":"Paduroso"},{"id":"3306061017","district_id":"3306061","postal_code":"54151","name":"Purworejo"},{"id":"3306061018","district_id":"3306061","postal_code":"54112","name":"Mranti"},{"id":"3306061019","district_id":"3306061","postal_code":"54119","name":"Mudal"},{"id":"3306061020","district_id":"3306061","postal_code":"54119","name":"Keseneng"},{"id":"3306061021","district_id":"3306061","postal_code":"54118","name":"Baledono"}]