[{"id":"3306012001","district_id":"3306012","postal_code":"54265","name":"Harjobinangun"},{"id":"3306012002","district_id":"3306012","postal_code":"54265","name":"Patutrejo"},{"id":"3306012003","district_id":"3306012","postal_code":"54265","name":"Ketawangrejo"},{"id":"3306012004","district_id":"3306012","postal_code":"54265","name":"Munggangsari"},{"id":"3306012005","district_id":"3306012","postal_code":"54265","name":"Kertojayan"},{"id":"3306012006","district_id":"3306012","postal_code":"54265","name":"Pasaranom"},{"id":"3306012007","district_id":"3306012","postal_code":"54265","name":"Ukirsari"},{"id":"3306012008","district_id":"3306012","postal_code":"54265","name":"Nambangan"},{"id":"3306012009","district_id":"3306012","postal_code":"54265","name":"Sumberagung"},{"id":"3306012010","district_id":"3306012","postal_code":"54265","name":"Bendungan"},{"id":"3306012011","district_id":"3306012","postal_code":"54265","name":"Rowodadi"},{"id":"3306012012","district_id":"3306012","postal_code":"54265","name":"Bakurejo"},{"id":"3306012013","district_id":"3306012","postal_code":"54265","name":"Duduwetan"},{"id":"3306012014","district_id":"3306012","postal_code":"54265","name":"Dudukulon"},{"id":"3306012015","district_id":"3306012","postal_code":"54265","name":"Rejosari"},{"id":"3306012016","district_id":"3306012","postal_code":"54265","name":"Trimulyo"},{"id":"3306012017","district_id":"3306012","postal_code":"54265","name":"Tulusrejo"},{"id":"3306012018","district_id":"3306012","postal_code":"54265","name":"Tegalrejo"},{"id":"3306012019","district_id":"3306012","postal_code":"54265","name":"Kalirejo"},{"id":"3306012020","district_id":"3306012","postal_code":"54265","name":"Wonoenggal"},{"id":"3306012021","district_id":"3306012","postal_code":"54265","name":"Banyuyoso"},{"id":"3306012022","district_id":"3306012","postal_code":"54265","name":"Grabag"},{"id":"3306012023","district_id":"3306012","postal_code":"54265","name":"Aglik"},{"id":"3306012024","district_id":"3306012","postal_code":"54265","name":"Roworejo"},{"id":"3306012025","district_id":"3306012","postal_code":"54265","name":"Tunggulrejo"},{"id":"3306012026","district_id":"3306012","postal_code":"54265","name":"Kedungkamal"},{"id":"3306012027","district_id":"3306012","postal_code":"54265","name":"Sangubanyu"},{"id":"3306012028","district_id":"3306012","postal_code":"54265","name":"Dukuhdungus"},{"id":"3306012029","district_id":"3306012","postal_code":"54265","name":"Tlepokwetan"},{"id":"3306012030","district_id":"3306012","postal_code":"54265","name":"Tlepokkulon"},{"id":"3306012031","district_id":"3306012","postal_code":"54265","name":"Kumpulrejo"},{"id":"3306012032","district_id":"3306012","postal_code":"54265","name":"Kese"}]