[{"id":"3306052001","district_id":"3306052","postal_code":"54175","name":"Jatirejo"},{"id":"3306052002","district_id":"3306052","postal_code":"54175","name":"Somongari"},{"id":"3306052003","district_id":"3306052","postal_code":"54175","name":"Donorejo"},{"id":"3306052004","district_id":"3306052","postal_code":"54175","name":"Hulosobo"},{"id":"3306052005","district_id":"3306052","postal_code":"54175","name":"Kaliharjo"},{"id":"3306052006","district_id":"3306052","postal_code":"54175","name":"Kaligono"},{"id":"3306052007","district_id":"3306052","postal_code":"54175","name":"Tlogoguwo"},{"id":"3306052008","district_id":"3306052","postal_code":"54175","name":"Pandanrejo"},{"id":"3306052009","district_id":"3306052","postal_code":"54175","name":"Tawangsari"},{"id":"3306052010","district_id":"3306052","postal_code":"54175","name":"Tlogobulu"},{"id":"3306052011","district_id":"3306052","postal_code":"54175","name":"Purbowono"},{"id":"3306052012","district_id":"3306052","postal_code":"54175","name":"Ngaran"},{"id":"3306052013","district_id":"3306052","postal_code":"54175","name":"Kedunggubah"},{"id":"3306052014","district_id":"3306052","postal_code":"54175","name":"Jelok"},{"id":"3306052015","district_id":"3306052","postal_code":"54175","name":"Tlogorejo"},{"id":"3306052016","district_id":"3306052","postal_code":"54175","name":"Gunungwangi"},{"id":"3306052017","district_id":"3306052","postal_code":"54175","name":"Hardimulyo"},{"id":"3306052018","district_id":"3306052","postal_code":"54175","name":"Sudorogo"},{"id":"3306052019","district_id":"3306052","postal_code":"54175","name":"Sumowono"},{"id":"3306052020","district_id":"3306052","postal_code":"54175","name":"Ngadirejo"},{"id":"3306052021","district_id":"3306052","postal_code":"54175","name":"Pucungroto"}]