[{"id":"3307052001","district_id":"3307052","postal_code":"56362","name":"Sawangan"},{"id":"3307052002","district_id":"3307052","postal_code":"56362","name":"Lipursari"},{"id":"3307052003","district_id":"3307052","postal_code":"56362","name":"Selokromo"},{"id":"3307052004","district_id":"3307052","postal_code":"56362","name":"Sojokerto"},{"id":"3307052005","district_id":"3307052","postal_code":"56362","name":"Besani"},{"id":"3307052007","district_id":"3307052","postal_code":"56362","name":"Jlamprang"},{"id":"3307052008","district_id":"3307052","postal_code":"56362","name":"Wonokerto"},{"id":"3307052009","district_id":"3307052","postal_code":"56362","name":"Jonggolsari"},{"id":"3307052010","district_id":"3307052","postal_code":"56362","name":"Kalimendong"},{"id":"3307052011","district_id":"3307052","postal_code":"56362","name":"Timbang"},{"id":"3307052012","district_id":"3307052","postal_code":"56362","name":"Pacarmulyo"},{"id":"3307052013","district_id":"3307052","postal_code":"56362","name":"Durensawit"},{"id":"3307052014","district_id":"3307052","postal_code":"56362","name":"Manggis"}]