[{"id":"3307091002","district_id":"3307091","postal_code":"56313","name":"Tawangsari"},{"id":"3307091003","district_id":"3307091","postal_code":"56312","name":"Mlipak"},{"id":"3307091004","district_id":"3307091","postal_code":"56314","name":"Jaraksari"},{"id":"3307091006","district_id":"3307091","postal_code":"56315","name":"Kramatan"},{"id":"3307091008","district_id":"3307091","postal_code":"56317","name":"Bumiroso"},{"id":"3307091009","district_id":"3307091","postal_code":"56316","name":"Rojoimo"},{"id":"3307091010","district_id":"3307091","postal_code":"56314","name":"Pagerkukuh"},{"id":"3307091011","district_id":"3307091","postal_code":"56312","name":"Sambek"},{"id":"3307091013","district_id":"3307091","postal_code":"56311","name":"Kejiwan"},{"id":"3307091014","district_id":"3307091","postal_code":"56319","name":"Kalianget"},{"id":"3307091015","district_id":"3307091","postal_code":"56319","name":"Jlamprang"},{"id":"3307091020","district_id":"3307091","postal_code":"56311","name":"Wonosobo Barat"},{"id":"3307091021","district_id":"3307091","postal_code":"56317","name":"Wonosobo Timur"}]