[{"id":"3307022001","district_id":"3307022","postal_code":"56374","name":"Gondowulan"},{"id":"3307022002","district_id":"3307022","postal_code":"56374","name":"Jangkrikan"},{"id":"3307022003","district_id":"3307022","postal_code":"56374","name":"Tegeswetan"},{"id":"3307022004","district_id":"3307022","postal_code":"56374","name":"Gadingsukuh"},{"id":"3307022005","district_id":"3307022","postal_code":"56374","name":"Burat"},{"id":"3307022006","district_id":"3307022","postal_code":"56374","name":"Bener"},{"id":"3307022007","district_id":"3307022","postal_code":"56374","name":"Gadingrejo"},{"id":"3307022009","district_id":"3307022","postal_code":"56374","name":"Beran"},{"id":"3307022010","district_id":"3307022","postal_code":"56374","name":"Kapulogo"},{"id":"3307022011","district_id":"3307022","postal_code":"56374","name":"Kagungan"},{"id":"3307022012","district_id":"3307022","postal_code":"56374","name":"Randusari"},{"id":"3307022013","district_id":"3307022","postal_code":"56374","name":"Rejosari"},{"id":"3307022014","district_id":"3307022","postal_code":"56374","name":"Ngalian"},{"id":"3307022015","district_id":"3307022","postal_code":"56374","name":"Kalipuru"},{"id":"3307022016","district_id":"3307022","postal_code":"56374","name":"Tanjunganom"},{"id":"3307022017","district_id":"3307022","postal_code":"56374","name":"Kaliwuluh"},{"id":"3307022018","district_id":"3307022","postal_code":"56374","name":"Tegalgot"},{"id":"3307022019","district_id":"3307022","postal_code":"56374","name":"Warangan"},{"id":"3307022020","district_id":"3307022","postal_code":"56374","name":"Ropoh"},{"id":"3307022021","district_id":"3307022","postal_code":"56374","name":"Pulosaren"}]