[{"id":"3307112001","district_id":"3307112","postal_code":"56351","name":"Sojopuro"},{"id":"3307112002","district_id":"3307112","postal_code":"56351","name":"Candirejo"},{"id":"3307112003","district_id":"3307112","postal_code":"56351","name":"Keseneng"},{"id":"3307112006","district_id":"3307112","postal_code":"56351","name":"Krasak"},{"id":"3307112007","district_id":"3307112","postal_code":"56351","name":"Bumirejo"},{"id":"3307112008","district_id":"3307112","postal_code":"56351","name":"Blederan"},{"id":"3307112010","district_id":"3307112","postal_code":"56351","name":"Sukorejo"},{"id":"3307112011","district_id":"3307112","postal_code":"56351","name":"Larangankulon"},{"id":"3307112012","district_id":"3307112","postal_code":"56351","name":"Pungangan"},{"id":"3307112013","district_id":"3307112","postal_code":"56351","name":"Gunturmadu"},{"id":"3307112014","district_id":"3307112","postal_code":"56351","name":"Mojosari"},{"id":"3307112015","district_id":"3307112","postal_code":"56351","name":"Wonokromo"},{"id":"3307112016","district_id":"3307112","postal_code":"56351","name":"Derongisor"},{"id":"3307112017","district_id":"3307112","postal_code":"56351","name":"Deroduwur"},{"id":"3307112018","district_id":"3307112","postal_code":"56351","name":"Slukatan"},{"id":"3307112019","district_id":"3307112","postal_code":"56351","name":"Kebrengan"}]