[{"id":"3308122001","district_id":"3308122","postal_code":"56163","name":"Wonogiri"},{"id":"3308122002","district_id":"3308122","postal_code":"56163","name":"Kwaderan"},{"id":"3308122003","district_id":"3308122","postal_code":"56163","name":"Madukoro"},{"id":"3308122004","district_id":"3308122","postal_code":"56163","name":"Bumiayu"},{"id":"3308122005","district_id":"3308122","postal_code":"56163","name":"Madugondo"},{"id":"3308122006","district_id":"3308122","postal_code":"56163","name":"Ngargosari"},{"id":"3308122007","district_id":"3308122","postal_code":"56163","name":"Ngendrosari"},{"id":"3308122008","district_id":"3308122","postal_code":"56163","name":"Lesanpuro"},{"id":"3308122009","district_id":"3308122","postal_code":"56163","name":"Banjaretno"},{"id":"3308122010","district_id":"3308122","postal_code":"56163","name":"Krinjing"},{"id":"3308122011","district_id":"3308122","postal_code":"56163","name":"Bangsri"},{"id":"3308122012","district_id":"3308122","postal_code":"56163","name":"Wadas"},{"id":"3308122013","district_id":"3308122","postal_code":"56163","name":"Kajoran"},{"id":"3308122014","district_id":"3308122","postal_code":"56163","name":"Mangunrejo"},{"id":"3308122015","district_id":"3308122","postal_code":"56163","name":"Sambak"},{"id":"3308122016","district_id":"3308122","postal_code":"56163","name":"Bambusari"},{"id":"3308122017","district_id":"3308122","postal_code":"56163","name":"Wuwuharjo"},{"id":"3308122018","district_id":"3308122","postal_code":"56414","name":"Pandansari"},{"id":"3308122019","district_id":"3308122","postal_code":"56163","name":"Pandanretno"},{"id":"3308122020","district_id":"3308122","postal_code":"56163","name":"Krumpakan"},{"id":"3308122021","district_id":"3308122","postal_code":"56163","name":"Banjaragung"},{"id":"3308122022","district_id":"3308122","postal_code":"56163","name":"Sangen"},{"id":"3308122023","district_id":"3308122","postal_code":"56163","name":"Pucungroto"},{"id":"3308122024","district_id":"3308122","postal_code":"56163","name":"Sidorejo"},{"id":"3308122025","district_id":"3308122","postal_code":"56163","name":"Sidowangi"},{"id":"3308122026","district_id":"3308122","postal_code":"56163","name":"Sukomulyo"},{"id":"3308122027","district_id":"3308122","postal_code":"56163","name":"Sukorejo"},{"id":"3308122028","district_id":"3308122","postal_code":"56163","name":"Sutopati"},{"id":"3308122029","district_id":"3308122","postal_code":"56163","name":"Sukomakmur"}]