[{"id":"3309032001","district_id":"3309032","postal_code":"57362","name":"Wonodoyo"},{"id":"3309032002","district_id":"3309032","postal_code":"57362","name":"Jombong"},{"id":"3309032003","district_id":"3309032","postal_code":"57362","name":"Gedangan"},{"id":"3309032004","district_id":"3309032","postal_code":"57362","name":"Sumbung"},{"id":"3309032005","district_id":"3309032","postal_code":"57362","name":"Paras"},{"id":"3309032006","district_id":"3309032","postal_code":"57362","name":"Jelok"},{"id":"3309032007","district_id":"3309032","postal_code":"57362","name":"Bakulan"},{"id":"3309032008","district_id":"3309032","postal_code":"57362","name":"Candigatak"},{"id":"3309032009","district_id":"3309032","postal_code":"57362","name":"Cabeankunti"},{"id":"3309032010","district_id":"3309032","postal_code":"57362","name":"Mliwis"},{"id":"3309032011","district_id":"3309032","postal_code":"57362","name":"Sukabumi"},{"id":"3309032012","district_id":"3309032","postal_code":"57362","name":"Genting"},{"id":"3309032013","district_id":"3309032","postal_code":"57362","name":"Cepogo"},{"id":"3309032014","district_id":"3309032","postal_code":"57362","name":"Kembangkuning"},{"id":"3309032015","district_id":"3309032","postal_code":"57362","name":"Gubug"}]