[{"id":"3310122001","district_id":"3310122","postal_code":"57468","name":"Temuwangi"},{"id":"3310122002","district_id":"3310122","postal_code":"57468","name":"Beji"},{"id":"3310122003","district_id":"3310122","postal_code":"57468","name":"Ngaren"},{"id":"3310122004","district_id":"3310122","postal_code":"57468","name":"Jatimulyo"},{"id":"3310122005","district_id":"3310122","postal_code":"57468","name":"Jetiswetan"},{"id":"3310122006","district_id":"3310122","postal_code":"57468","name":"Keden"},{"id":"3310122007","district_id":"3310122","postal_code":"57468","name":"Bendo"},{"id":"3310122008","district_id":"3310122","postal_code":"57468","name":"Tambakboyo"},{"id":"3310122009","district_id":"3310122","postal_code":"57468","name":"Kedungan"},{"id":"3310122010","district_id":"3310122","postal_code":"57468","name":"Sobayan"},{"id":"3310122011","district_id":"3310122","postal_code":"57468","name":"Kalangan"},{"id":"3310122012","district_id":"3310122","postal_code":"57468","name":"Troketon"},{"id":"3310122013","district_id":"3310122","postal_code":"57468","name":"Kaligawe"},{"id":"3310122014","district_id":"3310122","postal_code":"57468","name":"Lemahireng"}]