[{"id":"3312222001","district_id":"3312222","postal_code":"57683","name":"Waleng"},{"id":"3312222002","district_id":"3312222","postal_code":"57683","name":"Doho"},{"id":"3312222004","district_id":"3312222","postal_code":"57683","name":"Girimarto"},{"id":"3312222005","district_id":"3312222","postal_code":"57683","name":"Jendi"},{"id":"3312222006","district_id":"3312222","postal_code":"57683","name":"Nungkulan"},{"id":"3312222008","district_id":"3312222","postal_code":"57683","name":"Tambakmerang"},{"id":"3312222009","district_id":"3312222","postal_code":"57683","name":"Jatirejo"},{"id":"3312222010","district_id":"3312222","postal_code":"57683","name":"Giriwarno"},{"id":"3312222011","district_id":"3312222","postal_code":"57683","name":"Selorejo"},{"id":"3312222012","district_id":"3312222","postal_code":"57683","name":"Semagar"},{"id":"3312222013","district_id":"3312222","postal_code":"57683","name":"Sanan"},{"id":"3312222014","district_id":"3312222","postal_code":"57683","name":"Bubakan"}]