[{"id":"3312082001","district_id":"3312082","postal_code":"57663","name":"Basuhan"},{"id":"3312082002","district_id":"3312082","postal_code":"57663","name":"Pucung"},{"id":"3312082004","district_id":"3312082","postal_code":"57663","name":"Sindukarto"},{"id":"3312082005","district_id":"3312082","postal_code":"57663","name":"Panekan"},{"id":"3312082006","district_id":"3312082","postal_code":"57663","name":"Baleharjo"},{"id":"3312082007","district_id":"3312082","postal_code":"57663","name":"Sumberharjo"},{"id":"3312082008","district_id":"3312082","postal_code":"57663","name":"Minggarharjo"},{"id":"3312082010","district_id":"3312082","postal_code":"57663","name":"Tegalharjo"},{"id":"3312082011","district_id":"3312082","postal_code":"57663","name":"Eromoko"},{"id":"3312082012","district_id":"3312082","postal_code":"57663","name":"Ngunggahan"},{"id":"3312082013","district_id":"3312082","postal_code":"57663","name":"Tempurharjo"},{"id":"3312082014","district_id":"3312082","postal_code":"57663","name":"Pasekan"},{"id":"3312082015","district_id":"3312082","postal_code":"57663","name":"Ngandong"}]