[{"id":"3315062001","district_id":"3315062","postal_code":"58181","name":"Randurejo"},{"id":"3315062002","district_id":"3315062","postal_code":"58181","name":"Mlowokarang Talun"},{"id":"3315062003","district_id":"3315062","postal_code":"58181","name":"Pojok"},{"id":"3315062004","district_id":"3315062","postal_code":"58181","name":"Jatiharjo"},{"id":"3315062005","district_id":"3315062","postal_code":"58181","name":"Sidorejo"},{"id":"3315062006","district_id":"3315062","postal_code":"58181","name":"Tuko"},{"id":"3315062007","district_id":"3315062","postal_code":"58181","name":"Panunggalan"},{"id":"3315062008","district_id":"3315062","postal_code":"58181","name":"Mangunrejo"},{"id":"3315062009","district_id":"3315062","postal_code":"58181","name":"Jetaksari"},{"id":"3315062010","district_id":"3315062","postal_code":"58181","name":"Pulokulon"},{"id":"3315062011","district_id":"3315062","postal_code":"58181","name":"Jambon"},{"id":"3315062012","district_id":"3315062","postal_code":"58181","name":"Karangharjo"},{"id":"3315062013","district_id":"3315062","postal_code":"58181","name":"Sembungharjo"}]