[{"id":"3315132001","district_id":"3315132","postal_code":"58114","name":"Candisari"},{"id":"3315132002","district_id":"3315132","postal_code":"58114","name":"Genuksuran"},{"id":"3315132005","district_id":"3315132","postal_code":"58114","name":"Ngraji"},{"id":"3315132006","district_id":"3315132","postal_code":"58114","name":"Kandangan"},{"id":"3315132007","district_id":"3315132","postal_code":"58114","name":"Nambuhan"},{"id":"3315132008","district_id":"3315132","postal_code":"58114","name":"Warukaranganyar"},{"id":"3315132009","district_id":"3315132","postal_code":"58114","name":"Nglobar"},{"id":"3315132010","district_id":"3315132","postal_code":"58114","name":"Kedungrejo"},{"id":"3315132011","district_id":"3315132","postal_code":"58114","name":"Karanganyar"},{"id":"3315132014","district_id":"3315132","postal_code":"58114","name":"Ngembak"},{"id":"3315132015","district_id":"3315132","postal_code":"58114","name":"Cingkrong"},{"id":"3315132016","district_id":"3315132","postal_code":"58114","name":"Pulorejo"},{"id":"3315132017","district_id":"3315132","postal_code":"58114","name":"Putat"}]