[{"id":"3316092001","district_id":"3316092","postal_code":"58219","name":"Jepangrejo"},{"id":"3316092002","district_id":"3316092","postal_code":"58219","name":"Kamolan"},{"id":"3316092003","district_id":"3316092","postal_code":"58219","name":"Pelem"},{"id":"3316092004","district_id":"3316092","postal_code":"58219","name":"Purworejo"},{"id":"3316092005","district_id":"3316092","postal_code":"58219","name":"Andongrejo"},{"id":"3316092007","district_id":"3316092","postal_code":"58219","name":"Jejeruk"},{"id":"3316092019","district_id":"3316092","postal_code":"58219","name":"Temurejo"},{"id":"3316092020","district_id":"3316092","postal_code":"58219","name":"Tempurejo"},{"id":"3316092021","district_id":"3316092","postal_code":"58219","name":"Patalan"},{"id":"3316092022","district_id":"3316092","postal_code":"58219","name":"Tambaksari"},{"id":"3316092023","district_id":"3316092","postal_code":"58219","name":"Purwosari"},{"id":"3316092024","district_id":"3316092","postal_code":"58219","name":"Ngadipurwo"},{"id":"3316092025","district_id":"3316092","postal_code":"58219","name":"Sendangharjo"},{"id":"3316092026","district_id":"3316092","postal_code":"58219","name":"Tempuran"},{"id":"3316092027","district_id":"3316092","postal_code":"58219","name":"Plantungan"},{"id":"3316092028","district_id":"3316092","postal_code":"58219","name":"Ngampel"}]