[{"id":"3316091006","district_id":"3316091","postal_code":"58216","name":"Beran"},{"id":"3316091008","district_id":"3316091","postal_code":"58218","name":"Bangkle"},{"id":"3316091009","district_id":"3316091","postal_code":"58217","name":"Kedungjenar"},{"id":"3316091010","district_id":"3316091","postal_code":"58215","name":"Mlangsen"},{"id":"3316091011","district_id":"3316091","postal_code":"58214","name":"Jetis"},{"id":"3316091012","district_id":"3316091","postal_code":"58214","name":"Tambahrejo"},{"id":"3316091013","district_id":"3316091","postal_code":"58213","name":"Kauman"},{"id":"3316091014","district_id":"3316091","postal_code":"58213","name":"Sonorejo"},{"id":"3316091015","district_id":"3316091","postal_code":"58212","name":"Kunden"},{"id":"3316091016","district_id":"3316091","postal_code":"58211","name":"Tempelan"},{"id":"3316091017","district_id":"3316091","postal_code":"58219","name":"Tegalgunung"},{"id":"3316091018","district_id":"3316091","postal_code":"58219","name":"Karangjati"}]