[{"id":"3317142001","district_id":"3317142","postal_code":"59271","name":"Karasgede"},{"id":"3317142002","district_id":"3317142","postal_code":"59271","name":"Jolotundo"},{"id":"3317142003","district_id":"3317142","postal_code":"59271","name":"Sumbergirang"},{"id":"3317142004","district_id":"3317142","postal_code":"59271","name":"Karangturi"},{"id":"3317142005","district_id":"3317142","postal_code":"59271","name":"Babagan"},{"id":"3317142006","district_id":"3317142","postal_code":"59271","name":"Dorokandang"},{"id":"3317142007","district_id":"3317142","postal_code":"59271","name":"Gedongmulyo"},{"id":"3317142008","district_id":"3317142","postal_code":"59271","name":"Dasun"},{"id":"3317142009","district_id":"3317142","postal_code":"59271","name":"Soditan"},{"id":"3317142010","district_id":"3317142","postal_code":"59271","name":"Ngemplak"},{"id":"3317142011","district_id":"3317142","postal_code":"59271","name":"Selopuro"},{"id":"3317142012","district_id":"3317142","postal_code":"59271","name":"Sendangcoyo"},{"id":"3317142013","district_id":"3317142","postal_code":"59271","name":"Ngargomulyo"},{"id":"3317142014","district_id":"3317142","postal_code":"59271","name":"Kajar"},{"id":"3317142015","district_id":"3317142","postal_code":"59271","name":"Gowak"},{"id":"3317142016","district_id":"3317142","postal_code":"59271","name":"Sendangasri"},{"id":"3317142017","district_id":"3317142","postal_code":"59271","name":"Tasiksono"},{"id":"3317142018","district_id":"3317142","postal_code":"59271","name":"Sriombo"},{"id":"3317142019","district_id":"3317142","postal_code":"59271","name":"Bonang"},{"id":"3317142020","district_id":"3317142","postal_code":"59271","name":"Binangun"}]