[{"id":"3317052001","district_id":"3317052","postal_code":"59274","name":"Lodan Kulon"},{"id":"3317052002","district_id":"3317052","postal_code":"59274","name":"Lodan Wetan"},{"id":"3317052003","district_id":"3317052","postal_code":"59274","name":"Bonjor"},{"id":"3317052004","district_id":"3317052","postal_code":"59274","name":"Tawangrejo"},{"id":"3317052005","district_id":"3317052","postal_code":"59274","name":"Sampung"},{"id":"3317052006","district_id":"3317052","postal_code":"59274","name":"Baturno"},{"id":"3317052007","district_id":"3317052","postal_code":"59274","name":"Babaktulung"},{"id":"3317052008","district_id":"3317052","postal_code":"59274","name":"Nglojo"},{"id":"3317052009","district_id":"3317052","postal_code":"59274","name":"Jambangan"},{"id":"3317052010","district_id":"3317052","postal_code":"59274","name":"Pelang"},{"id":"3317052011","district_id":"3317052","postal_code":"59274","name":"Gilis"},{"id":"3317052012","district_id":"3317052","postal_code":"59274","name":"Gunungmulyo"},{"id":"3317052013","district_id":"3317052","postal_code":"59274","name":"Gonggang"},{"id":"3317052014","district_id":"3317052","postal_code":"59274","name":"Sumbermulyo"},{"id":"3317052015","district_id":"3317052","postal_code":"59274","name":"Kalipang"},{"id":"3317052016","district_id":"3317052","postal_code":"59274","name":"Dadapmulyo"},{"id":"3317052017","district_id":"3317052","postal_code":"59274","name":"Sendangmulyo"},{"id":"3317052018","district_id":"3317052","postal_code":"59274","name":"Banowan"},{"id":"3317052019","district_id":"3317052","postal_code":"59274","name":"Temperak"},{"id":"3317052020","district_id":"3317052","postal_code":"59274","name":"Karangmangu"},{"id":"3317052021","district_id":"3317052","postal_code":"59274","name":"Bajingjowo"},{"id":"3317052022","district_id":"3317052","postal_code":"59274","name":"Bajingmeduro"},{"id":"3317052023","district_id":"3317052","postal_code":"59274","name":"Sarangmeduro"}]