[{"id":"3318042001","district_id":"3318042","postal_code":"59181","name":"Pohgading"},{"id":"3318042002","district_id":"3318042","postal_code":"59181","name":"Gunungpanti"},{"id":"3318042003","district_id":"3318042","postal_code":"59181","name":"Godo"},{"id":"3318042004","district_id":"3318042","postal_code":"59181","name":"Kropak"},{"id":"3318042005","district_id":"3318042","postal_code":"59181","name":"Karangsumber"},{"id":"3318042006","district_id":"3318042","postal_code":"59181","name":"Guyangan"},{"id":"3318042007","district_id":"3318042","postal_code":"59181","name":"Sugihan"},{"id":"3318042008","district_id":"3318042","postal_code":"59181","name":"Kebolampang"},{"id":"3318042009","district_id":"3318042","postal_code":"59181","name":"Tlogorejo"},{"id":"3318042010","district_id":"3318042","postal_code":"59181","name":"Pagendisan"},{"id":"3318042011","district_id":"3318042","postal_code":"59181","name":"Pekalongan"},{"id":"3318042012","district_id":"3318042","postal_code":"59181","name":"Danyangmulyo"},{"id":"3318042013","district_id":"3318042","postal_code":"59181","name":"Kudur"},{"id":"3318042014","district_id":"3318042","postal_code":"59181","name":"Padangan"},{"id":"3318042015","district_id":"3318042","postal_code":"59181","name":"Blingijati"},{"id":"3318042016","district_id":"3318042","postal_code":"59181","name":"Mintorahayu"},{"id":"3318042017","district_id":"3318042","postal_code":"59181","name":"Kebowan"},{"id":"3318042018","district_id":"3318042","postal_code":"59181","name":"Winong"},{"id":"3318042019","district_id":"3318042","postal_code":"59181","name":"Klecoregonang"},{"id":"3318042020","district_id":"3318042","postal_code":"59181","name":"Bumiharjo"},{"id":"3318042021","district_id":"3318042","postal_code":"59181","name":"Tawangrejo"},{"id":"3318042022","district_id":"3318042","postal_code":"59181","name":"Bringinwareng"},{"id":"3318042023","district_id":"3318042","postal_code":"59181","name":"Sumbermulyo"},{"id":"3318042024","district_id":"3318042","postal_code":"59181","name":"Degan"},{"id":"3318042025","district_id":"3318042","postal_code":"59181","name":"Serutsadang"},{"id":"3318042026","district_id":"3318042","postal_code":"59181","name":"Pulorejo"},{"id":"3318042027","district_id":"3318042","postal_code":"59181","name":"Karangkonang"},{"id":"3318042028","district_id":"3318042","postal_code":"59181","name":"Tanggel"},{"id":"3318042029","district_id":"3318042","postal_code":"59181","name":"Wirun"},{"id":"3318042030","district_id":"3318042","postal_code":"59181","name":"Sarimulyo"}]