[{"id":"3318122001","district_id":"3318122","postal_code":"59163","name":"Jambean Kidul"},{"id":"3318122002","district_id":"3318122","postal_code":"59163","name":"Wangunrejo"},{"id":"3318122003","district_id":"3318122","postal_code":"59163","name":"Bumirejo"},{"id":"3318122004","district_id":"3318122","postal_code":"59163","name":"Sokokulon"},{"id":"3318122005","district_id":"3318122","postal_code":"59163","name":"Jimbaran"},{"id":"3318122006","district_id":"3318122","postal_code":"59163","name":"Ngawen"},{"id":"3318122007","district_id":"3318122","postal_code":"59163","name":"Margorejo"},{"id":"3318122008","district_id":"3318122","postal_code":"59163","name":"Penambuhan"},{"id":"3318122009","district_id":"3318122","postal_code":"59163","name":"Langenharjo"},{"id":"3318122010","district_id":"3318122","postal_code":"59163","name":"Dadirejo"},{"id":"3318122011","district_id":"3318122","postal_code":"59163","name":"Sukoharjo"},{"id":"3318122012","district_id":"3318122","postal_code":"59163","name":"Badegan"},{"id":"3318122013","district_id":"3318122","postal_code":"59163","name":"Pegandan"},{"id":"3318122014","district_id":"3318122","postal_code":"59163","name":"Sokobubuk"},{"id":"3318122015","district_id":"3318122","postal_code":"59163","name":"Banyuurip"},{"id":"3318122016","district_id":"3318122","postal_code":"59163","name":"Mataraman"},{"id":"3318122017","district_id":"3318122","postal_code":"59163","name":"Langse"},{"id":"3318122018","district_id":"3318122","postal_code":"59163","name":"Muktiharjo"}]