[{"id":"3318102001","district_id":"3318102","postal_code":"59116","name":"Panjunan"},{"id":"3318102002","district_id":"3318102","postal_code":"59116","name":"Gajahmati"},{"id":"3318102003","district_id":"3318102","postal_code":"59117","name":"Mustokoharjo"},{"id":"3318102004","district_id":"3318102","postal_code":"59116","name":"Semampir"},{"id":"3318102006","district_id":"3318102","postal_code":"59114","name":"Blaru"},{"id":"3318102008","district_id":"3318102","postal_code":"59113","name":"Plangitan"},{"id":"3318102009","district_id":"3318102","postal_code":"59113","name":"Puri"},{"id":"3318102010","district_id":"3318102","postal_code":"59112","name":"Winong"},{"id":"3318102011","district_id":"3318102","postal_code":"59112","name":"Ngarus"},{"id":"3318102014","district_id":"3318102","postal_code":"59117","name":"Sidoharjo"},{"id":"3318102016","district_id":"3318102","postal_code":"59118","name":"Sarirejo"},{"id":"3318102017","district_id":"3318102","postal_code":"59119","name":"Geritan"},{"id":"3318102018","district_id":"3318102","postal_code":"59119","name":"Dengkek"},{"id":"3318102019","district_id":"3318102","postal_code":"59119","name":"Sugiharjo"},{"id":"3318102020","district_id":"3318102","postal_code":"59119","name":"Widorokandang"},{"id":"3318102021","district_id":"3318102","postal_code":"59119","name":"Payang"},{"id":"3318102022","district_id":"3318102","postal_code":"59118","name":"Kutoharjo"},{"id":"3318102023","district_id":"3318102","postal_code":"59111","name":"Sidokerto"},{"id":"3318102024","district_id":"3318102","postal_code":"59119","name":"Mulyoharjo"},{"id":"3318102025","district_id":"3318102","postal_code":"59119","name":"Tambaharjo"},{"id":"3318102026","district_id":"3318102","postal_code":"59119","name":"Tambahsari"},{"id":"3318102027","district_id":"3318102","postal_code":"59119","name":"Ngepungrojo"},{"id":"3318102028","district_id":"3318102","postal_code":"59119","name":"Purworejo"},{"id":"3318102029","district_id":"3318102","postal_code":"59119","name":"Sinoman"}]