[{"id":"3320012001","district_id":"3320012","postal_code":"59463","name":"Kedungmalang"},{"id":"3320012002","district_id":"3320012","postal_code":"59463","name":"Kalianyar"},{"id":"3320012003","district_id":"3320012","postal_code":"59463","name":"Karangaji"},{"id":"3320012004","district_id":"3320012","postal_code":"59463","name":"Tedunan"},{"id":"3320012005","district_id":"3320012","postal_code":"59463","name":"Sowan Lor"},{"id":"3320012006","district_id":"3320012","postal_code":"59463","name":"Sowan Kidul"},{"id":"3320012007","district_id":"3320012","postal_code":"59463","name":"Wanusobo"},{"id":"3320012008","district_id":"3320012","postal_code":"59463","name":"Surodadi"},{"id":"3320012009","district_id":"3320012","postal_code":"59463","name":"Panggung"},{"id":"3320012010","district_id":"3320012","postal_code":"59463","name":"Bulak Baru"},{"id":"3320012011","district_id":"3320012","postal_code":"59463","name":"Jondang"},{"id":"3320012012","district_id":"3320012","postal_code":"59463","name":"Bugel"},{"id":"3320012013","district_id":"3320012","postal_code":"59463","name":"Dongos"},{"id":"3320012014","district_id":"3320012","postal_code":"59463","name":"Menganti"},{"id":"3320012015","district_id":"3320012","postal_code":"59463","name":"Kerso"},{"id":"3320012016","district_id":"3320012","postal_code":"59463","name":"Tanggul Tlare"},{"id":"3320012017","district_id":"3320012","postal_code":"59463","name":"Rau"},{"id":"3320012018","district_id":"3320012","postal_code":"59463","name":"Sukosono"}]