[{"id":"3320042001","district_id":"3320042","postal_code":"59465","name":"Mayong Lor"},{"id":"3320042002","district_id":"3320042","postal_code":"59465","name":"Tigojuru"},{"id":"3320042003","district_id":"3320042","postal_code":"59465","name":"Paren"},{"id":"3320042004","district_id":"3320042","postal_code":"59465","name":"Kuanyar"},{"id":"3320042005","district_id":"3320042","postal_code":"59465","name":"Pelang"},{"id":"3320042006","district_id":"3320042","postal_code":"59465","name":"Sengonbugel"},{"id":"3320042007","district_id":"3320042","postal_code":"59465","name":"Jebol"},{"id":"3320042008","district_id":"3320042","postal_code":"59465","name":"Singorojo"},{"id":"3320042009","district_id":"3320042","postal_code":"59465","name":"Pelemkerep"},{"id":"3320042010","district_id":"3320042","postal_code":"59465","name":"Buaran"},{"id":"3320042011","district_id":"3320042","postal_code":"59465","name":"Ngroto"},{"id":"3320042012","district_id":"3320042","postal_code":"59465","name":"Rajekwesi"},{"id":"3320042013","district_id":"3320042","postal_code":"59465","name":"Datar"},{"id":"3320042014","district_id":"3320042","postal_code":"0","name":"Pule"},{"id":"3320042015","district_id":"3320042","postal_code":"59465","name":"Bandung"},{"id":"3320042016","district_id":"3320042","postal_code":"59465","name":"Bungu"},{"id":"3320042017","district_id":"3320042","postal_code":"59465","name":"Pancur"},{"id":"3320042018","district_id":"3320042","postal_code":"59465","name":"Mayong Kidul"}]