[{"id":"3321092001","district_id":"3321092","postal_code":"59582","name":"Jatirejo"},{"id":"3321092002","district_id":"3321092","postal_code":"59582","name":"Ngaluran"},{"id":"3321092003","district_id":"3321092","postal_code":"59582","name":"Wonoketingal"},{"id":"3321092004","district_id":"3321092","postal_code":"59582","name":"Cangkringrembang"},{"id":"3321092005","district_id":"3321092","postal_code":"59582","name":"Cangkring"},{"id":"3321092006","district_id":"3321092","postal_code":"59582","name":"Tuwang"},{"id":"3321092007","district_id":"3321092","postal_code":"59582","name":"Undaan Kidul"},{"id":"3321092008","district_id":"3321092","postal_code":"59582","name":"Undaan Lor"},{"id":"3321092009","district_id":"3321092","postal_code":"59582","name":"Ketanjung"},{"id":"3321092010","district_id":"3321092","postal_code":"59582","name":"Ngemplikwetan"},{"id":"3321092011","district_id":"3321092","postal_code":"59582","name":"Wonorejo"},{"id":"3321092012","district_id":"3321092","postal_code":"59582","name":"Karanganyar"},{"id":"3321092013","district_id":"3321092","postal_code":"59582","name":"Kedungwaru Kidul"},{"id":"3321092014","district_id":"3321092","postal_code":"59582","name":"Kedungwaru Lor"},{"id":"3321092015","district_id":"3321092","postal_code":"59582","name":"Bandungrejo"},{"id":"3321092016","district_id":"3321092","postal_code":"59582","name":"Tugu Lor"},{"id":"3321092017","district_id":"3321092","postal_code":"59582","name":"Kotaan"}]