[{"id":"3321102001","district_id":"3321102","postal_code":"59584","name":"Geneng"},{"id":"3321102002","district_id":"3321102","postal_code":"59584","name":"Ngelowetan"},{"id":"3321102003","district_id":"3321102","postal_code":"59584","name":"Mlaten"},{"id":"3321102004","district_id":"3321102","postal_code":"59584","name":"Bantengmati"},{"id":"3321102005","district_id":"3321102","postal_code":"59584","name":"Ngelokulon"},{"id":"3321102006","district_id":"3321102","postal_code":"59584","name":"Pasir"},{"id":"3321102007","district_id":"3321102","postal_code":"59584","name":"Rejosari"},{"id":"3321102008","district_id":"3321102","postal_code":"59584","name":"Ngegot"},{"id":"3321102009","district_id":"3321102","postal_code":"59584","name":"Jleper"},{"id":"3321102010","district_id":"3321102","postal_code":"59584","name":"Pecuk"},{"id":"3321102011","district_id":"3321102","postal_code":"59584","name":"Tanggul"},{"id":"3321102012","district_id":"3321102","postal_code":"59584","name":"Bakung"},{"id":"3321102013","district_id":"3321102","postal_code":"59584","name":"Bremi"},{"id":"3321102014","district_id":"3321102","postal_code":"59584","name":"Mijen"},{"id":"3321102015","district_id":"3321102","postal_code":"59584","name":"Gempolsongo"}]