[{"id":"3322032001","district_id":"3322032","postal_code":"50777","name":"Badran"},{"id":"3322032002","district_id":"3322032","postal_code":"50777","name":"Timpik"},{"id":"3322032003","district_id":"3322032","postal_code":"50777","name":"Tawang"},{"id":"3322032004","district_id":"3322032","postal_code":"50777","name":"Bakalrejo"},{"id":"3322032005","district_id":"3322032","postal_code":"50777","name":"Ketapang"},{"id":"3322032006","district_id":"3322032","postal_code":"50777","name":"Susukan"},{"id":"3322032007","district_id":"3322032","postal_code":"50777","name":"Sidoharjo"},{"id":"3322032008","district_id":"3322032","postal_code":"50777","name":"Gentan"},{"id":"3322032009","district_id":"3322032","postal_code":"50777","name":"Muncar"},{"id":"3322032010","district_id":"3322032","postal_code":"50777","name":"Ngasinan"},{"id":"3322032011","district_id":"3322032","postal_code":"50777","name":"Koripan"},{"id":"3322032012","district_id":"3322032","postal_code":"50777","name":"Kenteng"},{"id":"3322032013","district_id":"3322032","postal_code":"50777","name":"Kemetul"}]