[{"id":"3323082002","district_id":"3323082","postal_code":"56254","name":"Campursalam"},{"id":"3323082003","district_id":"3323082","postal_code":"56254","name":"Wanutengah"},{"id":"3323082004","district_id":"3323082","postal_code":"56254","name":"Nglondong"},{"id":"3323082005","district_id":"3323082","postal_code":"56254","name":"Bagusan"},{"id":"3323082007","district_id":"3323082","postal_code":"56254","name":"Dangkel"},{"id":"3323082008","district_id":"3323082","postal_code":"56254","name":"Mandisari"},{"id":"3323082009","district_id":"3323082","postal_code":"56254","name":"Tegalroso"},{"id":"3323082010","district_id":"3323082","postal_code":"56254","name":"Traji"},{"id":"3323082011","district_id":"3323082","postal_code":"56254","name":"Watukumpul"},{"id":"3323082012","district_id":"3323082","postal_code":"56254","name":"Ringinanom"},{"id":"3323082013","district_id":"3323082","postal_code":"56254","name":"Depokharjo"},{"id":"3323082014","district_id":"3323082","postal_code":"56254","name":"Caturanom"},{"id":"3323082015","district_id":"3323082","postal_code":"56254","name":"Glapansari"},{"id":"3323082016","district_id":"3323082","postal_code":"56254","name":"Sunggingsari"}]