[{"id":"3323182001","district_id":"3323182","postal_code":"56258","name":"Bejen"},{"id":"3323182002","district_id":"3323182","postal_code":"56258","name":"Banjarsari"},{"id":"3323182003","district_id":"3323182","postal_code":"56258","name":"Jlegong"},{"id":"3323182004","district_id":"3323182","postal_code":"56258","name":"Prangkokan"},{"id":"3323182005","district_id":"3323182","postal_code":"56258","name":"Lowungu"},{"id":"3323182006","district_id":"3323182","postal_code":"56258","name":"Larangan Luwok"},{"id":"3323182007","district_id":"3323182","postal_code":"56258","name":"Congkrang"},{"id":"3323182008","district_id":"3323182","postal_code":"56258","name":"Kebondalem"},{"id":"3323182009","district_id":"3323182","postal_code":"56258","name":"Kemuning"},{"id":"3323182010","district_id":"3323182","postal_code":"56258","name":"Selosabrang"},{"id":"3323182011","district_id":"3323182","postal_code":"56258","name":"Tanjungsari"},{"id":"3323182012","district_id":"3323182","postal_code":"56258","name":"Petung"},{"id":"3323182013","district_id":"3323182","postal_code":"56258","name":"Duren"},{"id":"3323182014","district_id":"3323182","postal_code":"56258","name":"Ngaliyan"}]