[{"id":"3324062001","district_id":"3324062","postal_code":"51383","name":"Kedungboto"},{"id":"3324062002","district_id":"3324062","postal_code":"0","name":"Peron"},{"id":"3324062003","district_id":"3324062","postal_code":"51383","name":"Gondang"},{"id":"3324062004","district_id":"3324062","postal_code":"51383","name":"Pakis"},{"id":"3324062005","district_id":"3324062","postal_code":"51383","name":"Sumberahayu"},{"id":"3324062006","district_id":"3324062","postal_code":"51383","name":"Tambahsari"},{"id":"3324062007","district_id":"3324062","postal_code":"51383","name":"Limbangan"},{"id":"3324062008","district_id":"3324062","postal_code":"51383","name":"Pagertoyo"},{"id":"3324062009","district_id":"3324062","postal_code":"51383","name":"Sriwulan"},{"id":"3324062010","district_id":"3324062","postal_code":"51383","name":"Tabet"},{"id":"3324062011","district_id":"3324062","postal_code":"51383","name":"Ngesrepbalong"},{"id":"3324062012","district_id":"3324062","postal_code":"51383","name":"Gonoharjo"},{"id":"3324062013","district_id":"3324062","postal_code":"51383","name":"Jawisari"},{"id":"3324062014","district_id":"3324062","postal_code":"51383","name":"Margosari"},{"id":"3324062015","district_id":"3324062","postal_code":"51383","name":"Tamanrejo"},{"id":"3324062016","district_id":"3324062","postal_code":"51383","name":"Pagerwojo"}]