[{"id":"3324132001","district_id":"3324132","postal_code":"51352","name":"Pandes"},{"id":"3324132002","district_id":"3324132","postal_code":"51352","name":"Podosari"},{"id":"3324132003","district_id":"3324132","postal_code":"51352","name":"Botomulyo"},{"id":"3324132004","district_id":"3324132","postal_code":"51352","name":"Cepiring"},{"id":"3324132005","district_id":"3324132","postal_code":"51352","name":"Damarsari"},{"id":"3324132006","district_id":"3324132","postal_code":"51352","name":"Karangayu"},{"id":"3324132007","district_id":"3324132","postal_code":"51352","name":"Karangsuno"},{"id":"3324132008","district_id":"3324132","postal_code":"51352","name":"Gondang"},{"id":"3324132009","district_id":"3324132","postal_code":"51352","name":"Sidomulyo"},{"id":"3324132010","district_id":"3324132","postal_code":"51352","name":"Juwiring"},{"id":"3324132011","district_id":"3324132","postal_code":"51352","name":"Kaliayu"},{"id":"3324132012","district_id":"3324132","postal_code":"51352","name":"Kalirandugede"},{"id":"3324132013","district_id":"3324132","postal_code":"51352","name":"Korowelangkulon"},{"id":"3324132014","district_id":"3324132","postal_code":"51352","name":"Korowelanganyar"},{"id":"3324132015","district_id":"3324132","postal_code":"51352","name":"Margorejo"}]