[{"id":"3325112001","district_id":"3325112","postal_code":"51216","name":"Rowobelang"},{"id":"3325112002","district_id":"3325112","postal_code":"51216","name":"Cepokokuning"},{"id":"3325112003","district_id":"3325112","postal_code":"51216","name":"Pasekaran"},{"id":"3325112004","district_id":"3325112","postal_code":"51216","name":"Kalisalak"},{"id":"3325112005","district_id":"3325112","postal_code":"51216","name":"Kecepak"},{"id":"3325112006","district_id":"3325112","postal_code":"51216","name":"Klidang Wetan"},{"id":"3325112007","district_id":"3325112","postal_code":"51216","name":"Klidang Lor"},{"id":"3325112008","district_id":"3325112","postal_code":"51216","name":"Kalipucang Wetan"},{"id":"3325112009","district_id":"3325112","postal_code":"51216","name":"Kalipucang Kulon"},{"id":"3325112010","district_id":"3325112","postal_code":"51216","name":"Karanganyar"},{"id":"3325112011","district_id":"3325112","postal_code":"51216","name":"Denasri Kulon"},{"id":"3325112012","district_id":"3325112","postal_code":"51216","name":"Denasri Wetan"}]