[{"id":"3326132001","district_id":"3326132","postal_code":"51173","name":"Kedungpatangewu"},{"id":"3326132002","district_id":"3326132","postal_code":"51173","name":"Pakisputih"},{"id":"3326132003","district_id":"3326132","postal_code":"51173","name":"Rowocacing"},{"id":"3326132004","district_id":"3326132","postal_code":"51173","name":"Langkap"},{"id":"3326132005","district_id":"3326132","postal_code":"51173","name":"Tosaran"},{"id":"3326132006","district_id":"3326132","postal_code":"51173","name":"Pajomblangan"},{"id":"3326132007","district_id":"3326132","postal_code":"51173","name":"Proto"},{"id":"3326132008","district_id":"3326132","postal_code":"51173","name":"Kwayangan"},{"id":"3326132010","district_id":"3326132","postal_code":"51173","name":"Podo"},{"id":"3326132011","district_id":"3326132","postal_code":"51173","name":"Salakbrojo"},{"id":"3326132012","district_id":"3326132","postal_code":"51173","name":"Ambokembang"},{"id":"3326132014","district_id":"3326132","postal_code":"51173","name":"Tangkiltengah"},{"id":"3326132015","district_id":"3326132","postal_code":"51173","name":"Karangdowo"},{"id":"3326132016","district_id":"3326132","postal_code":"51173","name":"Bugangan"},{"id":"3326132017","district_id":"3326132","postal_code":"51173","name":"Rengas"},{"id":"3326132018","district_id":"3326132","postal_code":"51173","name":"Tangkilkulon"}]