[{"id":"3326102001","district_id":"3326102","postal_code":"51155","name":"Ketanonageng"},{"id":"3326102002","district_id":"3326102","postal_code":"51155","name":"Mrican"},{"id":"3326102003","district_id":"3326102","postal_code":"51155","name":"Bulaksari"},{"id":"3326102004","district_id":"3326102","postal_code":"51155","name":"Sumubkidul"},{"id":"3326102005","district_id":"3326102","postal_code":"51155","name":"Kalijambe"},{"id":"3326102006","district_id":"3326102","postal_code":"51155","name":"Sumublor"},{"id":"3326102007","district_id":"3326102","postal_code":"51155","name":"Krsakageng"},{"id":"3326102008","district_id":"3326102","postal_code":"51155","name":"Sijeruk"},{"id":"3326102009","district_id":"3326102","postal_code":"51155","name":"Tegalsuruh"},{"id":"3326102010","district_id":"3326102","postal_code":"51155","name":"Bulakpelem"},{"id":"3326102011","district_id":"3326102","postal_code":"51155","name":"Gebangkerep"},{"id":"3326102012","district_id":"3326102","postal_code":"51155","name":"Purworejo"},{"id":"3326102013","district_id":"3326102","postal_code":"51155","name":"Kedungjaran"},{"id":"3326102014","district_id":"3326102","postal_code":"51155","name":"Klunjukan"},{"id":"3326102015","district_id":"3326102","postal_code":"51155","name":"Tegalontar"},{"id":"3326102016","district_id":"3326102","postal_code":"51155","name":"Purwodadi"}]