[{"id":"3326082001","district_id":"3326082","postal_code":"51161","name":"Tambakroto"},{"id":"3326082002","district_id":"3326082","postal_code":"51161","name":"Kutorojo"},{"id":"3326082003","district_id":"3326082","postal_code":"51161","name":"Linggoasri"},{"id":"3326082004","district_id":"3326082","postal_code":"51161","name":"Brengkolang"},{"id":"3326082005","district_id":"3326082","postal_code":"51161","name":"Pringsurat"},{"id":"3326082006","district_id":"3326082","postal_code":"51161","name":"Sukoyoso"},{"id":"3326082007","district_id":"3326082","postal_code":"51161","name":"Sinangohprendeng"},{"id":"3326082008","district_id":"3326082","postal_code":"51161","name":"Kajongan"},{"id":"3326082009","district_id":"3326082","postal_code":"51161","name":"Pekiringanageng"},{"id":"3326082010","district_id":"3326082","postal_code":"51161","name":"Gandarum"},{"id":"3326082011","district_id":"3326082","postal_code":"51161","name":"Sabarwangi"},{"id":"3326082012","district_id":"3326082","postal_code":"51161","name":"Kalijoyo"},{"id":"3326082013","district_id":"3326082","postal_code":"51161","name":"Wonorejo"},{"id":"3326082014","district_id":"3326082","postal_code":"51161","name":"Pekiringanalit"},{"id":"3326082015","district_id":"3326082","postal_code":"51161","name":"Kutorejo"},{"id":"3326082017","district_id":"3326082","postal_code":"51161","name":"Nyamok"},{"id":"3326082018","district_id":"3326082","postal_code":"51161","name":"Tanjungkulon"},{"id":"3326082019","district_id":"3326082","postal_code":"51161","name":"Tanjungsari"},{"id":"3326082020","district_id":"3326082","postal_code":"51161","name":"Gejlig"},{"id":"3326082021","district_id":"3326082","postal_code":"51161","name":"Kebonagung"},{"id":"3326082022","district_id":"3326082","postal_code":"51161","name":"Sangkanjoyo"},{"id":"3326082023","district_id":"3326082","postal_code":"51161","name":"Salit"},{"id":"3326082024","district_id":"3326082","postal_code":"51161","name":"Sambiroto"},{"id":"3326082025","district_id":"3326082","postal_code":"51161","name":"Rowolaku"}]