[{"id":"3326062001","district_id":"3326062","postal_code":"51191","name":"Pungangan"},{"id":"3326062002","district_id":"3326062","postal_code":"51191","name":"Sidoharjo"},{"id":"3326062003","district_id":"3326062","postal_code":"51191","name":"Lemahabang"},{"id":"3326062004","district_id":"3326062","postal_code":"51191","name":"Rogoselo"},{"id":"3326062005","district_id":"3326062","postal_code":"51191","name":"Harjosari"},{"id":"3326062006","district_id":"3326062","postal_code":"51191","name":"Larikan"},{"id":"3326062007","district_id":"3326062","postal_code":"51191","name":"Sawangan"},{"id":"3326062008","district_id":"3326062","postal_code":"51191","name":"Dororejo"},{"id":"3326062009","district_id":"3326062","postal_code":"51191","name":"Randusari"},{"id":"3326062010","district_id":"3326062","postal_code":"51191","name":"Kutosari"},{"id":"3326062011","district_id":"3326062","postal_code":"51191","name":"Wringinagung"},{"id":"3326062012","district_id":"3326062","postal_code":"51191","name":"Kalimojosari"},{"id":"3326062013","district_id":"3326062","postal_code":"51191","name":"Bligorejo"},{"id":"3326062014","district_id":"3326062","postal_code":"51191","name":"Doro"}]