[{"id":"3327082001","district_id":"3327082","postal_code":"52319","name":"Banjarmulya"},{"id":"3327082002","district_id":"3327082","postal_code":"52318","name":"Surajaya"},{"id":"3327082003","district_id":"3327082","postal_code":"52318","name":"Kramat"},{"id":"3327082005","district_id":"3327082","postal_code":"52319","name":"Pegongsoran"},{"id":"3327082006","district_id":"3327082","postal_code":"52319","name":"Sungapan"},{"id":"3327082007","district_id":"3327082","postal_code":"52319","name":"Saradan"},{"id":"3327082008","district_id":"3327082","postal_code":"52319","name":"Sewaka"},{"id":"3327082009","district_id":"3327082","postal_code":"52319","name":"Mengori"},{"id":"3327082010","district_id":"3327082","postal_code":"52319","name":"Wanamulya"},{"id":"3327082011","district_id":"3327082","postal_code":"52318","name":"Bojongnangka"},{"id":"3327082012","district_id":"3327082","postal_code":"52317","name":"Tambakrejo"},{"id":"3327082017","district_id":"3327082","postal_code":"52316","name":"Lawangrejo"},{"id":"3327082020","district_id":"3327082","postal_code":"52314","name":"Danasari"}]