[{"id":"3328172001","district_id":"3328172","postal_code":"52183","name":"Sidamulya"},{"id":"3328172002","district_id":"3328172","postal_code":"52183","name":"Kedungjati"},{"id":"3328172003","district_id":"3328172","postal_code":"52183","name":"Kendayakan"},{"id":"3328172004","district_id":"3328172","postal_code":"52183","name":"Warureja"},{"id":"3328172005","district_id":"3328172","postal_code":"52183","name":"Demangharjo"},{"id":"3328172006","district_id":"3328172","postal_code":"52183","name":"Banjarturi"},{"id":"3328172007","district_id":"3328172","postal_code":"52183","name":"Kedungkelor"},{"id":"3328172008","district_id":"3328172","postal_code":"52183","name":"Sukareja"},{"id":"3328172009","district_id":"3328172","postal_code":"52183","name":"Banjaragung"},{"id":"3328172010","district_id":"3328172","postal_code":"52183","name":"Sigentong"},{"id":"3328172011","district_id":"3328172","postal_code":"52183","name":"Kreman"},{"id":"3328172012","district_id":"3328172","postal_code":"52183","name":"Rangi Mulya"}]