[{"id":"3329112001","district_id":"3329112","postal_code":"52264","name":"Ciampel"},{"id":"3329112002","district_id":"3329112","postal_code":"52264","name":"Cigedog"},{"id":"3329112003","district_id":"3329112","postal_code":"52264","name":"Cikandang"},{"id":"3329112004","district_id":"3329112","postal_code":"52264","name":"Jagapura"},{"id":"3329112005","district_id":"3329112","postal_code":"52264","name":"Kemukten"},{"id":"3329112006","district_id":"3329112","postal_code":"52264","name":"Kradenan"},{"id":"3329112007","district_id":"3329112","postal_code":"52264","name":"Kersana"},{"id":"3329112008","district_id":"3329112","postal_code":"52264","name":"Kramatsampang"},{"id":"3329112009","district_id":"3329112","postal_code":"52264","name":"Kubangpari"},{"id":"3329112010","district_id":"3329112","postal_code":"52264","name":"Limbangan"},{"id":"3329112011","district_id":"3329112","postal_code":"52264","name":"Pende"},{"id":"3329112012","district_id":"3329112","postal_code":"52264","name":"Sindangjaya"},{"id":"3329112013","district_id":"3329112","postal_code":"52264","name":"Sutamaja"}]