[{"id":"3329092001","district_id":"3329092","postal_code":"52216","name":"Banjaranyar"},{"id":"3329092004","district_id":"3329092","postal_code":"52217","name":"Kaligangsa Kulon"},{"id":"3329092005","district_id":"3329092","postal_code":"52217","name":"Kaligangsa Wetan"},{"id":"3329092006","district_id":"3329092","postal_code":"52219","name":"Kalimati"},{"id":"3329092007","district_id":"3329092","postal_code":"52219","name":"Kaliwlingi"},{"id":"3329092008","district_id":"3329092","postal_code":"52219","name":"Kedunguter"},{"id":"3329092009","district_id":"3329092","postal_code":"52219","name":"Krasak"},{"id":"3329092010","district_id":"3329092","postal_code":"52219","name":"Lembarawa"},{"id":"3329092013","district_id":"3329092","postal_code":"52214","name":"Padasugih"},{"id":"3329092014","district_id":"3329092","postal_code":"52219","name":"Pagejugan"},{"id":"3329092016","district_id":"3329092","postal_code":"52219","name":"Pemaron"},{"id":"3329092017","district_id":"3329092","postal_code":"52213","name":"Pulosari"},{"id":"3329092018","district_id":"3329092","postal_code":"52219","name":"Randusanga Kulon"},{"id":"3329092019","district_id":"3329092","postal_code":"52219","name":"Randusanga Wetan"},{"id":"3329092020","district_id":"3329092","postal_code":"52219","name":"Sigambir"},{"id":"3329092021","district_id":"3329092","postal_code":"52219","name":"Tengki"},{"id":"3329092022","district_id":"3329092","postal_code":"52219","name":"Terlangu"},{"id":"3329092023","district_id":"3329092","postal_code":"52214","name":"Wangandalem"}]