[{"id":"3329052001","district_id":"3329052","postal_code":"52272","name":"Batursari"},{"id":"3329052002","district_id":"3329052","postal_code":"52272","name":"Benda"},{"id":"3329052003","district_id":"3329052","postal_code":"52272","name":"Buniwah"},{"id":"3329052004","district_id":"3329052","postal_code":"52272","name":"Dawuhan"},{"id":"3329052005","district_id":"3329052","postal_code":"52272","name":"Igirklanceng"},{"id":"3329052006","district_id":"3329052","postal_code":"52272","name":"Kaligiri"},{"id":"3329052007","district_id":"3329052","postal_code":"52272","name":"Kaliloka"},{"id":"3329052008","district_id":"3329052","postal_code":"52272","name":"Manggis"},{"id":"3329052009","district_id":"3329052","postal_code":"52272","name":"Mendala"},{"id":"3329052010","district_id":"3329052","postal_code":"52272","name":"Mlayang"},{"id":"3329052011","district_id":"3329052","postal_code":"52272","name":"Sridadi"},{"id":"3329052012","district_id":"3329052","postal_code":"52272","name":"Plompong"},{"id":"3329052013","district_id":"3329052","postal_code":"52272","name":"Wanareja"}]