[{"id":"3329132001","district_id":"3329132","postal_code":"52254","name":"Karangreja"},{"id":"3329132002","district_id":"3329132","postal_code":"52254","name":"Kedawung"},{"id":"3329132003","district_id":"3329132","postal_code":"52254","name":"Kemurang Kulon"},{"id":"3329132004","district_id":"3329132","postal_code":"52254","name":"Kemurang Wetan"},{"id":"3329132005","district_id":"3329132","postal_code":"52254","name":"Krakahan"},{"id":"3329132006","district_id":"3329132","postal_code":"52254","name":"Kupangputat"},{"id":"3329132007","district_id":"3329132","postal_code":"52254","name":"Luwunggede"},{"id":"3329132008","district_id":"3329132","postal_code":"52254","name":"Lemahabang"},{"id":"3329132009","district_id":"3329132","postal_code":"52254","name":"Luwungbata"},{"id":"3329132010","district_id":"3329132","postal_code":"52254","name":"Mundu"},{"id":"3329132011","district_id":"3329132","postal_code":"52254","name":"Pejagan"},{"id":"3329132012","district_id":"3329132","postal_code":"52254","name":"Pengaradan"},{"id":"3329132013","district_id":"3329132","postal_code":"52254","name":"Sarireja"},{"id":"3329132014","district_id":"3329132","postal_code":"52254","name":"Sengon"},{"id":"3329132015","district_id":"3329132","postal_code":"52254","name":"Sidakaton"},{"id":"3329132016","district_id":"3329132","postal_code":"52254","name":"Tanjung"},{"id":"3329132017","district_id":"3329132","postal_code":"52254","name":"Tegongan"},{"id":"3329132018","district_id":"3329132","postal_code":"52254","name":"Tengguli"}]