[{"id":"3329012001","district_id":"3329012","postal_code":"52275","name":"Banjaran"},{"id":"3329012002","district_id":"3329012","postal_code":"52275","name":"Bentar"},{"id":"3329012003","district_id":"3329012","postal_code":"52275","name":"Bentarsari"},{"id":"3329012004","district_id":"3329012","postal_code":"52275","name":"Capar"},{"id":"3329012005","district_id":"3329012","postal_code":"52275","name":"Ciputih"},{"id":"3329012006","district_id":"3329012","postal_code":"52275","name":"Citimbang"},{"id":"3329012007","district_id":"3329012","postal_code":"52275","name":"Ganggawang"},{"id":"3329012008","district_id":"3329012","postal_code":"52275","name":"Gandoang"},{"id":"3329012009","district_id":"3329012","postal_code":"52275","name":"Gunungjaya"},{"id":"3329012010","district_id":"3329012","postal_code":"52275","name":"Gununglarang"},{"id":"3329012011","district_id":"3329012","postal_code":"52275","name":"Gunungsugih"},{"id":"3329012012","district_id":"3329012","postal_code":"52275","name":"Gunungtajem"},{"id":"3329012013","district_id":"3329012","postal_code":"52275","name":"Indrajaya"},{"id":"3329012014","district_id":"3329012","postal_code":"52275","name":"Kadumanis"},{"id":"3329012015","district_id":"3329012","postal_code":"52275","name":"Pabuaran"},{"id":"3329012016","district_id":"3329012","postal_code":"52275","name":"Pasirpanjang"},{"id":"3329012017","district_id":"3329012","postal_code":"52275","name":"Salem"},{"id":"3329012018","district_id":"3329012","postal_code":"52275","name":"Tembongraja"},{"id":"3329012019","district_id":"3329012","postal_code":"52275","name":"Wanoja"},{"id":"3329012020","district_id":"3329012","postal_code":"52275","name":"Winduasri"},{"id":"3329012021","district_id":"3329012","postal_code":"52275","name":"Windusakti"}]