[{"id":"3374101001","district_id":"3374101","postal_code":"50271","name":"Meteseh"},{"id":"3374101002","district_id":"3374101","postal_code":"50279","name":"Rowosari"},{"id":"3374101003","district_id":"3374101","postal_code":"50272","name":"Mangunharjo"},{"id":"3374101004","district_id":"3374101","postal_code":"50277","name":"Bulusan"},{"id":"3374101005","district_id":"3374101","postal_code":"50278","name":"Kramas"},{"id":"3374101006","district_id":"3374101","postal_code":"50275","name":"Tembalang"},{"id":"3374101007","district_id":"3374101","postal_code":"50274","name":"Jangli"},{"id":"3374101008","district_id":"3374101","postal_code":"50274","name":"Tandang"},{"id":"3374101009","district_id":"3374101","postal_code":"50273","name":"Kedungmundu"},{"id":"3374101010","district_id":"3374101","postal_code":"50273","name":"Sendangguwo"},{"id":"3374101011","district_id":"3374101","postal_code":"50272","name":"Sendangmulyo"},{"id":"3374101012","district_id":"3374101","postal_code":"50276","name":"Sambiroto"}]