[{"id":"3501042003","district_id":"3501042","postal_code":"63518","name":"Kembang"},{"id":"3501042004","district_id":"3501042","postal_code":"63518","name":"Sukoharjo"},{"id":"3501042005","district_id":"3501042","postal_code":"63518","name":"Kayen"},{"id":"3501042006","district_id":"3501042","postal_code":"63518","name":"Sirnoboyo"},{"id":"3501042007","district_id":"3501042","postal_code":"63516","name":"Arjowinangun"},{"id":"3501042009","district_id":"3501042","postal_code":"63518","name":"Bangunsari"},{"id":"3501042010","district_id":"3501042","postal_code":"63518","name":"Sedeng"},{"id":"3501042011","district_id":"3501042","postal_code":"63518","name":"Sumberharjo"},{"id":"3501042014","district_id":"3501042","postal_code":"63518","name":"Tanjungsari"},{"id":"3501042015","district_id":"3501042","postal_code":"63517","name":"Menadi"},{"id":"3501042016","district_id":"3501042","postal_code":"63518","name":"Mentoro"},{"id":"3501042017","district_id":"3501042","postal_code":"63518","name":"Purworejo"},{"id":"3501042018","district_id":"3501042","postal_code":"63518","name":"Nanggungan"},{"id":"3501042019","district_id":"3501042","postal_code":"63518","name":"Widoro"},{"id":"3501042020","district_id":"3501042","postal_code":"63518","name":"Semanten"},{"id":"3501042021","district_id":"3501042","postal_code":"63518","name":"Sambong"},{"id":"3501042022","district_id":"3501042","postal_code":"63518","name":"Banjarsari"},{"id":"3501042023","district_id":"3501042","postal_code":"63518","name":"Bolosingo"},{"id":"3501042024","district_id":"3501042","postal_code":"63518","name":"Ponggok"},{"id":"3501042025","district_id":"3501042","postal_code":"63518","name":"Tambakrejo"}]