[{"id":"3502042001","district_id":"3502042","postal_code":"63474","name":"Gajah"},{"id":"3502042002","district_id":"3502042","postal_code":"63474","name":"Wringinanom"},{"id":"3502042003","district_id":"3502042","postal_code":"63474","name":"Ngadisanan"},{"id":"3502042004","district_id":"3502042","postal_code":"63474","name":"Maguwan"},{"id":"3502042005","district_id":"3502042","postal_code":"63474","name":"Nglewan"},{"id":"3502042006","district_id":"3502042","postal_code":"63474","name":"Bedingin"},{"id":"3502042007","district_id":"3502042","postal_code":"63474","name":"Bancangan"},{"id":"3502042008","district_id":"3502042","postal_code":"63474","name":"Campurejo"},{"id":"3502042009","district_id":"3502042","postal_code":"63474","name":"Campursari"},{"id":"3502042010","district_id":"3502042","postal_code":"63474","name":"Bulu"},{"id":"3502042011","district_id":"3502042","postal_code":"63474","name":"Sambit"},{"id":"3502042012","district_id":"3502042","postal_code":"63474","name":"Besuki"},{"id":"3502042013","district_id":"3502042","postal_code":"63474","name":"Wilangan"},{"id":"3502042014","district_id":"3502042","postal_code":"63474","name":"Bangsalan"},{"id":"3502042015","district_id":"3502042","postal_code":"63474","name":"Kemuning"},{"id":"3502042016","district_id":"3502042","postal_code":"63474","name":"Jrakah"}]