[{"id":"3507042001","district_id":"3507042","postal_code":"65176","name":"Tambakasri"},{"id":"3507042002","district_id":"3507042","postal_code":"65176","name":"Tegalrejo"},{"id":"3507042003","district_id":"3507042","postal_code":"65176","name":"Sekarbanyu"},{"id":"3507042004","district_id":"3507042","postal_code":"65176","name":"Klepu"},{"id":"3507042005","district_id":"3507042","postal_code":"65176","name":"Ringinkembar"},{"id":"3507042006","district_id":"3507042","postal_code":"65176","name":"Kedungbanteng"},{"id":"3507042007","district_id":"3507042","postal_code":"65176","name":"Sitiarjo"},{"id":"3507042008","district_id":"3507042","postal_code":"65176","name":"Sumberagung"},{"id":"3507042009","district_id":"3507042","postal_code":"65176","name":"Argotirto"},{"id":"3507042010","district_id":"3507042","postal_code":"65176","name":"Harjokuncaran"},{"id":"3507042011","district_id":"3507042","postal_code":"65176","name":"Sumbermanjing Wetan"},{"id":"3507042012","district_id":"3507042","postal_code":"65176","name":"Ringinsari"},{"id":"3507042013","district_id":"3507042","postal_code":"65176","name":"Druju"},{"id":"3507042014","district_id":"3507042","postal_code":"65176","name":"Tambakrejo"},{"id":"3507042015","district_id":"3507042","postal_code":"65176","name":"Sidoasri"}]