[{"id":"3507242001","district_id":"3507242","postal_code":"65153","name":"Wonorejo"},{"id":"3507242002","district_id":"3507242","postal_code":"65153","name":"Dengkol"},{"id":"3507242003","district_id":"3507242","postal_code":"65153","name":"Baturetno"},{"id":"3507242004","district_id":"3507242","postal_code":"65153","name":"Watugede"},{"id":"3507242005","district_id":"3507242","postal_code":"65153","name":"Banjararum"},{"id":"3507242006","district_id":"3507242","postal_code":"65153","name":"Tunjungtirto"},{"id":"3507242007","district_id":"3507242","postal_code":"65153","name":"Lang - Lang"},{"id":"3507242008","district_id":"3507242","postal_code":"65153","name":"Purwoasri"},{"id":"3507242009","district_id":"3507242","postal_code":"65153","name":"Klampok"},{"id":"3507242010","district_id":"3507242","postal_code":"65153","name":"Gunungrejo"},{"id":"3507242012","district_id":"3507242","postal_code":"65153","name":"Tamanhardjo"},{"id":"3507242013","district_id":"3507242","postal_code":"65153","name":"Ardimulyo"},{"id":"3507242016","district_id":"3507242","postal_code":"65153","name":"Toyomarto"},{"id":"3507242017","district_id":"3507242","postal_code":"65153","name":"Randuagung"}]