[{"id":"3508182001","district_id":"3508182","postal_code":"67354","name":"Banyuputih Lor"},{"id":"3508182002","district_id":"3508182","postal_code":"67354","name":"Kalidilem"},{"id":"3508182003","district_id":"3508182","postal_code":"67354","name":"Tunjung"},{"id":"3508182004","district_id":"3508182","postal_code":"67354","name":"Gedangmas"},{"id":"3508182005","district_id":"3508182","postal_code":"67354","name":"Kalipenggung"},{"id":"3508182006","district_id":"3508182","postal_code":"67354","name":"Ranulogong"},{"id":"3508182007","district_id":"3508182","postal_code":"67354","name":"Randuagung"},{"id":"3508182008","district_id":"3508182","postal_code":"67354","name":"Ledoktempuro"},{"id":"3508182009","district_id":"3508182","postal_code":"67354","name":"Pajarakan"},{"id":"3508182010","district_id":"3508182","postal_code":"67354","name":"Buwek"},{"id":"3508182011","district_id":"3508182","postal_code":"67354","name":"Ranuwurung"},{"id":"3508182012","district_id":"3508182","postal_code":"67354","name":"Salak"}]