[{"id":"3509082001","district_id":"3509082","postal_code":"68164","name":"Mlokorejo"},{"id":"3509082002","district_id":"3509082","postal_code":"68164","name":"Mojomulyo"},{"id":"3509082003","district_id":"3509082","postal_code":"68164","name":"Mojosari"},{"id":"3509082004","district_id":"3509082","postal_code":"68164","name":"Pugerkulon"},{"id":"3509082005","district_id":"3509082","postal_code":"68164","name":"Wringintelu"},{"id":"3509082006","district_id":"3509082","postal_code":"68164","name":"Kasiyan"},{"id":"3509082007","district_id":"3509082","postal_code":"68164","name":"Bagon"},{"id":"3509082008","district_id":"3509082","postal_code":"68164","name":"Kasiyan Timur"},{"id":"3509082009","district_id":"3509082","postal_code":"68164","name":"Wonosari"},{"id":"3509082010","district_id":"3509082","postal_code":"68164","name":"Jambearum"},{"id":"3509082011","district_id":"3509082","postal_code":"68164","name":"Grenden"},{"id":"3509082012","district_id":"3509082","postal_code":"68164","name":"Pugerwetan"}]