[{"id":"3509272001","district_id":"3509272","postal_code":"68193","name":"Gumuksari"},{"id":"3509272002","district_id":"3509272","postal_code":"68193","name":"Sukoreno"},{"id":"3509272003","district_id":"3509272","postal_code":"68193","name":"Patempuran"},{"id":"3509272004","district_id":"3509272","postal_code":"68193","name":"Sumberkalong"},{"id":"3509272005","district_id":"3509272","postal_code":"68193","name":"Sumberjeruk"},{"id":"3509272006","district_id":"3509272","postal_code":"68193","name":"Glagahwero"},{"id":"3509272007","district_id":"3509272","postal_code":"68193","name":"Kalisat"},{"id":"3509272008","district_id":"3509272","postal_code":"68193","name":"Ajung"},{"id":"3509272009","district_id":"3509272","postal_code":"68113","name":"Plalangan"},{"id":"3509272010","district_id":"3509272","postal_code":"68193","name":"Gambiran"},{"id":"3509272011","district_id":"3509272","postal_code":"68193","name":"Sumberketempa"},{"id":"3509272012","district_id":"3509272","postal_code":"68193","name":"Sebanen"}]