[{"id":"3511122001","district_id":"3511122","postal_code":"68252","name":"Ambulu"},{"id":"3511122002","district_id":"3511122","postal_code":"68252","name":"Bukor"},{"id":"3511122003","district_id":"3511122","postal_code":"68252","name":"Sumbermalang"},{"id":"3511122004","district_id":"3511122","postal_code":"68252","name":"Jambewungu"},{"id":"3511122005","district_id":"3511122","postal_code":"68252","name":"Gubrih"},{"id":"3511122006","district_id":"3511122","postal_code":"68252","name":"Ampelan"},{"id":"3511122007","district_id":"3511122","postal_code":"68252","name":"Jatitamban"},{"id":"3511122008","district_id":"3511122","postal_code":"68252","name":"Banyuwulu"},{"id":"3511122009","district_id":"3511122","postal_code":"68252","name":"Jatisari"},{"id":"3511122010","district_id":"3511122","postal_code":"68252","name":"Glingseran"},{"id":"3511122011","district_id":"3511122","postal_code":"68252","name":"Banyuputih"},{"id":"3511122012","district_id":"3511122","postal_code":"68252","name":"Wringin"},{"id":"3511122013","district_id":"3511122","postal_code":"68252","name":"Sumbercanting"}]