[{"id":"3514062001","district_id":"3514062","postal_code":"67172","name":"Oro Oro Puleh"},{"id":"3514062002","district_id":"3514062","postal_code":"67172","name":"Kedungpengaron"},{"id":"3514062003","district_id":"3514062","postal_code":"67172","name":"Benerwojo"},{"id":"3514062004","district_id":"3514062","postal_code":"67172","name":"Cobanjoyo"},{"id":"3514062005","district_id":"3514062","postal_code":"67172","name":"Kepuh"},{"id":"3514062006","district_id":"3514062","postal_code":"67172","name":"Lorokan"},{"id":"3514062007","district_id":"3514062","postal_code":"67172","name":"Klangrong"},{"id":"3514062008","district_id":"3514062","postal_code":"67172","name":"Linggo"},{"id":"3514062009","district_id":"3514062","postal_code":"67172","name":"Ambal Ambil"},{"id":"3514062010","district_id":"3514062","postal_code":"67172","name":"Kedemungan"},{"id":"3514062011","district_id":"3514062","postal_code":"67172","name":"Wrati"},{"id":"3514062012","district_id":"3514062","postal_code":"67172","name":"Pacar Keling"},{"id":"3514062013","district_id":"3514062","postal_code":"67172","name":"Luwuk"},{"id":"3514062014","district_id":"3514062","postal_code":"67172","name":"Sumber Suko"},{"id":"3514062015","district_id":"3514062","postal_code":"67172","name":"Sumber Banteng"},{"id":"3514062016","district_id":"3514062","postal_code":"67172","name":"Kurung"},{"id":"3514062017","district_id":"3514062","postal_code":"67172","name":"Tanggulangin"},{"id":"3514062018","district_id":"3514062","postal_code":"67172","name":"Randugong"},{"id":"3514062019","district_id":"3514062","postal_code":"67172","name":"Wangkalwetan"},{"id":"3514062020","district_id":"3514062","postal_code":"67172","name":"Klinter"},{"id":"3514062021","district_id":"3514062","postal_code":"67172","name":"Tundosuro\/tundosor O"},{"id":"3514062022","district_id":"3514062","postal_code":"67172","name":"Ketangirejo"},{"id":"3514062023","district_id":"3514062","postal_code":"67172","name":"Patebon"},{"id":"3514062025","district_id":"3514062","postal_code":"67172","name":"Sladi"}]