[{"id":"3514122001","district_id":"3514122","postal_code":"67155","name":"Wonosunyo"},{"id":"3514122002","district_id":"3514122","postal_code":"67155","name":"Sumbersuko"},{"id":"3514122003","district_id":"3514122","postal_code":"67155","name":"Wonosari"},{"id":"3514122004","district_id":"3514122","postal_code":"67155","name":"Kepulungan"},{"id":"3514122005","district_id":"3514122","postal_code":"67155","name":"Randupitu"},{"id":"3514122006","district_id":"3514122","postal_code":"67155","name":"Ngerong"},{"id":"3514122007","district_id":"3514122","postal_code":"67155","name":"Karangrejo"},{"id":"3514122008","district_id":"3514122","postal_code":"67155","name":"Bulusari"},{"id":"3514122009","district_id":"3514122","postal_code":"67155","name":"Jeruk Purut"},{"id":"3514122010","district_id":"3514122","postal_code":"67155","name":"Watukosek"},{"id":"3514122011","district_id":"3514122","postal_code":"67155","name":"Carat"},{"id":"3514122012","district_id":"3514122","postal_code":"67155","name":"Kejapanan"},{"id":"3514122013","district_id":"3514122","postal_code":"67155","name":"Winong"},{"id":"3514122014","district_id":"3514122","postal_code":"67155","name":"Legok"},{"id":"3514122015","district_id":"3514122","postal_code":"67155","name":"Gempol"}]