[{"id":"3515132001","district_id":"3515132","postal_code":"61257","name":"Bohar"},{"id":"3515132002","district_id":"3515132","postal_code":"61257","name":"Wage"},{"id":"3515132003","district_id":"3515132","postal_code":"61257","name":"Kedungturi"},{"id":"3515132004","district_id":"3515132","postal_code":"61257","name":"Jemundo"},{"id":"3515132006","district_id":"3515132","postal_code":"61257","name":"Sadang"},{"id":"3515132007","district_id":"3515132","postal_code":"61257","name":"Sambibulu"},{"id":"3515132008","district_id":"3515132","postal_code":"61257","name":"Bringinbendo"},{"id":"3515132009","district_id":"3515132","postal_code":"61257","name":"Sidodadi"},{"id":"3515132010","district_id":"3515132","postal_code":"61257","name":"Kramatjegu"},{"id":"3515132011","district_id":"3515132","postal_code":"61257","name":"Trosobo"},{"id":"3515132012","district_id":"3515132","postal_code":"61257","name":"Pertapanmaduretno"},{"id":"3515132013","district_id":"3515132","postal_code":"61257","name":"Tawangsari"},{"id":"3515132014","district_id":"3515132","postal_code":"61257","name":"Gilang"},{"id":"3515132016","district_id":"3515132","postal_code":"61257","name":"Kletek"},{"id":"3515132023","district_id":"3515132","postal_code":"61257","name":"Tanjungsari"},{"id":"3515132024","district_id":"3515132","postal_code":"61212","name":"Krembangan"}]