[{"id":"3515081004","district_id":"3515081","postal_code":"61214","name":"Sidokare"},{"id":"3515081005","district_id":"3515081","postal_code":"61215","name":"Celep"},{"id":"3515081006","district_id":"3515081","postal_code":"61215","name":"Sekardangan"},{"id":"3515081007","district_id":"3515081","postal_code":"61231","name":"Gebang"},{"id":"3515081009","district_id":"3515081","postal_code":"61234","name":"Bulusidokare"},{"id":"3515081010","district_id":"3515081","postal_code":"61217","name":"Pucanganom"},{"id":"3515081011","district_id":"3515081","postal_code":"61213","name":"Pekauman"},{"id":"3515081012","district_id":"3515081","postal_code":"61213","name":"Lemahputro"},{"id":"3515081013","district_id":"3515081","postal_code":"61212","name":"Sidokumpul"},{"id":"3515081014","district_id":"3515081","postal_code":"61218","name":"Sidoklumpuk"},{"id":"3515081017","district_id":"3515081","postal_code":"61219","name":"Pucang"},{"id":"3515081018","district_id":"3515081","postal_code":"61212","name":"Magersari"},{"id":"3515081020","district_id":"3515081","postal_code":"61234","name":"Cemenkalang"},{"id":"3515081022","district_id":"3515081","postal_code":"61234","name":"Urangagung"}]