[{"id":"3515172001","district_id":"3515172","postal_code":"61253","name":"Kwangsan"},{"id":"3515172002","district_id":"3515172","postal_code":"61253","name":"Pepe"},{"id":"3515172003","district_id":"3515172","postal_code":"61253","name":"Buncitan"},{"id":"3515172004","district_id":"3515172","postal_code":"61253","name":"Kalanganyar"},{"id":"3515172005","district_id":"3515172","postal_code":"61253","name":"Tambakcemandi"},{"id":"3515172006","district_id":"3515172","postal_code":"61253","name":"Gisik Cemandi"},{"id":"3515172007","district_id":"3515172","postal_code":"61253","name":"Cemandi"},{"id":"3515172008","district_id":"3515172","postal_code":"61253","name":"Pulungan"},{"id":"3515172009","district_id":"3515172","postal_code":"61253","name":"Betro"},{"id":"3515172010","district_id":"3515172","postal_code":"61253","name":"Sedatiagung"},{"id":"3515172011","district_id":"3515172","postal_code":"61253","name":"Sedatigede"},{"id":"3515172012","district_id":"3515172","postal_code":"61253","name":"Pabean"},{"id":"3515172013","district_id":"3515172","postal_code":"61253","name":"Semampir"},{"id":"3515172014","district_id":"3515172","postal_code":"61253","name":"Pranti"},{"id":"3515172015","district_id":"3515172","postal_code":"61253","name":"Segorotambak"},{"id":"3515172016","district_id":"3515172","postal_code":"61253","name":"Banjarkemuning"}]