[{"id":"3516082001","district_id":"3516082","postal_code":"61382","name":"Sumbertanggul"},{"id":"3516082002","district_id":"3516082","postal_code":"61382","name":"Belahantengah"},{"id":"3516082003","district_id":"3516082","postal_code":"61382","name":"Awang-awang"},{"id":"3516082009","district_id":"3516082","postal_code":"61382","name":"Seduri"},{"id":"3516082010","district_id":"3516082","postal_code":"61382","name":"Mojosulur"},{"id":"3516082011","district_id":"3516082","postal_code":"61382","name":"Randubango"},{"id":"3516082012","district_id":"3516082","postal_code":"61382","name":"Jotangan"},{"id":"3516082013","district_id":"3516082","postal_code":"61382","name":"Menanggal"},{"id":"3516082014","district_id":"3516082","postal_code":"61382","name":"Pekukuhan"},{"id":"3516082015","district_id":"3516082","postal_code":"61382","name":"Modopuro"},{"id":"3516082016","district_id":"3516082","postal_code":"61382","name":"Kebondalem"},{"id":"3516082017","district_id":"3516082","postal_code":"61382","name":"Kedunggempol"},{"id":"3516082018","district_id":"3516082","postal_code":"61382","name":"Ngimbangan"},{"id":"3516082019","district_id":"3516082","postal_code":"61382","name":"Leminggir"}]