[{"id":"3517032001","district_id":"3517032","postal_code":"61473","name":"Jombok"},{"id":"3517032002","district_id":"3517032","postal_code":"61473","name":"Genukwatu"},{"id":"3517032003","district_id":"3517032","postal_code":"61473","name":"Rejoagung"},{"id":"3517032004","district_id":"3517032","postal_code":"61473","name":"Kauman"},{"id":"3517032005","district_id":"3517032","postal_code":"61473","name":"Ngoro"},{"id":"3517032006","district_id":"3517032","postal_code":"61473","name":"Badang"},{"id":"3517032007","district_id":"3517032","postal_code":"61473","name":"Pulorejo"},{"id":"3517032008","district_id":"3517032","postal_code":"61473","name":"Banyuarang"},{"id":"3517032009","district_id":"3517032","postal_code":"61473","name":"Sidowarek"},{"id":"3517032010","district_id":"3517032","postal_code":"61473","name":"Gajah"},{"id":"3517032011","district_id":"3517032","postal_code":"61473","name":"Kesamben"},{"id":"3517032012","district_id":"3517032","postal_code":"61473","name":"Kertorejo"},{"id":"3517032013","district_id":"3517032","postal_code":"61473","name":"Sugihwaras"}]