[{"id":"3517202001","district_id":"3517202","postal_code":"61457","name":"Turipinggir"},{"id":"3517202002","district_id":"3517202","postal_code":"61457","name":"Gongseng"},{"id":"3517202003","district_id":"3517202","postal_code":"61457","name":"Megaluh"},{"id":"3517202004","district_id":"3517202","postal_code":"61457","name":"Sudimoro"},{"id":"3517202005","district_id":"3517202","postal_code":"61457","name":"Balongsari"},{"id":"3517202006","district_id":"3517202","postal_code":"61457","name":"Sumbersari"},{"id":"3517202007","district_id":"3517202","postal_code":"61457","name":"Ngogri"},{"id":"3517202008","district_id":"3517202","postal_code":"61457","name":"Sidomulyo"},{"id":"3517202009","district_id":"3517202","postal_code":"61457","name":"Balonggemek"},{"id":"3517202010","district_id":"3517202","postal_code":"61457","name":"Dukuharum"},{"id":"3517202011","district_id":"3517202","postal_code":"61457","name":"Sumberagung"},{"id":"3517202012","district_id":"3517202","postal_code":"61457","name":"Pacarpeluk"},{"id":"3517202013","district_id":"3517202","postal_code":"61457","name":"Kedungrejo"}]