[{"id":"3517112001","district_id":"3517112","postal_code":"61483","name":"Plosokerep"},{"id":"3517112002","district_id":"3517112","postal_code":"61483","name":"Jogoloyo"},{"id":"3517112003","district_id":"3517112","postal_code":"61483","name":"Palrejo"},{"id":"3517112004","district_id":"3517112","postal_code":"61483","name":"Plemahan"},{"id":"3517112005","district_id":"3517112","postal_code":"61483","name":"Brudu"},{"id":"3517112006","district_id":"3517112","postal_code":"61483","name":"Badas"},{"id":"3517112007","district_id":"3517112","postal_code":"61483","name":"Nglele"},{"id":"3517112008","district_id":"3517112","postal_code":"61483","name":"Trawasan"},{"id":"3517112009","district_id":"3517112","postal_code":"61483","name":"Sebani"},{"id":"3517112010","district_id":"3517112","postal_code":"61483","name":"Mlaras"},{"id":"3517112011","district_id":"3517112","postal_code":"61483","name":"Segodorejo"},{"id":"3517112012","district_id":"3517112","postal_code":"61483","name":"Kedung Papar"},{"id":"3517112013","district_id":"3517112","postal_code":"61483","name":"Sumobito"},{"id":"3517112014","district_id":"3517112","postal_code":"61483","name":"Curahmalang"},{"id":"3517112015","district_id":"3517112","postal_code":"61483","name":"Budugsidorejo"},{"id":"3517112016","district_id":"3517112","postal_code":"61483","name":"Kendalsari"},{"id":"3517112017","district_id":"3517112","postal_code":"61483","name":"Talunkidul"},{"id":"3517112018","district_id":"3517112","postal_code":"61483","name":"Madiopuro"},{"id":"3517112019","district_id":"3517112","postal_code":"61483","name":"Bakalan"},{"id":"3517112020","district_id":"3517112","postal_code":"61483","name":"Gedangan"},{"id":"3517112021","district_id":"3517112","postal_code":"61483","name":"Mentoro"}]