[{"id":"3518032001","district_id":"3518032","postal_code":"64473","name":"Salamrojo"},{"id":"3518032002","district_id":"3518032","postal_code":"64473","name":"Cepoko"},{"id":"3518032003","district_id":"3518032","postal_code":"64473","name":"Maguan"},{"id":"3518032004","district_id":"3518032","postal_code":"64473","name":"Semare"},{"id":"3518032005","district_id":"3518032","postal_code":"64473","name":"Berbek"},{"id":"3518032006","district_id":"3518032","postal_code":"64473","name":"Mlilir"},{"id":"3518032007","district_id":"3518032","postal_code":"64473","name":"Bendungrejo"},{"id":"3518032008","district_id":"3518032","postal_code":"64473","name":"Sengkut"},{"id":"3518032009","district_id":"3518032","postal_code":"64473","name":"Ngrawan"},{"id":"3518032010","district_id":"3518032","postal_code":"64473","name":"Sumberwindu"},{"id":"3518032011","district_id":"3518032","postal_code":"64473","name":"Kacangan"},{"id":"3518032012","district_id":"3518032","postal_code":"64473","name":"Sendangbumen"},{"id":"3518032013","district_id":"3518032","postal_code":"64473","name":"Patranrejo"},{"id":"3518032014","district_id":"3518032","postal_code":"64473","name":"Sumberurip"},{"id":"3518032015","district_id":"3518032","postal_code":"64473","name":"Bulu"},{"id":"3518032016","district_id":"3518032","postal_code":"64473","name":"Grojogan"},{"id":"3518032017","district_id":"3518032","postal_code":"64473","name":"Tiripan"},{"id":"3518032018","district_id":"3518032","postal_code":"64473","name":"Balongrejo"},{"id":"3518032019","district_id":"3518032","postal_code":"64473","name":"Sonopatik"}]