[{"id":"3518112001","district_id":"3518112","postal_code":"64482","name":"Kedungombo"},{"id":"3518112002","district_id":"3518112","postal_code":"64482","name":"Sumberkepuh"},{"id":"3518112003","district_id":"3518112","postal_code":"64482","name":"Wates"},{"id":"3518112004","district_id":"3518112","postal_code":"64482","name":"Malangsari"},{"id":"3518112005","district_id":"3518112","postal_code":"64482","name":"Getas"},{"id":"3518112006","district_id":"3518112","postal_code":"64482","name":"Sonobekel"},{"id":"3518112007","district_id":"3518112","postal_code":"64482","name":"Ngadirejo"},{"id":"3518112008","district_id":"3518112","postal_code":"64482","name":"Banjaranyar"},{"id":"3518112009","district_id":"3518112","postal_code":"64482","name":"Sidoharjo"},{"id":"3518112010","district_id":"3518112","postal_code":"64482","name":"Kampungbaru"},{"id":"3518112012","district_id":"3518112","postal_code":"64482","name":"Jogomerto"},{"id":"3518112014","district_id":"3518112","postal_code":"64482","name":"Kedungrejo"},{"id":"3518112015","district_id":"3518112","postal_code":"64482","name":"Sambirejo"},{"id":"3518112016","district_id":"3518112","postal_code":"64482","name":"Demangan"}]