[{"id":"3518162001","district_id":"3518162","postal_code":"64453","name":"Gempol"},{"id":"3518162002","district_id":"3518162","postal_code":"64453","name":"Mungkung"},{"id":"3518162003","district_id":"3518162","postal_code":"64453","name":"Setren"},{"id":"3518162004","district_id":"3518162","postal_code":"64453","name":"Sukorejo"},{"id":"3518162005","district_id":"3518162","postal_code":"64453","name":"Sidokare"},{"id":"3518162006","district_id":"3518162","postal_code":"64453","name":"Mojorembun"},{"id":"3518162007","district_id":"3518162","postal_code":"64453","name":"Ngadiboyo"},{"id":"3518162008","district_id":"3518162","postal_code":"64453","name":"Rejoso"},{"id":"3518162009","district_id":"3518162","postal_code":"64453","name":"Klagen"},{"id":"3518162010","district_id":"3518162","postal_code":"64453","name":"Jatirejo"},{"id":"3518162011","district_id":"3518162","postal_code":"64453","name":"Mlorah"},{"id":"3518162012","district_id":"3518162","postal_code":"64453","name":"Puhkerep"},{"id":"3518162013","district_id":"3518162","postal_code":"64453","name":"Talun"},{"id":"3518162014","district_id":"3518162","postal_code":"64453","name":"Ngangkatan"},{"id":"3518162015","district_id":"3518162","postal_code":"64453","name":"Talang"},{"id":"3518162016","district_id":"3518162","postal_code":"64453","name":"Banjarejo"},{"id":"3518162017","district_id":"3518162","postal_code":"64453","name":"Sambikerep"},{"id":"3518162018","district_id":"3518162","postal_code":"64453","name":"Musir Lor"},{"id":"3518162019","district_id":"3518162","postal_code":"64453","name":"Musir Kidul"},{"id":"3518162020","district_id":"3518162","postal_code":"64453","name":"Wengkal"},{"id":"3518162021","district_id":"3518162","postal_code":"64453","name":"Jintel"},{"id":"3518162022","district_id":"3518162","postal_code":"64453","name":"Kedungpadang"},{"id":"3518162023","district_id":"3518162","postal_code":"64453","name":"Tritik"},{"id":"3518162024","district_id":"3518162","postal_code":"64453","name":"Bendoasri"}]