[{"id":"3518131001","district_id":"3518131","postal_code":"64416","name":"Jatirejo"},{"id":"3518131002","district_id":"3518131","postal_code":"64417","name":"Ploso"},{"id":"3518131003","district_id":"3518131","postal_code":"64418","name":"Payaman"},{"id":"3518131004","district_id":"3518131","postal_code":"64419","name":"Kramat"},{"id":"3518131005","district_id":"3518131","postal_code":"64419","name":"Ganung Kidul"},{"id":"3518131006","district_id":"3518131","postal_code":"64419","name":"Werungotok"},{"id":"3518131007","district_id":"3518131","postal_code":"64419","name":"Mangundikaran"},{"id":"3518131008","district_id":"3518131","postal_code":"64411","name":"Kauman"},{"id":"3518131009","district_id":"3518131","postal_code":"64416","name":"Kartoharjo"},{"id":"3518131010","district_id":"3518131","postal_code":"64415","name":"Cangkriman"},{"id":"3518131011","district_id":"3518131","postal_code":"64415","name":"Bogo"},{"id":"3518131012","district_id":"3518131","postal_code":"64419","name":"Ringinanom"},{"id":"3518131013","district_id":"3518131","postal_code":"64413","name":"Begadung"}]