[{"id":"3519012001","district_id":"3519012","postal_code":"63173","name":"Tambakmas"},{"id":"3519012002","district_id":"3519012","postal_code":"63173","name":"Tanjungrejo"},{"id":"3519012003","district_id":"3519012","postal_code":"63173","name":"Sukorejo"},{"id":"3519012004","district_id":"3519012","postal_code":"63173","name":"Pucanganom"},{"id":"3519012005","district_id":"3519012","postal_code":"63173","name":"Krandegan"},{"id":"3519012006","district_id":"3519012","postal_code":"63173","name":"Singgahan"},{"id":"3519012007","district_id":"3519012","postal_code":"63173","name":"Sidorejo"},{"id":"3519012008","district_id":"3519012","postal_code":"63173","name":"Palur"},{"id":"3519012009","district_id":"3519012","postal_code":"63173","name":"Mojorejo"},{"id":"3519012010","district_id":"3519012","postal_code":"63173","name":"Rejosari"},{"id":"3519012011","district_id":"3519012","postal_code":"63173","name":"Kebonsari"},{"id":"3519012012","district_id":"3519012","postal_code":"63173","name":"Balerejo"},{"id":"3519012013","district_id":"3519012","postal_code":"63173","name":"Kendondong"},{"id":"3519012014","district_id":"3519012","postal_code":"63173","name":"Bacem"}]