[{"id":"3519042001","district_id":"3519042","postal_code":"63172","name":"Ketandan"},{"id":"3519042002","district_id":"3519042","postal_code":"63172","name":"Tileng"},{"id":"3519042003","district_id":"3519042","postal_code":"63172","name":"Mendak"},{"id":"3519042004","district_id":"3519042","postal_code":"63172","name":"Segulung"},{"id":"3519042005","district_id":"3519042","postal_code":"63172","name":"Ngranget"},{"id":"3519042006","district_id":"3519042","postal_code":"63172","name":"Padas"},{"id":"3519042007","district_id":"3519042","postal_code":"63172","name":"Dagangan"},{"id":"3519042008","district_id":"3519042","postal_code":"63172","name":"Joho"},{"id":"3519042009","district_id":"3519042","postal_code":"63172","name":"Kepet"},{"id":"3519042010","district_id":"3519042","postal_code":"63172","name":"Sewulan"},{"id":"3519042011","district_id":"3519042","postal_code":"0","name":"Jetis"},{"id":"3519042012","district_id":"3519042","postal_code":"63172","name":"Banjarejo"},{"id":"3519042013","district_id":"3519042","postal_code":"63172","name":"Mruwak"},{"id":"3519042014","district_id":"3519042","postal_code":"63172","name":"Prambon"},{"id":"3519042015","district_id":"3519042","postal_code":"63172","name":"Banjarsari Wetan"},{"id":"3519042016","district_id":"3519042","postal_code":"63172","name":"Banjarsari Kulon"},{"id":"3519042017","district_id":"3519042","postal_code":"63172","name":"Sukosari"}]