[{"id":"3521072001","district_id":"3521072","postal_code":"63284","name":"Campurasri"},{"id":"3521072002","district_id":"3521072","postal_code":"63284","name":"Danguk"},{"id":"3521072003","district_id":"3521072","postal_code":"63284","name":"Gempol"},{"id":"3521072004","district_id":"3521072","postal_code":"63284","name":"Ringinanom"},{"id":"3521072005","district_id":"3521072","postal_code":"63284","name":"Sembung"},{"id":"3521072006","district_id":"3521072","postal_code":"63284","name":"Sidorejo"},{"id":"3521072007","district_id":"3521072","postal_code":"63284","name":"Dungmiri"},{"id":"3521072008","district_id":"3521072","postal_code":"63284","name":"Brangol"},{"id":"3521072009","district_id":"3521072","postal_code":"63284","name":"Sidokerto"},{"id":"3521072010","district_id":"3521072","postal_code":"63284","name":"Jatipuro"},{"id":"3521072011","district_id":"3521072","postal_code":"63284","name":"Puhti"},{"id":"3521072012","district_id":"3521072","postal_code":"63284","name":"Sawo"},{"id":"3521072013","district_id":"3521072","postal_code":"63284","name":"Karangjati"},{"id":"3521072014","district_id":"3521072","postal_code":"63284","name":"Legundi"},{"id":"3521072015","district_id":"3521072","postal_code":"63284","name":"Rejomulyo"},{"id":"3521072016","district_id":"3521072","postal_code":"63284","name":"Rejuno"},{"id":"3521072017","district_id":"3521072","postal_code":"63284","name":"Plosolor"}]