[{"id":"3521052005","district_id":"3521052","postal_code":"63271","name":"Keraswetan"},{"id":"3521052006","district_id":"3521052","postal_code":"63271","name":"Keniten"},{"id":"3521052007","district_id":"3521052","postal_code":"63271","name":"Tambakromo"},{"id":"3521052009","district_id":"3521052","postal_code":"63271","name":"Tepas"},{"id":"3521052010","district_id":"3521052","postal_code":"63271","name":"Geneng"},{"id":"3521052011","district_id":"3521052","postal_code":"63271","name":"Sidorejo"},{"id":"3521052012","district_id":"3521052","postal_code":"63271","name":"Baderan"},{"id":"3521052013","district_id":"3521052","postal_code":"63271","name":"Kasreman"},{"id":"3521052014","district_id":"3521052","postal_code":"63271","name":"Kersikan"},{"id":"3521052015","district_id":"3521052","postal_code":"63271","name":"Dempel"},{"id":"3521052016","district_id":"3521052","postal_code":"63271","name":"Klitik"},{"id":"3521052017","district_id":"3521052","postal_code":"63271","name":"Kersoharjo"},{"id":"3521052018","district_id":"3521052","postal_code":"63271","name":"Klampisan"}]