[{"id":"3521112001","district_id":"3521112","postal_code":"63254","name":"Begal"},{"id":"3521112002","district_id":"3521112","postal_code":"63254","name":"Wonorejo"},{"id":"3521112003","district_id":"3521112","postal_code":"63254","name":"Katikan"},{"id":"3521112004","district_id":"3521112","postal_code":"63254","name":"Palang Kidul"},{"id":"3521112005","district_id":"3521112","postal_code":"63254","name":"Kedunggalar"},{"id":"3521112006","district_id":"3521112","postal_code":"63254","name":"Jatigembol"},{"id":"3521112007","district_id":"3521112","postal_code":"63254","name":"Pelanglor"},{"id":"3521112008","district_id":"3521112","postal_code":"63254","name":"Bangunrejo Kidul"},{"id":"3521112009","district_id":"3521112","postal_code":"63254","name":"Jenggrik"},{"id":"3521112010","district_id":"3521112","postal_code":"63254","name":"Wonokerto"},{"id":"3521112011","district_id":"3521112","postal_code":"63254","name":"Gemarang"},{"id":"3521112012","district_id":"3521112","postal_code":"63254","name":"Kawu"}]