[{"id":"3522232001","district_id":"3522232","postal_code":"62155","name":"Banjarsari"},{"id":"3522232002","district_id":"3522232","postal_code":"62155","name":"Tulungrejo"},{"id":"3522232003","district_id":"3522232","postal_code":"62155","name":"Trucuk"},{"id":"3522232004","district_id":"3522232","postal_code":"62155","name":"Mori"},{"id":"3522232005","district_id":"3522232","postal_code":"62155","name":"Padang"},{"id":"3522232006","district_id":"3522232","postal_code":"62191","name":"Sumberejo"},{"id":"3522232007","district_id":"3522232","postal_code":"62155","name":"Guyangan"},{"id":"3522232008","district_id":"3522232","postal_code":"62155","name":"Sranak"},{"id":"3522232009","district_id":"3522232","postal_code":"62155","name":"Sumbangtimun"},{"id":"3522232010","district_id":"3522232","postal_code":"62155","name":"Kanten"},{"id":"3522232011","district_id":"3522232","postal_code":"62155","name":"Kandangan"},{"id":"3522232012","district_id":"3522232","postal_code":"62155","name":"Pagerwesi"}]