[{"id":"3523192001","district_id":"3523192","postal_code":"62383","name":"Patihan"},{"id":"3523192002","district_id":"3523192","postal_code":"62383","name":"Minohorejo"},{"id":"3523192003","district_id":"3523192","postal_code":"62383","name":"Mrutuk"},{"id":"3523192004","district_id":"3523192","postal_code":"62383","name":"Compreng"},{"id":"3523192005","district_id":"3523192","postal_code":"62383","name":"Sumberjo"},{"id":"3523192006","district_id":"3523192","postal_code":"62383","name":"Ngadipuro"},{"id":"3523192007","district_id":"3523192","postal_code":"62383","name":"Ngadirejo"},{"id":"3523192008","district_id":"3523192","postal_code":"62383","name":"Bunut"},{"id":"3523192009","district_id":"3523192","postal_code":"62383","name":"Widang"},{"id":"3523192010","district_id":"3523192","postal_code":"62383","name":"Banjar"},{"id":"3523192011","district_id":"3523192","postal_code":"62383","name":"Tegalsari"},{"id":"3523192012","district_id":"3523192","postal_code":"62383","name":"Mlangi"},{"id":"3523192013","district_id":"3523192","postal_code":"62383","name":"Simorejo"},{"id":"3523192014","district_id":"3523192","postal_code":"62383","name":"Kedungharjo"},{"id":"3523192015","district_id":"3523192","postal_code":"62383","name":"Kujung"},{"id":"3523192016","district_id":"3523192","postal_code":"62383","name":"Tegalrejo"}]