[{"id":"3523161003","district_id":"3523161","postal_code":"62319","name":"Mondokan"},{"id":"3523161005","district_id":"3523161","postal_code":"62319","name":"Perbon"},{"id":"3523161006","district_id":"3523161","postal_code":"62314","name":"Latsari"},{"id":"3523161007","district_id":"3523161","postal_code":"62314","name":"Karangsari"},{"id":"3523161008","district_id":"3523161","postal_code":"62313","name":"Kingking"},{"id":"3523161009","district_id":"3523161","postal_code":"62313","name":"Ronggomulyo"},{"id":"3523161010","district_id":"3523161","postal_code":"62315","name":"Sidorejo"},{"id":"3523161011","district_id":"3523161","postal_code":"62316","name":"Doromukti"},{"id":"3523161012","district_id":"3523161","postal_code":"62312","name":"Sidomulyo"},{"id":"3523161013","district_id":"3523161","postal_code":"62311","name":"Kutorejo"},{"id":"3523161014","district_id":"3523161","postal_code":"62317","name":"Kebonsari"},{"id":"3523161015","district_id":"3523161","postal_code":"62319","name":"Sendangharjo"},{"id":"3523161016","district_id":"3523161","postal_code":"62318","name":"Baturetno"},{"id":"3523161017","district_id":"3523161","postal_code":"62318","name":"Sukolilo"}]