[{"id":"3523052001","district_id":"3523052","postal_code":"62365","name":"Medalem"},{"id":"3523052002","district_id":"3523052","postal_code":"62365","name":"Jatisari"},{"id":"3523052003","district_id":"3523052","postal_code":"62365","name":"Kaligede"},{"id":"3523052004","district_id":"3523052","postal_code":"62365","name":"Banyuurip"},{"id":"3523052005","district_id":"3523052","postal_code":"62365","name":"Leran"},{"id":"3523052006","district_id":"3523052","postal_code":"62365","name":"Wonosari"},{"id":"3523052007","district_id":"3523052","postal_code":"62365","name":"Sendang"},{"id":"3523052008","district_id":"3523052","postal_code":"62365","name":"Wanglukulon"},{"id":"3523052009","district_id":"3523052","postal_code":"62365","name":"Wangluwetan"},{"id":"3523052010","district_id":"3523052","postal_code":"62365","name":"Sidoharjo"},{"id":"3523052011","district_id":"3523052","postal_code":"62365","name":"Rayung"},{"id":"3523052012","district_id":"3523052","postal_code":"62365","name":"Katerban"}]