[{"id":"3525182001","district_id":"3525182","postal_code":"61182","name":"Gelam"},{"id":"3525182002","district_id":"3525182","postal_code":"61182","name":"Sukaoneng"},{"id":"3525182003","district_id":"3525182","postal_code":"61182","name":"Sukalela"},{"id":"3525182004","district_id":"3525182","postal_code":"61182","name":"Pekalongan"},{"id":"3525182005","district_id":"3525182","postal_code":"61182","name":"Tambak"},{"id":"3525182006","district_id":"3525182","postal_code":"61182","name":"Telukjatidawang"},{"id":"3525182007","district_id":"3525182","postal_code":"61182","name":"Klumpanggubug"},{"id":"3525182008","district_id":"3525182","postal_code":"61182","name":"Grejeg"},{"id":"3525182009","district_id":"3525182","postal_code":"61182","name":"Tanjungori"},{"id":"3525182010","district_id":"3525182","postal_code":"61182","name":"Peromaan"},{"id":"3525182011","district_id":"3525182","postal_code":"61182","name":"Diponggo"},{"id":"3525182012","district_id":"3525182","postal_code":"61182","name":"Kepuhteluk"},{"id":"3525182013","district_id":"3525182","postal_code":"61182","name":"Kepuhlegundi"}]