[{"id":"3526162001","district_id":"3526162","postal_code":"69166","name":"Patereman"},{"id":"3526162002","district_id":"3526162","postal_code":"69166","name":"Paeng"},{"id":"3526162003","district_id":"3526162","postal_code":"69166","name":"Kolla"},{"id":"3526162004","district_id":"3526162","postal_code":"69166","name":"Neroh"},{"id":"3526162005","district_id":"3526162","postal_code":"69166","name":"Langpanggang"},{"id":"3526162006","district_id":"3526162","postal_code":"69166","name":"Patenteng"},{"id":"3526162007","district_id":"3526162","postal_code":"69166","name":"Srabi Barat"},{"id":"3526162008","district_id":"3526162","postal_code":"69166","name":"Srabi Timur"},{"id":"3526162009","district_id":"3526162","postal_code":"69166","name":"Pangpajung"},{"id":"3526162010","district_id":"3526162","postal_code":"69166","name":"Karang Anyar"},{"id":"3526162011","district_id":"3526162","postal_code":"69166","name":"Alas Kokon"},{"id":"3526162012","district_id":"3526162","postal_code":"69166","name":"Pakong"},{"id":"3526162013","district_id":"3526162","postal_code":"69166","name":"Glisgis"},{"id":"3526162014","district_id":"3526162","postal_code":"69166","name":"Brakas Dajah"},{"id":"3526162015","district_id":"3526162","postal_code":"69166","name":"Modung"},{"id":"3526162016","district_id":"3526162","postal_code":"69166","name":"Suwaan"},{"id":"3526162017","district_id":"3526162","postal_code":"69166","name":"Manggaan"}]