[{"id":"3526082001","district_id":"3526082","postal_code":"69154","name":"Sepulu"},{"id":"3526082002","district_id":"3526082","postal_code":"69154","name":"Maneron"},{"id":"3526082003","district_id":"3526082","postal_code":"69154","name":"Gangseyan"},{"id":"3526082004","district_id":"3526082","postal_code":"69154","name":"Klapayan"},{"id":"3526082005","district_id":"3526082","postal_code":"69154","name":"Bangsereh"},{"id":"3526082006","district_id":"3526082","postal_code":"69154","name":"Kelbung"},{"id":"3526082007","district_id":"3526082","postal_code":"69154","name":"Saplasah"},{"id":"3526082008","district_id":"3526082","postal_code":"69154","name":"Genelap"},{"id":"3526082009","district_id":"3526082","postal_code":"69154","name":"Klabetan"},{"id":"3526082010","district_id":"3526082","postal_code":"69154","name":"Banyior"},{"id":"3526082011","district_id":"3526082","postal_code":"69154","name":"Prancak"},{"id":"3526082012","district_id":"3526082","postal_code":"69154","name":"Labuhan"},{"id":"3526082013","district_id":"3526082","postal_code":"69154","name":"Tanagura Barat"},{"id":"3526082014","district_id":"3526082","postal_code":"69154","name":"Lembung Paseser"},{"id":"3526082015","district_id":"3526082","postal_code":"69154","name":"Tanagura Timur"}]