[{"id":"3526112001","district_id":"3526112","postal_code":"69163","name":"Pesanggrahan"},{"id":"3526112002","district_id":"3526112","postal_code":"69163","name":"Kwanyar Barat"},{"id":"3526112003","district_id":"3526112","postal_code":"69163","name":"Ketetang"},{"id":"3526112004","district_id":"3526112","postal_code":"69163","name":"Dlemer"},{"id":"3526112005","district_id":"3526112","postal_code":"69163","name":"Morombuh"},{"id":"3526112006","district_id":"3526112","postal_code":"69163","name":"Tebul"},{"id":"3526112007","district_id":"3526112","postal_code":"69163","name":"Karang Anyar"},{"id":"3526112008","district_id":"3526112","postal_code":"69163","name":"Janteh"},{"id":"3526112009","district_id":"3526112","postal_code":"69163","name":"Somor Koneng"},{"id":"3526112010","district_id":"3526112","postal_code":"69163","name":"Paoran"},{"id":"3526112011","district_id":"3526112","postal_code":"69163","name":"Karang Entang"},{"id":"3526112012","district_id":"3526112","postal_code":"69163","name":"Batah Barat"},{"id":"3526112013","district_id":"3526112","postal_code":"69163","name":"Batah Timur"},{"id":"3526112014","district_id":"3526112","postal_code":"69163","name":"Pandanan"},{"id":"3526112015","district_id":"3526112","postal_code":"69163","name":"Gunung Sereng"},{"id":"3526112016","district_id":"3526112","postal_code":"69163","name":"Duwek Buter"}]