[{"id":"3527022007","district_id":"3527022","postal_code":"69270","name":"Dulang"},{"id":"3527022008","district_id":"3527022","postal_code":"69270","name":"Patarongan"},{"id":"3527022009","district_id":"3527022","postal_code":"69270","name":"Pangongsean"},{"id":"3527022010","district_id":"3527022","postal_code":"69270","name":"Krampon"},{"id":"3527022011","district_id":"3527022","postal_code":"69270","name":"Bringinnonggal"},{"id":"3527022012","district_id":"3527022","postal_code":"69270","name":"Torjun"},{"id":"3527022013","district_id":"3527022","postal_code":"69270","name":"Patapan"},{"id":"3527022014","district_id":"3527022","postal_code":"69270","name":"Jeruk Porot"},{"id":"3527022015","district_id":"3527022","postal_code":"69270","name":"Kodak"},{"id":"3527022016","district_id":"3527022","postal_code":"69270","name":"Kanjar"},{"id":"3527022017","district_id":"3527022","postal_code":"69270","name":"Kara"},{"id":"3527022018","district_id":"3527022","postal_code":"69270","name":"Tanah Merah"}]