[{"id":"3527032001","district_id":"3527032","postal_code":"69216","name":"P. Mandingan"},{"id":"3527032002","district_id":"3527032","postal_code":"69216","name":"Aengsareh"},{"id":"3527032005","district_id":"3527032","postal_code":"69216","name":"Gunung Maddah"},{"id":"3527032010","district_id":"3527032","postal_code":"69216","name":"Panggung"},{"id":"3527032011","district_id":"3527032","postal_code":"69216","name":"Taman Sareh"},{"id":"3527032012","district_id":"3527032","postal_code":"69216","name":"Pakalongan"},{"id":"3527032013","district_id":"3527032","postal_code":"69216","name":"Tanggumong"},{"id":"3527032014","district_id":"3527032","postal_code":"69216","name":"Kamuning"},{"id":"3527032015","district_id":"3527032","postal_code":"69216","name":"Banyumas"},{"id":"3527032016","district_id":"3527032","postal_code":"69216","name":"Pangelen"},{"id":"3527032017","district_id":"3527032","postal_code":"69216","name":"Paseyan"},{"id":"3527032018","district_id":"3527032","postal_code":"69216","name":"Baruh"}]