[{"id":"3528062001","district_id":"3528062","postal_code":"69362","name":"Banyupelle"},{"id":"3528062002","district_id":"3528062","postal_code":"69362","name":"Rek Kerrek"},{"id":"3528062003","district_id":"3528062","postal_code":"69362","name":"Angsanah"},{"id":"3528062004","district_id":"3528062","postal_code":"69362","name":"Akkor"},{"id":"3528062005","district_id":"3528062","postal_code":"69362","name":"Larangan Badung"},{"id":"3528062006","district_id":"3528062","postal_code":"69362","name":"Panaan"},{"id":"3528062007","district_id":"3528062","postal_code":"69362","name":"Patoan Laok"},{"id":"3528062008","district_id":"3528062","postal_code":"69362","name":"Patoan Dajah"},{"id":"3528062009","district_id":"3528062","postal_code":"69362","name":"Kacok"},{"id":"3528062010","district_id":"3528062","postal_code":"69362","name":"Rombuh"},{"id":"3528062011","district_id":"3528062","postal_code":"69362","name":"Palengaan Laok"},{"id":"3528062012","district_id":"3528062","postal_code":"69362","name":"Palengaan Dajah"}]