[{"id":"3528022001","district_id":"3528022","postal_code":"69323","name":"Tanjung"},{"id":"3528022002","district_id":"3528022","postal_code":"69323","name":"Padelegan"},{"id":"3528022003","district_id":"3528022","postal_code":"69323","name":"Majungan"},{"id":"3528022004","district_id":"3528022","postal_code":"69323","name":"Pagagan"},{"id":"3528022005","district_id":"3528022","postal_code":"69323","name":"Jarin"},{"id":"3528022006","district_id":"3528022","postal_code":"69323","name":"Baddurih"},{"id":"3528022007","district_id":"3528022","postal_code":"69323","name":"Buddih"},{"id":"3528022008","district_id":"3528022","postal_code":"69323","name":"Sopaah"},{"id":"3528022009","district_id":"3528022","postal_code":"69323","name":"Prekbun"},{"id":"3528022010","district_id":"3528022","postal_code":"69323","name":"Durbuk"},{"id":"3528022011","district_id":"3528022","postal_code":"69323","name":"Pademawu Barat"},{"id":"3528022012","district_id":"3528022","postal_code":"69323","name":"Pademawu Timur"},{"id":"3528022013","district_id":"3528022","postal_code":"69323","name":"Bunder"},{"id":"3528022014","district_id":"3528022","postal_code":"69323","name":"Dasok"},{"id":"3528022015","district_id":"3528022","postal_code":"69323","name":"Murtajih"},{"id":"3528022016","district_id":"3528022","postal_code":"69323","name":"Sumedangan"},{"id":"3528022017","district_id":"3528022","postal_code":"69323","name":"Lemper"},{"id":"3528022020","district_id":"3528022","postal_code":"69323","name":"Sentol"},{"id":"3528022021","district_id":"3528022","postal_code":"69323","name":"Tambung"},{"id":"3528022022","district_id":"3528022","postal_code":"69323","name":"Buddagan"}]