[{"id":"3529162001","district_id":"3529162","postal_code":"69473","name":"Kolpo"},{"id":"3529162002","district_id":"3529162","postal_code":"69473","name":"Tamidung"},{"id":"3529162003","district_id":"3529162","postal_code":"69473","name":"Batang-batang Laok"},{"id":"3529162004","district_id":"3529162","postal_code":"69473","name":"Batang-batang Daya"},{"id":"3529162005","district_id":"3529162","postal_code":"69473","name":"Totosan"},{"id":"3529162006","district_id":"3529162","postal_code":"69473","name":"Banuaju Barat"},{"id":"3529162007","district_id":"3529162","postal_code":"69473","name":"Banuaju Timur"},{"id":"3529162008","district_id":"3529162","postal_code":"69473","name":"Jenangger"},{"id":"3529162009","district_id":"3529162","postal_code":"69473","name":"Nyabakan Timur"},{"id":"3529162010","district_id":"3529162","postal_code":"69473","name":"Nyabakan Barat"},{"id":"3529162011","district_id":"3529162","postal_code":"69473","name":"Jangkong"},{"id":"3529162012","district_id":"3529162","postal_code":"69473","name":"Legung Barat"},{"id":"3529162013","district_id":"3529162","postal_code":"69473","name":"Legung Timur"},{"id":"3529162014","district_id":"3529162","postal_code":"69473","name":"Dapenda"},{"id":"3529162015","district_id":"3529162","postal_code":"69473","name":"Bilangan"},{"id":"3529162016","district_id":"3529162","postal_code":"69473","name":"Lombang"}]