[{"id":"3529062001","district_id":"3529062","postal_code":"69467","name":"Pagar Batu"},{"id":"3529062002","district_id":"3529062","postal_code":"69467","name":"Tanjung"},{"id":"3529062003","district_id":"3529062","postal_code":"69467","name":"Kebundadap Timur"},{"id":"3529062004","district_id":"3529062","postal_code":"69467","name":"Langsar"},{"id":"3529062005","district_id":"3529062","postal_code":"69467","name":"Kebundadap Barat"},{"id":"3529062006","district_id":"3529062","postal_code":"69467","name":"Saroka"},{"id":"3529062007","district_id":"3529062","postal_code":"69467","name":"Tanamerah"},{"id":"3529062008","district_id":"3529062","postal_code":"69467","name":"Nambakor"},{"id":"3529062009","district_id":"3529062","postal_code":"69467","name":"Saronggi"},{"id":"3529062010","district_id":"3529062","postal_code":"69467","name":"Moangan"},{"id":"3529062011","district_id":"3529062","postal_code":"69467","name":"Juluk"},{"id":"3529062012","district_id":"3529062","postal_code":"69467","name":"Aengtongtong"},{"id":"3529062013","district_id":"3529062","postal_code":"69467","name":"Talang"},{"id":"3529062014","district_id":"3529062","postal_code":"69467","name":"Kambingan Timur"}]