[{"id":"3602042002","district_id":"3602042","postal_code":"42372","name":"Cipanas"},{"id":"3602042003","district_id":"3602042","postal_code":"42372","name":"Girilaya"},{"id":"3602042004","district_id":"3602042","postal_code":"42372","name":"Malangsari"},{"id":"3602042005","district_id":"3602042","postal_code":"42372","name":"Bintangresmi"},{"id":"3602042006","district_id":"3602042","postal_code":"42372","name":"Talagahiyang"},{"id":"3602042007","district_id":"3602042","postal_code":"42372","name":"Luhurjaya"},{"id":"3602042008","district_id":"3602042","postal_code":"42372","name":"Haurgajrug"},{"id":"3602042009","district_id":"3602042","postal_code":"42372","name":"Giriharja"},{"id":"3602042010","district_id":"3602042","postal_code":"42372","name":"Sukasari"},{"id":"3602042013","district_id":"3602042","postal_code":"42372","name":"Jayapura"},{"id":"3602042014","district_id":"3602042","postal_code":"42372","name":"Sipayung"},{"id":"3602042015","district_id":"3602042","postal_code":"42372","name":"Bintangsari"},{"id":"3602042016","district_id":"3602042","postal_code":"42372","name":"Pasirhaur"},{"id":"3602042020","district_id":"3602042","postal_code":"42372","name":"Harumsari"}]