[{"id":"3602132005","district_id":"3602132","postal_code":"42382","name":"Tanjungsari"},{"id":"3602132006","district_id":"3602132","postal_code":"42382","name":"Maja"},{"id":"3602132007","district_id":"3602132","postal_code":"42382","name":"Sangiang"},{"id":"3602132008","district_id":"3602132","postal_code":"42382","name":"Binong"},{"id":"3602132009","district_id":"3602132","postal_code":"42382","name":"Gubugan Cibeureum"},{"id":"3602132011","district_id":"3602132","postal_code":"42382","name":"Mekarsari"},{"id":"3602132012","district_id":"3602132","postal_code":"42382","name":"Padasuka"},{"id":"3602132015","district_id":"3602132","postal_code":"42382","name":"Curugbadak"},{"id":"3602132016","district_id":"3602132","postal_code":"42382","name":"Sindangmulya"},{"id":"3602132018","district_id":"3602132","postal_code":"42382","name":"Cilangkap"},{"id":"3602132020","district_id":"3602132","postal_code":"42382","name":"Pasirkembang"},{"id":"3602132021","district_id":"3602132","postal_code":"42382","name":"Pasirkecapi"},{"id":"3602132022","district_id":"3602132","postal_code":"42382","name":"Buyut Mekar"},{"id":"3602132023","district_id":"3602132","postal_code":"42382","name":"Maja Baru"}]