[{"id":"3604152001","district_id":"3604152","postal_code":"42186","name":"Cikande"},{"id":"3604152002","district_id":"3604152","postal_code":"42186","name":"Leuwi Limus"},{"id":"3604152003","district_id":"3604152","postal_code":"42186","name":"Nambo Udik"},{"id":"3604152004","district_id":"3604152","postal_code":"42186","name":"Parigi"},{"id":"3604152005","district_id":"3604152","postal_code":"42186","name":"Koper"},{"id":"3604152006","district_id":"3604152","postal_code":"42186","name":"Bakung"},{"id":"3604152007","district_id":"3604152","postal_code":"42186","name":"Julang"},{"id":"3604152008","district_id":"3604152","postal_code":"42186","name":"Sukatani"},{"id":"3604152009","district_id":"3604152","postal_code":"42186","name":"Situterate"},{"id":"3604152010","district_id":"3604152","postal_code":"42186","name":"Kamurang"},{"id":"3604152011","district_id":"3604152","postal_code":"42186","name":"Gembor Udik"},{"id":"3604152012","district_id":"3604152","postal_code":"42186","name":"Songgomjaya"},{"id":"3604152013","district_id":"3604152","postal_code":"42186","name":"Cikande Permai"}]