[{"id":"3673031001","district_id":"3673031","postal_code":"42183","name":"Walantaka"},{"id":"3673031002","district_id":"3673031","postal_code":"42183","name":"Cigoong"},{"id":"3673031003","district_id":"3673031","postal_code":"42183","name":"Nyapah"},{"id":"3673031004","district_id":"3673031","postal_code":"42183","name":"Pangampelan"},{"id":"3673031006","district_id":"3673031","postal_code":"42183","name":"Kiara"},{"id":"3673031007","district_id":"3673031","postal_code":"42183","name":"Pager Agung"},{"id":"3673031008","district_id":"3673031","postal_code":"42183","name":"Kalodran"},{"id":"3673031009","district_id":"3673031","postal_code":"42183","name":"Kapuren"},{"id":"3673031010","district_id":"3673031","postal_code":"42183","name":"Teritih"},{"id":"3673031011","district_id":"3673031","postal_code":"42183","name":"Pabuaran"},{"id":"3673031012","district_id":"3673031","postal_code":"42183","name":"Pasuluhan"},{"id":"3673031013","district_id":"3673031","postal_code":"42183","name":"Tegalsari"},{"id":"3673031014","district_id":"3673031","postal_code":"42183","name":"Pipitan"},{"id":"3673031016","district_id":"3673031","postal_code":"42183","name":"Lebakwangi"}]