[{"id":"5103022001","district_id":"5103022","postal_code":"80351","name":"Munggu"},{"id":"5103022002","district_id":"5103022","postal_code":"80351","name":"Buduk"},{"id":"5103022003","district_id":"5103022","postal_code":"80351","name":"Mengwitani"},{"id":"5103022006","district_id":"5103022","postal_code":"80351","name":"Penarungan"},{"id":"5103022007","district_id":"5103022","postal_code":"80351","name":"Sembung"},{"id":"5103022008","district_id":"5103022","postal_code":"80351","name":"Baha"},{"id":"5103022009","district_id":"5103022","postal_code":"80351","name":"Mengwi"},{"id":"5103022010","district_id":"5103022","postal_code":"80351","name":"Kekeran"},{"id":"5103022011","district_id":"5103022","postal_code":"80351","name":"Sobangan"},{"id":"5103022012","district_id":"5103022","postal_code":"80351","name":"Gulingan"},{"id":"5103022013","district_id":"5103022","postal_code":"80351","name":"Werdi Bhuwana"},{"id":"5103022017","district_id":"5103022","postal_code":"80351","name":"Cemagi"},{"id":"5103022018","district_id":"5103022","postal_code":"80351","name":"Pererenan"},{"id":"5103022019","district_id":"5103022","postal_code":"80351","name":"Tumbakbayuh"},{"id":"5103022020","district_id":"5103022","postal_code":"80351","name":"Kuwun"}]