[{"id":"5107052001","district_id":"5107052","postal_code":"80852","name":"Ababi"},{"id":"5107052002","district_id":"5107052","postal_code":"80852","name":"Tiying Tali"},{"id":"5107052003","district_id":"5107052","postal_code":"80852","name":"Bunutan"},{"id":"5107052004","district_id":"5107052","postal_code":"80852","name":"Tista"},{"id":"5107052005","district_id":"5107052","postal_code":"80852","name":"Abang"},{"id":"5107052006","district_id":"5107052","postal_code":"80852","name":"Pidpid"},{"id":"5107052007","district_id":"5107052","postal_code":"80852","name":"Datah"},{"id":"5107052008","district_id":"5107052","postal_code":"80852","name":"Culik"},{"id":"5107052009","district_id":"5107052","postal_code":"80852","name":"Purwakerti"},{"id":"5107052010","district_id":"5107052","postal_code":"80852","name":"Kerta Mandala"},{"id":"5107052011","district_id":"5107052","postal_code":"80852","name":"Labasari"},{"id":"5107052012","district_id":"5107052","postal_code":"80852","name":"Nawa Kerti"},{"id":"5107052013","district_id":"5107052","postal_code":"80852","name":"Kesimpar"},{"id":"5107052014","district_id":"5107052","postal_code":"80852","name":"Tribuana"}]