[{"id":"5108022001","district_id":"5108022","postal_code":"81153","name":"Unggahan"},{"id":"5108022002","district_id":"5108022","postal_code":"81153","name":"Ularan"},{"id":"5108022003","district_id":"5108022","postal_code":"81153","name":"Ringdikit"},{"id":"5108022004","district_id":"5108022","postal_code":"81153","name":"Rangdu"},{"id":"5108022005","district_id":"5108022","postal_code":"81153","name":"Mayong"},{"id":"5108022006","district_id":"5108022","postal_code":"81153","name":"Gunungsari"},{"id":"5108022007","district_id":"5108022","postal_code":"81153","name":"Munduk Bestala"},{"id":"5108022008","district_id":"5108022","postal_code":"81153","name":"Bestala"},{"id":"5108022009","district_id":"5108022","postal_code":"81153","name":"Kalianget"},{"id":"5108022010","district_id":"5108022","postal_code":"81153","name":"Joanyar"},{"id":"5108022011","district_id":"5108022","postal_code":"81153","name":"Tangguwisia"},{"id":"5108022012","district_id":"5108022","postal_code":"81153","name":"Sulanyah"},{"id":"5108022013","district_id":"5108022","postal_code":"81153","name":"Bubunan"},{"id":"5108022014","district_id":"5108022","postal_code":"81153","name":"Patemon"},{"id":"5108022016","district_id":"5108022","postal_code":"81153","name":"Pengastulan"},{"id":"5108022017","district_id":"5108022","postal_code":"81153","name":"Lokapaksa"},{"id":"5108022018","district_id":"5108022","postal_code":"81153","name":"Pangkungparuk"},{"id":"5108022019","district_id":"5108022","postal_code":"81153","name":"Banjarasem"},{"id":"5108022020","district_id":"5108022","postal_code":"81153","name":"Kalisada"},{"id":"5108022021","district_id":"5108022","postal_code":"81153","name":"Umeanyar"}]