[{"id":"5201032001","district_id":"5201032","postal_code":"83370","name":"Lembuak"},{"id":"5201032002","district_id":"5201032","postal_code":"83370","name":"Nyur Lembang"},{"id":"5201032003","district_id":"5201032","postal_code":"83370","name":"Peresak"},{"id":"5201032004","district_id":"5201032","postal_code":"83370","name":"Keru"},{"id":"5201032005","district_id":"5201032","postal_code":"83370","name":"Batu Kuta"},{"id":"5201032006","district_id":"5201032","postal_code":"83370","name":"Tanak Beak"},{"id":"5201032007","district_id":"5201032","postal_code":"83370","name":"Sedau"},{"id":"5201032008","district_id":"5201032","postal_code":"83370","name":"Suranadi"},{"id":"5201032009","district_id":"5201032","postal_code":"83370","name":"Selat"},{"id":"5201032010","district_id":"5201032","postal_code":"83370","name":"Lebah Sempage"},{"id":"5201032011","district_id":"5201032","postal_code":"83370","name":"Sesaot"},{"id":"5201032012","district_id":"5201032","postal_code":"83370","name":"Dasan Tereng"},{"id":"5201032013","district_id":"5201032","postal_code":"83370","name":"Badrain"},{"id":"5201032014","district_id":"5201032","postal_code":"83370","name":"Sembung"},{"id":"5201032015","district_id":"5201032","postal_code":"83370","name":"Kramat Jaya"},{"id":"5201032016","district_id":"5201032","postal_code":"83370","name":"Grimax Indah"},{"id":"5201032017","district_id":"5201032","postal_code":"83370","name":"Pakuan"},{"id":"5201032018","district_id":"5201032","postal_code":"83370","name":"Golong"},{"id":"5201032019","district_id":"5201032","postal_code":"83370","name":"Mekarsari"},{"id":"5201032020","district_id":"5201032","postal_code":"83370","name":"Buwun Sejati"},{"id":"5201032021","district_id":"5201032","postal_code":"83370","name":"Narmada"}]