[{"id":"5204102001","district_id":"5204102","postal_code":"84371","name":"Sempe"},{"id":"5204102002","district_id":"5204102","postal_code":"84371","name":"Semamung"},{"id":"5204102003","district_id":"5204102","postal_code":"84371","name":"Sebasang"},{"id":"5204102004","district_id":"5204102","postal_code":"84371","name":"Batu Tering"},{"id":"5204102005","district_id":"5204102","postal_code":"84371","name":"Batu Bulan"},{"id":"5204102006","district_id":"5204102","postal_code":"84371","name":"Mokong"},{"id":"5204102007","district_id":"5204102","postal_code":"84371","name":"Pernek"},{"id":"5204102008","district_id":"5204102","postal_code":"84371","name":"Leseng"},{"id":"5204102009","district_id":"5204102","postal_code":"84371","name":"Lito"},{"id":"5204102010","district_id":"5204102","postal_code":"84371","name":"Marga Karya"},{"id":"5204102011","district_id":"5204102","postal_code":"84371","name":"Maman"},{"id":"5204102012","district_id":"5204102","postal_code":"84371","name":"Brang Rea"}]