[{"id":"5205072001","district_id":"5205072","postal_code":"84253","name":"Soriutu"},{"id":"5205072002","district_id":"5205072","postal_code":"84253","name":"Banggo"},{"id":"5205072003","district_id":"5205072","postal_code":"84253","name":"Kwangko"},{"id":"5205072004","district_id":"5205072","postal_code":"84253","name":"Lanci Jaya"},{"id":"5205072005","district_id":"5205072","postal_code":"84253","name":"Suka Damai"},{"id":"5205072006","district_id":"5205072","postal_code":"84253","name":"Nusa Jaya"},{"id":"5205072007","district_id":"5205072","postal_code":"84253","name":"Doromelo"},{"id":"5205072008","district_id":"5205072","postal_code":"84253","name":"Nangatumpu"},{"id":"5205072009","district_id":"5205072","postal_code":"84253","name":"Kampasi Meci"},{"id":"5205072010","district_id":"5205072","postal_code":"84253","name":"Teka Sire"},{"id":"5205072011","district_id":"5205072","postal_code":"84253","name":"Anamina"},{"id":"5205072012","district_id":"5205072","postal_code":"84253","name":"Tanju"}]