[{"id":"5303082005","district_id":"5303082","postal_code":"85671","name":"Nansean"},{"id":"5303082006","district_id":"5303082","postal_code":"85671","name":"Susulaku"},{"id":"5303082007","district_id":"5303082","postal_code":"85671","name":"Loeram"},{"id":"5303082008","district_id":"5303082","postal_code":"85671","name":"Manunain B"},{"id":"5303082010","district_id":"5303082","postal_code":"85671","name":"Tapenpah"},{"id":"5303082011","district_id":"5303082","postal_code":"85671","name":"Sekon"},{"id":"5303082017","district_id":"5303082","postal_code":"85671","name":"Oenbit"},{"id":"5303082022","district_id":"5303082","postal_code":"85671","name":"Susulaku B"},{"id":"5303082025","district_id":"5303082","postal_code":"85671","name":"Keun"},{"id":"5303082026","district_id":"5303082","postal_code":"85671","name":"Fatuana"},{"id":"5303082027","district_id":"5303082","postal_code":"85671","name":"Botof"},{"id":"5303082028","district_id":"5303082","postal_code":"85671","name":"Nansean Timur"}]