[{"id":"5306031001","district_id":"5306031","postal_code":"86212","name":"Waibalun"},{"id":"5306031002","district_id":"5306031","postal_code":"86212","name":"Lewolere"},{"id":"5306031003","district_id":"5306031","postal_code":"86213","name":"Pantai Besar"},{"id":"5306031004","district_id":"5306031","postal_code":"86213","name":"Larantuka"},{"id":"5306031005","district_id":"5306031","postal_code":"86214","name":"Balela"},{"id":"5306031006","district_id":"5306031","postal_code":"86214","name":"Pohon Sirih"},{"id":"5306031007","district_id":"5306031","postal_code":"86215","name":"Lohayong"},{"id":"5306031008","district_id":"5306031","postal_code":"86215","name":"Lokea"},{"id":"5306031009","district_id":"5306031","postal_code":"86216","name":"Postoh"},{"id":"5306031010","district_id":"5306031","postal_code":"86219","name":"Amagarapati"},{"id":"5306031011","district_id":"5306031","postal_code":"86217","name":"Ekasapta"},{"id":"5306031012","district_id":"5306031","postal_code":"86219","name":"Sarotari"},{"id":"5306031013","district_id":"5306031","postal_code":"86219","name":"Weri"},{"id":"5306031014","district_id":"5306031","postal_code":"86219","name":"Pukentobi Wangin Bao"},{"id":"5306031021","district_id":"5306031","postal_code":"86219","name":"Waihali"},{"id":"5306031022","district_id":"5306031","postal_code":"86219","name":"Pohon Bao"},{"id":"5306031023","district_id":"5306031","postal_code":"86219","name":"Sarotari Tengah"},{"id":"5306031024","district_id":"5306031","postal_code":"86219","name":"Sarotari Timur"}]