[{"id":"5306112001","district_id":"5306112","postal_code":"86265","name":"Rodentena"},{"id":"5306112002","district_id":"5306112","postal_code":"86265","name":"Adolaba"},{"id":"5306112003","district_id":"5306112","postal_code":"86265","name":"Hinga"},{"id":"5306112004","district_id":"5306112","postal_code":"86265","name":"Lamapaha"},{"id":"5306112005","district_id":"5306112","postal_code":"86265","name":"Sukutokan"},{"id":"5306112006","district_id":"5306112","postal_code":"86265","name":"Nisakarang"},{"id":"5306112007","district_id":"5306112","postal_code":"86265","name":"Muda"},{"id":"5306112008","district_id":"5306112","postal_code":"86265","name":"Horinara"},{"id":"5306112009","district_id":"5306112","postal_code":"86265","name":"Pepakelu"},{"id":"5306112010","district_id":"5306112","postal_code":"86265","name":"Lambunga"},{"id":"5306112012","district_id":"5306112","postal_code":"86265","name":"Mangaaleng"},{"id":"5306112019","district_id":"5306112","postal_code":"86265","name":"Keluwain"}]