[{"id":"5306062002","district_id":"5306062","postal_code":"86272","name":"Tanah Lein"},{"id":"5306062003","district_id":"5306062","postal_code":"86272","name":"Lamaole"},{"id":"5306062004","district_id":"5306062","postal_code":"86272","name":"Kalelu"},{"id":"5306062005","district_id":"5306062","postal_code":"86272","name":"Nusadani"},{"id":"5306062007","district_id":"5306062","postal_code":"86272","name":"Balaweling Ii"},{"id":"5306062008","district_id":"5306062","postal_code":"86272","name":"Balaweling I"},{"id":"5306062009","district_id":"5306062","postal_code":"86272","name":"Pamakayo"},{"id":"5306062012","district_id":"5306062","postal_code":"86272","name":"Ongalereng"},{"id":"5306062013","district_id":"5306062","postal_code":"86272","name":"Karawatung"},{"id":"5306062014","district_id":"5306062","postal_code":"86272","name":"Lamawalang"},{"id":"5306062015","district_id":"5306062","postal_code":"86272","name":"Daniwato"},{"id":"5306062017","district_id":"5306062","postal_code":"86272","name":"Lewotanah Ole"},{"id":"5306062019","district_id":"5306062","postal_code":"86272","name":"Titehena"},{"id":"5306062020","district_id":"5306062","postal_code":"86272","name":"Lewonama"}]