[{"id":"5307082001","district_id":"5307082","postal_code":"86183","name":"Darat Gunung"},{"id":"5307082002","district_id":"5307082","postal_code":"86183","name":"Ojang"},{"id":"5307082003","district_id":"5307082","postal_code":"86183","name":"Hikong"},{"id":"5307082006","district_id":"5307082","postal_code":"86183","name":"Nebe"},{"id":"5307082007","district_id":"5307082","postal_code":"86183","name":"Wailamung"},{"id":"5307082008","district_id":"5307082","postal_code":"86183","name":"Lewomada"},{"id":"5307082010","district_id":"5307082","postal_code":"86183","name":"Nangahale"},{"id":"5307082011","district_id":"5307082","postal_code":"86183","name":"Darat Pantai"},{"id":"5307082013","district_id":"5307082","postal_code":"86183","name":"Talibura"},{"id":"5307082014","district_id":"5307082","postal_code":"86183","name":"Kringa"},{"id":"5307082015","district_id":"5307082","postal_code":"86183","name":"Bangkoor"},{"id":"5307082017","district_id":"5307082","postal_code":"86183","name":"Timutawa"}]