[{"id":"5308012002","district_id":"5308012","postal_code":"86351","name":"Ondorea"},{"id":"5308012003","district_id":"5308012","postal_code":"86351","name":"Watumite"},{"id":"5308012004","district_id":"5308012","postal_code":"86351","name":"Tendarea"},{"id":"5308012005","district_id":"5308012","postal_code":"86351","name":"Kerirea"},{"id":"5308012006","district_id":"5308012","postal_code":"86351","name":"Tendambepa"},{"id":"5308012007","district_id":"5308012","postal_code":"86351","name":"Zozozea"},{"id":"5308012008","district_id":"5308012","postal_code":"86351","name":"Rapowawo"},{"id":"5308012009","district_id":"5308012","postal_code":"86351","name":"Nggorea"},{"id":"5308012010","district_id":"5308012","postal_code":"86351","name":"Raporendu"},{"id":"5308012011","district_id":"5308012","postal_code":"86351","name":"Bheramari"},{"id":"5308012012","district_id":"5308012","postal_code":"86351","name":"Titwerea"},{"id":"5308012013","district_id":"5308012","postal_code":"86351","name":"Sanggarhorho"},{"id":"5308012014","district_id":"5308012","postal_code":"86351","name":"Ndeturea"},{"id":"5308012015","district_id":"5308012","postal_code":"86351","name":"Ndorurea I"},{"id":"5308012016","district_id":"5308012","postal_code":"86351","name":"Penggajawa"},{"id":"5308012017","district_id":"5308012","postal_code":"86351","name":"Jegharangga"},{"id":"5308012018","district_id":"5308012","postal_code":"86351","name":"Ondorea Barat"},{"id":"5308012019","district_id":"5308012","postal_code":"86351","name":"Romarea"},{"id":"5308012020","district_id":"5308012","postal_code":"86351","name":"Timbaria"},{"id":"5308012021","district_id":"5308012","postal_code":"86351","name":"Mbobhenga"},{"id":"5308012022","district_id":"5308012","postal_code":"86351","name":"Malawaru"},{"id":"5308012023","district_id":"5308012","postal_code":"86351","name":"Anaraja"},{"id":"5308012024","district_id":"5308012","postal_code":"86351","name":"Kekandere"},{"id":"5308012025","district_id":"5308012","postal_code":"86351","name":"Tanazozo"},{"id":"5308012026","district_id":"5308012","postal_code":"86351","name":"Tenda Ondo"},{"id":"5308012027","district_id":"5308012","postal_code":"86351","name":"Jemburea"},{"id":"5308012028","district_id":"5308012","postal_code":"86351","name":"Embuzozo"},{"id":"5308012029","district_id":"5308012","postal_code":"86351","name":"Uzuzozo"}]