[{"id":"5308032001","district_id":"5308032","postal_code":"86319","name":"Raburia"},{"id":"5308032002","district_id":"5308032","postal_code":"86319","name":"Riaraja"},{"id":"5308032003","district_id":"5308032","postal_code":"86319","name":"Mbotutenda"},{"id":"5308032004","district_id":"5308032","postal_code":"86319","name":"Wologai"},{"id":"5308032007","district_id":"5308032","postal_code":"86319","name":"Ndetundora I"},{"id":"5308032008","district_id":"5308032","postal_code":"86319","name":"Ndetundora Ii"},{"id":"5308032009","district_id":"5308032","postal_code":"86319","name":"Tomberabu I"},{"id":"5308032010","district_id":"5308032","postal_code":"86319","name":"Tomberabu Ii"},{"id":"5308032011","district_id":"5308032","postal_code":"86319","name":"Nakuramba"},{"id":"5308032012","district_id":"5308032","postal_code":"86319","name":"Wolokaro"},{"id":"5308032013","district_id":"5308032","postal_code":"86319","name":"Ja Moke Asa"},{"id":"5308032014","district_id":"5308032","postal_code":"86319","name":"Emburia"},{"id":"5308032016","district_id":"5308032","postal_code":"86319","name":"Randotonda"},{"id":"5308032017","district_id":"5308032","postal_code":"86319","name":"Rukuramba"},{"id":"5308032018","district_id":"5308032","postal_code":"86319","name":"Tinabani"},{"id":"5308032019","district_id":"5308032","postal_code":"86319","name":"Ndetundora Iii"},{"id":"5308032020","district_id":"5308032","postal_code":"86319","name":"Uzuramba"},{"id":"5308032021","district_id":"5308032","postal_code":"86319","name":"Tonggopapa"},{"id":"5308032022","district_id":"5308032","postal_code":"86319","name":"Wologai Dua"},{"id":"5308032023","district_id":"5308032","postal_code":"86319","name":"Worhopapa"},{"id":"5308032024","district_id":"5308032","postal_code":"86319","name":"Wawonato"},{"id":"5308032025","district_id":"5308032","postal_code":"86319","name":"Jejaraja"},{"id":"5308032026","district_id":"5308032","postal_code":"86319","name":"Tendambonggi"},{"id":"5308032027","district_id":"5308032","postal_code":"86319","name":"Randorama"},{"id":"5308032028","district_id":"5308032","postal_code":"86319","name":"Ranoramba"},{"id":"5308032029","district_id":"5308032","postal_code":"86319","name":"Peozakaramba"},{"id":"5308032030","district_id":"5308032","postal_code":"86319","name":"Embutheru"},{"id":"5308032031","district_id":"5308032","postal_code":"86319","name":"Nuaja"},{"id":"5308032032","district_id":"5308032","postal_code":"86319","name":"Wajakea Jaya"},{"id":"5308032033","district_id":"5308032","postal_code":"86319","name":"Nemboramba"},{"id":"5308032034","district_id":"5308032","postal_code":"86319","name":"Embu Ngena"},{"id":"5308032035","district_id":"5308032","postal_code":"86319","name":"Uzuramba Barat"}]