[{"id":"5309092005","district_id":"5309092","postal_code":"86419","name":"Taenterong"},{"id":"5309092006","district_id":"5309092","postal_code":"86419","name":"Wangka"},{"id":"5309092008","district_id":"5309092","postal_code":"86419","name":"Lengkosambi"},{"id":"5309092009","district_id":"5309092","postal_code":"86419","name":"Tadho"},{"id":"5309092012","district_id":"5309092","postal_code":"86419","name":"Sambinasi"},{"id":"5309092013","district_id":"5309092","postal_code":"86419","name":"Latung"},{"id":"5309092014","district_id":"5309092","postal_code":"86419","name":"Rawangkalo"},{"id":"5309092016","district_id":"5309092","postal_code":"86419","name":"Wangka Selatan"},{"id":"5309092017","district_id":"5309092","postal_code":"86419","name":"Lengkosambi Timur"},{"id":"5309092018","district_id":"5309092","postal_code":"86419","name":"Lengkosambi Barat"},{"id":"5309092019","district_id":"5309092","postal_code":"86419","name":"Sambinasi Barat"},{"id":"5309092020","district_id":"5309092","postal_code":"86419","name":"Lengkosambi Utara"},{"id":"5309092021","district_id":"5309092","postal_code":"86419","name":"Taen Terong Satu"},{"id":"5309092022","district_id":"5309092","postal_code":"86419","name":"Taen Terong Dua"}]