[{"id":"5310012001","district_id":"5310012","postal_code":"86594","name":"Satar Ngkeling"},{"id":"5310012002","district_id":"5310012","postal_code":"86594","name":"Lalong"},{"id":"5310012003","district_id":"5310012","postal_code":"86594","name":"Poco"},{"id":"5310012004","district_id":"5310012","postal_code":"86594","name":"Wae Mulu"},{"id":"5310012005","district_id":"5310012","postal_code":"86594","name":"Ndehes"},{"id":"5310012006","district_id":"5310012","postal_code":"86594","name":"Golo Cador"},{"id":"5310012007","district_id":"5310012","postal_code":"86594","name":"Longko"},{"id":"5310012008","district_id":"5310012","postal_code":"86594","name":"Ranggi"},{"id":"5310012009","district_id":"5310012","postal_code":"86594","name":"Compang Ndehes"},{"id":"5310012010","district_id":"5310012","postal_code":"86594","name":"Bangka Jong"},{"id":"5310012012","district_id":"5310012","postal_code":"86594","name":"Bangka Kenda"},{"id":"5310012013","district_id":"5310012","postal_code":"86594","name":"Golo Mendo"},{"id":"5310012014","district_id":"5310012","postal_code":"86594","name":"Golo Wuas"},{"id":"5310012015","district_id":"5310012","postal_code":"86594","name":"Wae Rii"},{"id":"5310012016","district_id":"5310012","postal_code":"86594","name":"Ranaka"},{"id":"5310012017","district_id":"5310012","postal_code":"86594","name":"Golo Watu"},{"id":"5310012018","district_id":"5310012","postal_code":"86594","name":"Benteng Poco"}]