[{"id":"5310142001","district_id":"5310142","postal_code":"86522","name":"Buar"},{"id":"5310142002","district_id":"5310142","postal_code":"86522","name":"Benteng Tubi"},{"id":"5310142003","district_id":"5310142","postal_code":"86522","name":"Compang Dari"},{"id":"5310142004","district_id":"5310142","postal_code":"86522","name":"Dimpong"},{"id":"5310142005","district_id":"5310142","postal_code":"86522","name":"Bangka Ajang"},{"id":"5310142006","district_id":"5310142","postal_code":"86522","name":"Liang Bua"},{"id":"5310142007","district_id":"5310142","postal_code":"86522","name":"Tengku Lese"},{"id":"5310142008","district_id":"5310142","postal_code":"86522","name":"Golo Langkok"},{"id":"5310142009","district_id":"5310142","postal_code":"86522","name":"Pong Lengor"},{"id":"5310142010","district_id":"5310142","postal_code":"86522","name":"Manong"},{"id":"5310142011","district_id":"5310142","postal_code":"86522","name":"Bangka Ruang"},{"id":"5310142012","district_id":"5310142","postal_code":"86522","name":"Wae Mantang"}]