[{"id":"5313062001","district_id":"5313062","postal_code":"86691","name":"Balauring"},{"id":"5313062002","district_id":"5313062","postal_code":"86691","name":"Nilanapo"},{"id":"5313062003","district_id":"5313062","postal_code":"86691","name":"Leubatang"},{"id":"5313062004","district_id":"5313062","postal_code":"86691","name":"Walang Sawah"},{"id":"5313062005","district_id":"5313062","postal_code":"86691","name":"Mahal I"},{"id":"5313062006","district_id":"5313062","postal_code":"86691","name":"Aramengi"},{"id":"5313062007","district_id":"5313062","postal_code":"86691","name":"Meluwiting"},{"id":"5313062008","district_id":"5313062","postal_code":"86691","name":"Hingalamamengi"},{"id":"5313062009","district_id":"5313062","postal_code":"86691","name":"Dolulolong"},{"id":"5313062010","district_id":"5313062","postal_code":"86691","name":"Hoelea I"},{"id":"5313062011","district_id":"5313062","postal_code":"86691","name":"Roma"},{"id":"5313062012","district_id":"5313062","postal_code":"86691","name":"Leuwayang"},{"id":"5313062013","district_id":"5313062","postal_code":"86691","name":"Leudanung"},{"id":"5313062014","district_id":"5313062","postal_code":"86691","name":"Normal"},{"id":"5313062015","district_id":"5313062","postal_code":"86691","name":"Wailolong"},{"id":"5313062016","district_id":"5313062","postal_code":"86691","name":"Hoelea Ii"},{"id":"5313062017","district_id":"5313062","postal_code":"86691","name":"Lebewala"},{"id":"5313062018","district_id":"5313062","postal_code":"86691","name":"Mahal Ii"},{"id":"5313062019","district_id":"5313062","postal_code":"86691","name":"Peusawa"},{"id":"5313062020","district_id":"5313062","postal_code":"86691","name":"Wowong"},{"id":"5313062021","district_id":"5313062","postal_code":"86691","name":"Normal I"},{"id":"5313062022","district_id":"5313062","postal_code":"86691","name":"Meluwiting I"}]