[{"id":"5314052001","district_id":"5314052","postal_code":"85973","name":"Nusakdale"},{"id":"5314052002","district_id":"5314052","postal_code":"85973","name":"Batulilok"},{"id":"5314052003","district_id":"5314052","postal_code":"85973","name":"Lenupetu"},{"id":"5314052004","district_id":"5314052","postal_code":"85973","name":"Sonimanu"},{"id":"5314052005","district_id":"5314052","postal_code":"85973","name":"Oebau"},{"id":"5314052006","district_id":"5314052","postal_code":"85973","name":"Oeledo"},{"id":"5314052007","district_id":"5314052","postal_code":"85973","name":"Keoen"},{"id":"5314052008","district_id":"5314052","postal_code":"85973","name":"Edalode"},{"id":"5314052010","district_id":"5314052","postal_code":"85973","name":"Tungganamo"},{"id":"5314052011","district_id":"5314052","postal_code":"85973","name":"Tesa Bela"},{"id":"5314052012","district_id":"5314052","postal_code":"85973","name":"Lekona"},{"id":"5314052013","district_id":"5314052","postal_code":"85973","name":"Oenggae"},{"id":"5314052014","district_id":"5314052","postal_code":"85973","name":"Fatelilo"},{"id":"5314052015","district_id":"5314052","postal_code":"85973","name":"Ofalangga"}]