[{"id":"5314012005","district_id":"5314012","postal_code":"85982","name":"Oeseli"},{"id":"5314012006","district_id":"5314012","postal_code":"85982","name":"Oebou"},{"id":"5314012007","district_id":"5314012","postal_code":"85982","name":"Lalukoen"},{"id":"5314012008","district_id":"5314012","postal_code":"85982","name":"Oehandi"},{"id":"5314012009","district_id":"5314012","postal_code":"85982","name":"Oetefu"},{"id":"5314012010","district_id":"5314012","postal_code":"85982","name":"Batutua"},{"id":"5314012011","district_id":"5314012","postal_code":"85982","name":"Meoain"},{"id":"5314012012","district_id":"5314012","postal_code":"85982","name":"Oebafok"},{"id":"5314012013","district_id":"5314012","postal_code":"85982","name":"Oebatu"},{"id":"5314012014","district_id":"5314012","postal_code":"85982","name":"Mbokak"},{"id":"5314012015","district_id":"5314012","postal_code":"85982","name":"Lekik"},{"id":"5314012016","district_id":"5314012","postal_code":"85982","name":"Dolasi"},{"id":"5314012017","district_id":"5314012","postal_code":"85982","name":"Oelasin"},{"id":"5314012018","district_id":"5314012","postal_code":"85982","name":"Landu"},{"id":"5314012019","district_id":"5314012","postal_code":"85982","name":"Lentera"},{"id":"5314012020","district_id":"5314012","postal_code":"85982","name":"Sanggandolu"},{"id":"5314012021","district_id":"5314012","postal_code":"85982","name":"Sakubatun"},{"id":"5314012022","district_id":"5314012","postal_code":"85982","name":"Fuafuni"},{"id":"5314012023","district_id":"5314012","postal_code":"85982","name":"Dalek Esa"}]