[{"id":"5318102001","district_id":"5318102","postal_code":"87252","name":"Kanelu"},{"id":"5318102002","district_id":"5318102","postal_code":"87252","name":"Tanggaba"},{"id":"5318102003","district_id":"5318102","postal_code":"87252","name":"Wee Kokora"},{"id":"5318102004","district_id":"5318102","postal_code":"87252","name":"Wee Rame"},{"id":"5318102005","district_id":"5318102","postal_code":"87252","name":"Lombu"},{"id":"5318102006","district_id":"5318102","postal_code":"87252","name":"Eka Pata"},{"id":"5318102007","district_id":"5318102","postal_code":"87252","name":"Bolora"},{"id":"5318102008","district_id":"5318102","postal_code":"87252","name":"Omba Rade"},{"id":"5318102009","district_id":"5318102","postal_code":"87252","name":"Kalingara"},{"id":"5318102010","district_id":"5318102","postal_code":"87252","name":"Wee Patando"},{"id":"5318102011","district_id":"5318102","postal_code":"87252","name":"Mereda Wuni"},{"id":"5318102012","district_id":"5318102","postal_code":"87252","name":"Mata Wee Karoro"},{"id":"5318102013","district_id":"5318102","postal_code":"87252","name":"Gollu Sapi"},{"id":"5318102014","district_id":"5318102","postal_code":"87252","name":"Mata Lombu"},{"id":"5318102015","district_id":"5318102","postal_code":"87252","name":"Kadi Roma"},{"id":"5318102016","district_id":"5318102","postal_code":"87252","name":"Bondo Delo"},{"id":"5318102017","district_id":"5318102","postal_code":"87252","name":"Lete Wungana"},{"id":"5318102018","district_id":"5318102","postal_code":"87252","name":"Limbu Watu"},{"id":"5318102019","district_id":"5318102","postal_code":"87252","name":"Kiku Booko"},{"id":"5318102020","district_id":"5318102","postal_code":"87252","name":"Tarra Mata"}]