[{"id":"5319022001","district_id":"5319022","postal_code":"86583","name":"Poco Lia"},{"id":"5319022002","district_id":"5319022","postal_code":"86583","name":"Pocong"},{"id":"5319022003","district_id":"5319022","postal_code":"86583","name":"Lenang"},{"id":"5319022004","district_id":"5319022","postal_code":"86583","name":"Melo"},{"id":"5319022005","district_id":"5319022","postal_code":"86583","name":"Leong"},{"id":"5319022011","district_id":"5319022","postal_code":"86583","name":"Bea Waek"},{"id":"5319022013","district_id":"5319022","postal_code":"86583","name":"Golo Lobos"},{"id":"5319022014","district_id":"5319022","postal_code":"86583","name":"Bangka Kuleng"},{"id":"5319022015","district_id":"5319022","postal_code":"86583","name":"Bangka Pau"},{"id":"5319022016","district_id":"5319022","postal_code":"86583","name":"Golo Nderu"},{"id":"5319022017","district_id":"5319022","postal_code":"86583","name":"Satar Tesem"},{"id":"5319022018","district_id":"5319022","postal_code":"86583","name":"Gurung Turi"},{"id":"5319022019","district_id":"5319022","postal_code":"86583","name":"Compang Laho"},{"id":"5319022020","district_id":"5319022","postal_code":"86583","name":"Watu Lanur"},{"id":"5319022026","district_id":"5319022","postal_code":"86583","name":"Golo Ndari"},{"id":"5319022029","district_id":"5319022","postal_code":"86583","name":"Compang Wesang"},{"id":"5319022030","district_id":"5319022","postal_code":"86583","name":"Golo Wune"},{"id":"5319022031","district_id":"5319022","postal_code":"86583","name":"Lento"},{"id":"5319022032","district_id":"5319022","postal_code":"86583","name":"Compang Weluk"},{"id":"5319022033","district_id":"5319022","postal_code":"86583","name":"Golo Rengket"},{"id":"5319022037","district_id":"5319022","postal_code":"86583","name":"Deno"}]