[{"id":"5319032001","district_id":"5319032","postal_code":"86582","name":"Tengku Leda"},{"id":"5319032002","district_id":"5319032","postal_code":"86582","name":"Tengku Lawar"},{"id":"5319032003","district_id":"5319032","postal_code":"86582","name":"Goreng Meni"},{"id":"5319032004","district_id":"5319032","postal_code":"86582","name":"Golo Munga"},{"id":"5319032005","district_id":"5319032","postal_code":"86582","name":"Nampar Tabang"},{"id":"5319032006","district_id":"5319032","postal_code":"86582","name":"Satar Punda"},{"id":"5319032007","district_id":"5319032","postal_code":"86582","name":"Golo Mangung"},{"id":"5319032008","district_id":"5319032","postal_code":"86582","name":"Satar Padut"},{"id":"5319032009","district_id":"5319032","postal_code":"86582","name":"Golo Rentung"},{"id":"5319032010","district_id":"5319032","postal_code":"86582","name":"Golo Lembur"},{"id":"5319032011","district_id":"5319032","postal_code":"86582","name":"Compang Necak"},{"id":"5319032012","district_id":"5319032","postal_code":"86582","name":"Lencur"},{"id":"5319032013","district_id":"5319032","postal_code":"86582","name":"Compang Mekar"},{"id":"5319032014","district_id":"5319032","postal_code":"86582","name":"Compang Deru"},{"id":"5319032015","district_id":"5319032","postal_code":"86582","name":"Liang Deruk"},{"id":"5319032016","district_id":"5319032","postal_code":"86582","name":"Golo Nimbung"},{"id":"5319032017","district_id":"5319032","postal_code":"86582","name":"Keli"},{"id":"5319032018","district_id":"5319032","postal_code":"86582","name":"Satar Kampas"},{"id":"5319032019","district_id":"5319032","postal_code":"86582","name":"Haju Wangi"},{"id":"5319032020","district_id":"5319032","postal_code":"86582","name":"Golo Munga Barat"},{"id":"5319032021","district_id":"5319032","postal_code":"86582","name":"Goreng Meni Utara"},{"id":"5319032022","district_id":"5319032","postal_code":"86582","name":"Golo Wontong"},{"id":"5319032023","district_id":"5319032","postal_code":"86582","name":"Golo Paleng"},{"id":"5319032024","district_id":"5319032","postal_code":"86582","name":"Satar Punda Barat"}]