[{"id":"6103112001","district_id":"6103112","postal_code":"78564","name":"Pulau Tayan Utara"},{"id":"6103112002","district_id":"6103112","postal_code":"78564","name":"Kawat"},{"id":"6103112003","district_id":"6103112","postal_code":"78564","name":"Pedalaman"},{"id":"6103112004","district_id":"6103112","postal_code":"78564","name":"Balai Ingin"},{"id":"6103112005","district_id":"6103112","postal_code":"78564","name":"Lalang"},{"id":"6103112006","district_id":"6103112","postal_code":"78564","name":"Cempedak"},{"id":"6103112007","district_id":"6103112","postal_code":"78564","name":"Melugai"},{"id":"6103112008","district_id":"6103112","postal_code":"78564","name":"Emberas"},{"id":"6103112009","district_id":"6103112","postal_code":"78564","name":"Beginjan"},{"id":"6103112010","district_id":"6103112","postal_code":"78564","name":"Sejotang"},{"id":"6103112011","district_id":"6103112","postal_code":"78564","name":"Sebemban"},{"id":"6103112012","district_id":"6103112","postal_code":"78564","name":"Subah"},{"id":"6103112013","district_id":"6103112","postal_code":"78564","name":"Sungai Jaman"},{"id":"6103112014","district_id":"6103112","postal_code":"78564","name":"Tanjung Bunut"},{"id":"6103112015","district_id":"6103112","postal_code":"78564","name":"Tebang Benua"}]