[{"id":"6103012007","district_id":"6103012","postal_code":"78516","name":"Penyeladi"},{"id":"6103012008","district_id":"6103012","postal_code":"78516","name":"Nanga Biang"},{"id":"6103012009","district_id":"6103012","postal_code":"78516","name":"Rambin"},{"id":"6103012010","district_id":"6103012","postal_code":"78516","name":"Entakai"},{"id":"6103012011","district_id":"6103012","postal_code":"78516","name":"Pana"},{"id":"6103012012","district_id":"6103012","postal_code":"78516","name":"Mengkiang"},{"id":"6103012013","district_id":"6103012","postal_code":"78516","name":"Kambong"},{"id":"6103012014","district_id":"6103012","postal_code":"78516","name":"Sungai Mawang"},{"id":"6103012015","district_id":"6103012","postal_code":"78516","name":"Lape"},{"id":"6103012016","district_id":"6103012","postal_code":"78516","name":"Penyelimau"},{"id":"6103012017","district_id":"6103012","postal_code":"78516","name":"Sungai Alai"},{"id":"6103012018","district_id":"6103012","postal_code":"78516","name":"Semerangkai"},{"id":"6103012019","district_id":"6103012","postal_code":"78516","name":"Sungai Batu"},{"id":"6103012020","district_id":"6103012","postal_code":"78516","name":"Sungai Muntik"},{"id":"6103012021","district_id":"6103012","postal_code":"78516","name":"Lintang Kapuas"},{"id":"6103012022","district_id":"6103012","postal_code":"78516","name":"Lintang Pelaman"},{"id":"6103012023","district_id":"6103012","postal_code":"78516","name":"Belangin"},{"id":"6103012024","district_id":"6103012","postal_code":"78516","name":"Penyelimau Jaya"},{"id":"6103012025","district_id":"6103012","postal_code":"78516","name":"Tapang Dulang"},{"id":"6103012026","district_id":"6103012","postal_code":"78516","name":"Botuh Lintang"}]