[{"id":"6104082001","district_id":"6104082","postal_code":"78850","name":"Balai Pinang"},{"id":"6104082002","district_id":"6104082","postal_code":"78850","name":"Semandang Kiri"},{"id":"6104082003","district_id":"6104082","postal_code":"78850","name":"Kualan Hulu"},{"id":"6104082005","district_id":"6104082","postal_code":"78850","name":"Semandang Hulu"},{"id":"6104082006","district_id":"6104082","postal_code":"78850","name":"Merawa"},{"id":"6104082009","district_id":"6104082","postal_code":"78850","name":"Kualan Tengah"},{"id":"6104082010","district_id":"6104082","postal_code":"78850","name":"Kualan Hilir"},{"id":"6104082011","district_id":"6104082","postal_code":"78850","name":"Sekucing Labai"},{"id":"6104082012","district_id":"6104082","postal_code":"78850","name":"Paoh Concong"},{"id":"6104082013","district_id":"6104082","postal_code":"78850","name":"Legong"},{"id":"6104082014","district_id":"6104082","postal_code":"78850","name":"Kenanga"},{"id":"6104082015","district_id":"6104082","postal_code":"78850","name":"Balai Pinang Hulu"},{"id":"6104082016","district_id":"6104082","postal_code":"78850","name":"Sekucing Kualan"},{"id":"6104082017","district_id":"6104082","postal_code":"78850","name":"Labai Hilir"},{"id":"6104082018","district_id":"6104082","postal_code":"78850","name":"Botuh Bosi"}]