[{"id":"6104142001","district_id":"6104142","postal_code":"78876","name":"Periangan"},{"id":"6104142002","district_id":"6104142","postal_code":"78876","name":"Tanggerang"},{"id":"6104142003","district_id":"6104142","postal_code":"78876","name":"Kesuma Jaya"},{"id":"6104142004","district_id":"6104142","postal_code":"78876","name":"Penyarang"},{"id":"6104142005","district_id":"6104142","postal_code":"78876","name":"Biku Sarana"},{"id":"6104142006","district_id":"6104142","postal_code":"78876","name":"Semantun"},{"id":"6104142007","district_id":"6104142","postal_code":"78876","name":"Riam Danau Kanan"},{"id":"6104142008","district_id":"6104142","postal_code":"78876","name":"Limpang"},{"id":"6104142009","district_id":"6104142","postal_code":"78876","name":"Pasir Mayang"},{"id":"6104142010","district_id":"6104142","postal_code":"78876","name":"Tebing Berseri"},{"id":"6104142011","district_id":"6104142","postal_code":"78876","name":"Deranuk"},{"id":"6104142012","district_id":"6104142","postal_code":"78876","name":"Rangga Intan"},{"id":"6104142013","district_id":"6104142","postal_code":"78876","name":"Pangkalan Suka"},{"id":"6104142014","district_id":"6104142","postal_code":"78876","name":"Teluk Runjai"},{"id":"6104142015","district_id":"6104142","postal_code":"78876","name":"Asam Jelai"},{"id":"6104142016","district_id":"6104142","postal_code":"78876","name":"Air Dua"},{"id":"6104142017","district_id":"6104142","postal_code":"78876","name":"Sidahari"},{"id":"6104142018","district_id":"6104142","postal_code":"78876","name":"Kusik Batu Lapu"},{"id":"6104142019","district_id":"6104142","postal_code":"78876","name":"Karang Dangin"},{"id":"6104142020","district_id":"6104142","postal_code":"78876","name":"Perigi"},{"id":"6104142021","district_id":"6104142","postal_code":"78876","name":"Bayam Raya"},{"id":"6104142022","district_id":"6104142","postal_code":"78876","name":"Pangkalan Paket"}]