[{"id":"6105142001","district_id":"6105142","postal_code":"78683","name":"Nanga Serawai"},{"id":"6105142002","district_id":"6105142","postal_code":"78683","name":"Nanga Mentatai"},{"id":"6105142003","district_id":"6105142","postal_code":"78683","name":"Bedaha"},{"id":"6105142004","district_id":"6105142","postal_code":"78683","name":"Begori"},{"id":"6105142005","district_id":"6105142","postal_code":"78683","name":"Pagar Lebata"},{"id":"6105142006","district_id":"6105142","postal_code":"78683","name":"Tontang"},{"id":"6105142007","district_id":"6105142","postal_code":"78683","name":"Karya Jaya"},{"id":"6105142008","district_id":"6105142","postal_code":"78683","name":"Nanga Riyoi"},{"id":"6105142009","district_id":"6105142","postal_code":"78683","name":"Buntut Ponte"},{"id":"6105142010","district_id":"6105142","postal_code":"78683","name":"Nanga Segulang"},{"id":"6105142011","district_id":"6105142","postal_code":"78683","name":"Baras Nabun"},{"id":"6105142012","district_id":"6105142","postal_code":"78683","name":"Nanga Jelundung"},{"id":"6105142013","district_id":"6105142","postal_code":"78683","name":"Tanjung Raya"},{"id":"6105142014","district_id":"6105142","postal_code":"78683","name":"Tahai Permai"},{"id":"6105142015","district_id":"6105142","postal_code":"78683","name":"Merako Jaya"},{"id":"6105142016","district_id":"6105142","postal_code":"78683","name":"Sawang Senghiang"},{"id":"6105142017","district_id":"6105142","postal_code":"78683","name":"Tunas Harapan"},{"id":"6105142018","district_id":"6105142","postal_code":"78683","name":"Teluk Harapan"},{"id":"6105142019","district_id":"6105142","postal_code":"78683","name":"Gurung Senghiang"},{"id":"6105142020","district_id":"6105142","postal_code":"78683","name":"Tanjung Harapan"},{"id":"6105142021","district_id":"6105142","postal_code":"78683","name":"Rantau Malam"},{"id":"6105142022","district_id":"6105142","postal_code":"78683","name":"Mentajoi"},{"id":"6105142023","district_id":"6105142","postal_code":"78683","name":"Nanga Bihe"},{"id":"6105142024","district_id":"6105142","postal_code":"78683","name":"Nanga Tekungai"},{"id":"6105142025","district_id":"6105142","postal_code":"78683","name":"Talian Sahabung"},{"id":"6105142026","district_id":"6105142","postal_code":"78683","name":"Batu Ketebung"},{"id":"6105142027","district_id":"6105142","postal_code":"78683","name":"Muara Kota"},{"id":"6105142028","district_id":"6105142","postal_code":"78683","name":"Mekar Sari"},{"id":"6105142029","district_id":"6105142","postal_code":"78683","name":"Tanjung Baru"},{"id":"6105142030","district_id":"6105142","postal_code":"78683","name":"Nusa Tujuh"},{"id":"6105142031","district_id":"6105142","postal_code":"78683","name":"Nanga Ruhan"},{"id":"6105142032","district_id":"6105142","postal_code":"78683","name":"Meroboi"},{"id":"6105142033","district_id":"6105142","postal_code":"78683","name":"Panekasan"},{"id":"6105142034","district_id":"6105142","postal_code":"78683","name":"Tamakung"},{"id":"6105142035","district_id":"6105142","postal_code":"78683","name":"Limbur Bernaung Lestari"},{"id":"6105142036","district_id":"6105142","postal_code":"78683","name":"Mensulung Bio"},{"id":"6105142037","district_id":"6105142","postal_code":"78683","name":"Sabhang Landan"},{"id":"6105142038","district_id":"6105142","postal_code":"78683","name":"Nanga Tangoi"}]