[{"id":"6105202001","district_id":"6105202","postal_code":"78655","name":"Ransi Dakan"},{"id":"6105202002","district_id":"6105202","postal_code":"78655","name":"Sungai Ukoi"},{"id":"6105202003","district_id":"6105202","postal_code":"78655","name":"Manter"},{"id":"6105202004","district_id":"6105202","postal_code":"78655","name":"Merarai Satu"},{"id":"6105202005","district_id":"6105202","postal_code":"78655","name":"Merarai Dua"},{"id":"6105202006","district_id":"6105202","postal_code":"78655","name":"Kajang Baru"},{"id":"6105202007","district_id":"6105202","postal_code":"78655","name":"Gurung Kempadik"},{"id":"6105202008","district_id":"6105202","postal_code":"78655","name":"Nobal"},{"id":"6105202009","district_id":"6105202","postal_code":"78655","name":"Baya Betung"},{"id":"6105202010","district_id":"6105202","postal_code":"78655","name":"Bonet Engkabang"},{"id":"6105202011","district_id":"6105202","postal_code":"78655","name":"Bonet Lama"},{"id":"6105202012","district_id":"6105202","postal_code":"78655","name":"Bancoh"},{"id":"6105202013","district_id":"6105202","postal_code":"78655","name":"Perembang"},{"id":"6105202014","district_id":"6105202","postal_code":"78655","name":"Solam Raya"},{"id":"6105202015","district_id":"6105202","postal_code":"78655","name":"Lebak Ubah"},{"id":"6105202016","district_id":"6105202","postal_code":"78655","name":"Melayang Sari"},{"id":"6105202017","district_id":"6105202","postal_code":"78655","name":"Sarai"},{"id":"6105202018","district_id":"6105202","postal_code":"78655","name":"Rarai"},{"id":"6105202019","district_id":"6105202","postal_code":"78655","name":"Penjernang"},{"id":"6105202020","district_id":"6105202","postal_code":"78655","name":"Penjernang Hulu"},{"id":"6105202021","district_id":"6105202","postal_code":"78655","name":"Riam Kijang"},{"id":"6105202022","district_id":"6105202","postal_code":"78655","name":"Baya Mulya"},{"id":"6105202023","district_id":"6105202","postal_code":"78655","name":"Laman Raya"},{"id":"6105202024","district_id":"6105202","postal_code":"78655","name":"Sabang Surai"},{"id":"6105202025","district_id":"6105202","postal_code":"78655","name":"Balai Agung"},{"id":"6105202026","district_id":"6105202","postal_code":"78655","name":"Kunyai"}]