[{"id":"6108062001","district_id":"6108062","postal_code":"79360","name":"Darit"},{"id":"6108062002","district_id":"6108062","postal_code":"79360","name":"Mamek"},{"id":"6108062003","district_id":"6108062","postal_code":"79360","name":"Ansang"},{"id":"6108062004","district_id":"6108062","postal_code":"79360","name":"Kayu Ara"},{"id":"6108062005","district_id":"6108062","postal_code":"79360","name":"Angkaras"},{"id":"6108062006","district_id":"6108062","postal_code":"79360","name":"Ladangan"},{"id":"6108062009","district_id":"6108062","postal_code":"79360","name":"Songga"},{"id":"6108062010","district_id":"6108062","postal_code":"79360","name":"Sidan"},{"id":"6108062011","district_id":"6108062","postal_code":"79360","name":"Berinang Mayun"},{"id":"6108062013","district_id":"6108062","postal_code":"79360","name":"Lintah Betung"},{"id":"6108062014","district_id":"6108062","postal_code":"79360","name":"Anik Dingir"},{"id":"6108062015","district_id":"6108062","postal_code":"79360","name":"Bagak"},{"id":"6108062016","district_id":"6108062","postal_code":"79360","name":"Tolok"},{"id":"6108062017","district_id":"6108062","postal_code":"79360","name":"Sungai Lubang"},{"id":"6108062018","district_id":"6108062","postal_code":"79360","name":"Taas"},{"id":"6108062019","district_id":"6108062","postal_code":"79360","name":"Ongkol Padang"}]