[{"id":"6203062001","district_id":"6203062","postal_code":"73592","name":"Saka Lagon"},{"id":"6203062002","district_id":"6203062","postal_code":"73592","name":"Bunga Mawar"},{"id":"6203062003","district_id":"6203062","postal_code":"73592","name":"Sei Tatas"},{"id":"6203062004","district_id":"6203062","postal_code":"73592","name":"Narahan"},{"id":"6203062005","district_id":"6203062","postal_code":"73592","name":"Handiwung"},{"id":"6203062006","district_id":"6203062","postal_code":"73592","name":"Anjir Palambang"},{"id":"6203062007","district_id":"6203062","postal_code":"73592","name":"Palangkai"},{"id":"6203062008","district_id":"6203062","postal_code":"73592","name":"Teluk Palinget"},{"id":"6203062009","district_id":"6203062","postal_code":"73592","name":"Sei Tatas Hilir"},{"id":"6203062010","district_id":"6203062","postal_code":"73592","name":"Mawar Mekar"},{"id":"6203062011","district_id":"6203062","postal_code":"73592","name":"Banama"},{"id":"6203062012","district_id":"6203062","postal_code":"73592","name":"Narahan Baru"}]