[{"id":"6204052001","district_id":"6204052","postal_code":"73753","name":"Baruang"},{"id":"6204052002","district_id":"6204052","postal_code":"73753","name":"Kayumban"},{"id":"6204052003","district_id":"6204052","postal_code":"73753","name":"Tabak Kanilan"},{"id":"6204052004","district_id":"6204052","postal_code":"73753","name":"Sarimbuah"},{"id":"6204052005","district_id":"6204052","postal_code":"73753","name":"Gagutur"},{"id":"6204052006","district_id":"6204052","postal_code":"73753","name":"Muka Haji"},{"id":"6204052007","district_id":"6204052","postal_code":"73753","name":"Sire"},{"id":"6204052008","district_id":"6204052","postal_code":"73753","name":"Muara Singan"},{"id":"6204052009","district_id":"6204052","postal_code":"73753","name":"Patas I"},{"id":"6204052010","district_id":"6204052","postal_code":"73753","name":"Patas Ii"},{"id":"6204052011","district_id":"6204052","postal_code":"73753","name":"Bintang Ara"},{"id":"6204052012","district_id":"6204052","postal_code":"73753","name":"Ugang Sayu"},{"id":"6204052013","district_id":"6204052","postal_code":"73753","name":"Ngurit"},{"id":"6204052014","district_id":"6204052","postal_code":"73753","name":"Wungkur Baru"},{"id":"6204052015","district_id":"6204052","postal_code":"73753","name":"Bipak Kali"},{"id":"6204052016","district_id":"6204052","postal_code":"73753","name":"Malungai Raya"},{"id":"6204052017","district_id":"6204052","postal_code":"73753","name":"Sei Paken"},{"id":"6204052018","district_id":"6204052","postal_code":"73753","name":"Palu Rejo"},{"id":"6204052019","district_id":"6204052","postal_code":"73753","name":"Wayun"},{"id":"6204052020","district_id":"6204052","postal_code":"73753","name":"Marga Jaya"},{"id":"6204052021","district_id":"6204052","postal_code":"73753","name":"Ruhing Raya"}]