[{"id":"6206052001","district_id":"6206052","postal_code":"74454","name":"Tumbang Lahang"},{"id":"6206052002","district_id":"6206052","postal_code":"74454","name":"Tewang Panjang"},{"id":"6206052003","district_id":"6206052","postal_code":"74454","name":"Petak Puti"},{"id":"6206052004","district_id":"6206052","postal_code":"74454","name":"Telok"},{"id":"6206052005","district_id":"6206052","postal_code":"74454","name":"Samba Danum"},{"id":"6206052006","district_id":"6206052","postal_code":"74454","name":"Samba Bakumpai"},{"id":"6206052007","district_id":"6206052","postal_code":"74454","name":"Samba Katung"},{"id":"6206052008","district_id":"6206052","postal_code":"74454","name":"Napu Sahur"},{"id":"6206052010","district_id":"6206052","postal_code":"74454","name":"Batu Badinding"},{"id":"6206052011","district_id":"6206052","postal_code":"74454","name":"Rantau Asem"},{"id":"6206052012","district_id":"6206052","postal_code":"74454","name":"Mirah Kalanaman"},{"id":"6206052013","district_id":"6206052","postal_code":"74454","name":"Tumbang Kalemei"},{"id":"6206052014","district_id":"6206052","postal_code":"74454","name":"Tumbang Marak"},{"id":"6206052015","district_id":"6206052","postal_code":"74454","name":"Tumbang Hangei"},{"id":"6206052016","district_id":"6206052","postal_code":"74454","name":"Tumbang Pariyei"}]