[{"id":"6206072001","district_id":"6206072","postal_code":"74456","name":"Tumbang Mandurei"},{"id":"6206072002","district_id":"6206072","postal_code":"74456","name":"Tumbang Paku"},{"id":"6206072003","district_id":"6206072","postal_code":"74456","name":"Buntut Leleng"},{"id":"6206072004","district_id":"6206072","postal_code":"74456","name":"Kuluk Leleng"},{"id":"6206072005","district_id":"6206072","postal_code":"74456","name":"Sabaung"},{"id":"6206072006","district_id":"6206072","postal_code":"74456","name":"Tumbang Malawan"},{"id":"6206072007","district_id":"6206072","postal_code":"74456","name":"Tumbang Taei"},{"id":"6206072008","district_id":"6206072","postal_code":"74456","name":"Rangan Surai"},{"id":"6206072009","district_id":"6206072","postal_code":"74456","name":"Tumbang Hiran"},{"id":"6206072010","district_id":"6206072","postal_code":"74456","name":"Tumbang Pahanei"},{"id":"6206072011","district_id":"6206072","postal_code":"74456","name":"Tumbang Dakei"},{"id":"6206072012","district_id":"6206072","postal_code":"74456","name":"Rangan Burih"},{"id":"6206072013","district_id":"6206072","postal_code":"74456","name":"Tumbang Bemban"},{"id":"6206072014","district_id":"6206072","postal_code":"74456","name":"Tumbang Lambi"},{"id":"6206072015","district_id":"6206072","postal_code":"74456","name":"Rangan Tangko"},{"id":"6206072016","district_id":"6206072","postal_code":"74456","name":"Tumbang Tundu"},{"id":"6206072017","district_id":"6206072","postal_code":"74456","name":"Batu Panahan"},{"id":"6206072018","district_id":"6206072","postal_code":"74456","name":"Tumbang Tabulus"}]