[{"id":"6209042001","district_id":"6209042","postal_code":"74163","name":"Nanga Palikodan"},{"id":"6209042002","district_id":"6209042","postal_code":"74163","name":"Sungkup"},{"id":"6209042003","district_id":"6209042","postal_code":"74163","name":"Nuangan"},{"id":"6209042004","district_id":"6209042","postal_code":"74163","name":"Nanga Koring"},{"id":"6209042005","district_id":"6209042","postal_code":"74163","name":"Toka"},{"id":"6209042006","district_id":"6209042","postal_code":"74163","name":"Sepondam"},{"id":"6209042007","district_id":"6209042","postal_code":"74163","name":"Merambang"},{"id":"6209042008","district_id":"6209042","postal_code":"74163","name":"Pedongatan"},{"id":"6209042009","district_id":"6209042","postal_code":"74163","name":"Batu Tunggal"},{"id":"6209042010","district_id":"6209042","postal_code":"74163","name":"Nanga Kemujan"},{"id":"6209042011","district_id":"6209042","postal_code":"74163","name":"Bukit Jaya"},{"id":"6209042012","district_id":"6209042","postal_code":"74163","name":"Suka Maju"}]