[{"id":"6211032001","district_id":"6211032","postal_code":"74862","name":"Tanjung Sangalang"},{"id":"6211032002","district_id":"6211032","postal_code":"74862","name":"Penda Barania"},{"id":"6211032003","district_id":"6211032","postal_code":"74862","name":"Bukit Rawi"},{"id":"6211032004","district_id":"6211032","postal_code":"74862","name":"Tuwung"},{"id":"6211032005","district_id":"6211032","postal_code":"74862","name":"Sigi"},{"id":"6211032006","district_id":"6211032","postal_code":"74862","name":"Petuk Liti"},{"id":"6211032007","district_id":"6211032","postal_code":"74862","name":"Bukit Liti"},{"id":"6211032008","district_id":"6211032","postal_code":"74862","name":"Bahu Palawa"},{"id":"6211032009","district_id":"6211032","postal_code":"74862","name":"Pamarunan"},{"id":"6211032010","district_id":"6211032","postal_code":"74862","name":"Balukon"},{"id":"6211032011","district_id":"6211032","postal_code":"74862","name":"Bukit Bamba"},{"id":"6211032012","district_id":"6211032","postal_code":"74862","name":"Tahawa"},{"id":"6211032013","district_id":"6211032","postal_code":"74862","name":"Parahangan"},{"id":"6211032014","district_id":"6211032","postal_code":"74862","name":"Bereng Rambang"}]