[{"id":"6212012001","district_id":"6212012","postal_code":"73911","name":"Dirung"},{"id":"6212012002","district_id":"6212012","postal_code":"73911","name":"Malasan"},{"id":"6212012003","district_id":"6212012","postal_code":"73911","name":"Batu Putih"},{"id":"6212012004","district_id":"6212012","postal_code":"73911","name":"Mangkahui"},{"id":"6212012005","district_id":"6212012","postal_code":"73911","name":"Panuut"},{"id":"6212012006","district_id":"6212012","postal_code":"73911","name":"Muara Untu"},{"id":"6212012007","district_id":"6212012","postal_code":"73911","name":"Muara Jaan"},{"id":"6212012008","district_id":"6212012","postal_code":"73911","name":"Bahitom"},{"id":"6212012009","district_id":"6212012","postal_code":"73911","name":"Danau Usung"},{"id":"6212012010","district_id":"6212012","postal_code":"73911","name":"Juking Pajang"},{"id":"6212012011","district_id":"6212012","postal_code":"73911","name":"Muara Sumpoi"},{"id":"6212012014","district_id":"6212012","postal_code":"73911","name":"Muara Bumban"},{"id":"6212012015","district_id":"6212012","postal_code":"73911","name":"Penyang"}]