[{"id":"6302062009","district_id":"6302062","postal_code":"72114","name":"Megasari"},{"id":"6302062010","district_id":"6302062","postal_code":"72114","name":"Sebelimbingan"},{"id":"6302062011","district_id":"6302062","postal_code":"72114","name":"Stagen"},{"id":"6302062012","district_id":"6302062","postal_code":"72114","name":"Rampa"},{"id":"6302062013","district_id":"6302062","postal_code":"72114","name":"Sungai Taib"},{"id":"6302062014","district_id":"6302062","postal_code":"72117","name":"Semayap"},{"id":"6302062015","district_id":"6302062","postal_code":"72116","name":"Dirgahayu"},{"id":"6302062016","district_id":"6302062","postal_code":"72113","name":"Sebatung"},{"id":"6302062017","district_id":"6302062","postal_code":"72112","name":"Baharu Utara"},{"id":"6302062018","district_id":"6302062","postal_code":"72112","name":"Tirawan"},{"id":"6302062019","district_id":"6302062","postal_code":"72111","name":"Hilir Muara"},{"id":"6302062020","district_id":"6302062","postal_code":"72112","name":"Sigam"},{"id":"6302062021","district_id":"6302062","postal_code":"72114","name":"Sarang Tiung"},{"id":"6302062022","district_id":"6302062","postal_code":"72114","name":"Gunung Ulin"},{"id":"6302062024","district_id":"6302062","postal_code":"72114","name":"Gedambaan"},{"id":"6302062025","district_id":"6302062","postal_code":"72114","name":"Gunung Sari"},{"id":"6302062026","district_id":"6302062","postal_code":"72112","name":"Batuah"}]