[{"id":"6302132002","district_id":"6302132","postal_code":"72169","name":"Bepara"},{"id":"6302132004","district_id":"6302132","postal_code":"72169","name":"Betung"},{"id":"6302132005","district_id":"6302132","postal_code":"72169","name":"Sekayu Baru"},{"id":"6302132006","district_id":"6302132","postal_code":"72169","name":"Bakau"},{"id":"6302132007","district_id":"6302132","postal_code":"72169","name":"Binturung"},{"id":"6302132008","district_id":"6302132","postal_code":"72169","name":"Harapan Baru"},{"id":"6302132009","district_id":"6302132","postal_code":"72169","name":"Balaimea"},{"id":"6302132010","district_id":"6302132","postal_code":"72169","name":"Tamiang"},{"id":"6302132011","district_id":"6302132","postal_code":"72169","name":"Kalian"},{"id":"6302132012","district_id":"6302132","postal_code":"72169","name":"Mulyoharjo"},{"id":"6302132013","district_id":"6302132","postal_code":"72169","name":"Pamukan Indah"},{"id":"6302132014","district_id":"6302132","postal_code":"72169","name":"Wonorejo"},{"id":"6302132015","district_id":"6302132","postal_code":"72169","name":"Lintang Jaya"}]