[{"id":"6303062001","district_id":"6303062","postal_code":"70661","name":"Kiram"},{"id":"6303062002","district_id":"6303062","postal_code":"70661","name":"Mandiangin Barat"},{"id":"6303062003","district_id":"6303062","postal_code":"70661","name":"Karang Intan"},{"id":"6303062004","district_id":"6303062","postal_code":"70661","name":"Pandak Daun"},{"id":"6303062005","district_id":"6303062","postal_code":"70661","name":"Jingah Habang Hulu"},{"id":"6303062006","district_id":"6303062","postal_code":"70661","name":"Mali Mali"},{"id":"6303062007","district_id":"6303062","postal_code":"70661","name":"Lok Tangga"},{"id":"6303062008","district_id":"6303062","postal_code":"70661","name":"Lihung"},{"id":"6303062009","district_id":"6303062","postal_code":"70661","name":"Bi Ih"},{"id":"6303062010","district_id":"6303062","postal_code":"70661","name":"Penyambaran"},{"id":"6303062011","district_id":"6303062","postal_code":"70661","name":"Sungai Alang"},{"id":"6303062012","district_id":"6303062","postal_code":"70661","name":"Sungai Asam"},{"id":"6303062013","district_id":"6303062","postal_code":"70661","name":"Mandikapau Timur"},{"id":"6303062014","district_id":"6303062","postal_code":"70661","name":"Awang Bangkal Barat"},{"id":"6303062015","district_id":"6303062","postal_code":"70661","name":"Awang Bangkal Timur"},{"id":"6303062016","district_id":"6303062","postal_code":"70661","name":"Sungai Besar"},{"id":"6303062017","district_id":"6303062","postal_code":"70661","name":"Mandiangin Timur"},{"id":"6303062018","district_id":"6303062","postal_code":"70661","name":"Pasar Lama"},{"id":"6303062019","district_id":"6303062","postal_code":"70661","name":"Jingah Habang Ilir"},{"id":"6303062020","district_id":"6303062","postal_code":"70661","name":"Sungai Arfat"},{"id":"6303062021","district_id":"6303062","postal_code":"70661","name":"Padang Panjang"},{"id":"6303062022","district_id":"6303062","postal_code":"70661","name":"Sungai Landas"},{"id":"6303062023","district_id":"6303062","postal_code":"70661","name":"Abirau"},{"id":"6303062024","district_id":"6303062","postal_code":"70661","name":"Pulau Nyiur"},{"id":"6303062025","district_id":"6303062","postal_code":"70661","name":"Mandi Kapau Barat"},{"id":"6303062026","district_id":"6303062","postal_code":"70661","name":"Balau"}]