[{"id":"6303092001","district_id":"6303092","postal_code":"70674","name":"Maniapun"},{"id":"6303092002","district_id":"6303092","postal_code":"70674","name":"Lok Tunggul"},{"id":"6303092003","district_id":"6303092","postal_code":"70674","name":"Lobang Baru"},{"id":"6303092004","district_id":"6303092","postal_code":"70674","name":"Pengaron"},{"id":"6303092005","district_id":"6303092","postal_code":"70674","name":"Benteng"},{"id":"6303092006","district_id":"6303092","postal_code":"70674","name":"Atiim"},{"id":"6303092007","district_id":"6303092","postal_code":"70674","name":"Alimukim"},{"id":"6303092008","district_id":"6303092","postal_code":"70674","name":"Panyiuran"},{"id":"6303092009","district_id":"6303092","postal_code":"70674","name":"Antaraku"},{"id":"6303092010","district_id":"6303092","postal_code":"70674","name":"Mangkauk"},{"id":"6303092015","district_id":"6303092","postal_code":"70674","name":"Kertak Empat"},{"id":"6303092018","district_id":"6303092","postal_code":"70674","name":"Lumpangi"}]