[{"id":"6305042005","district_id":"6305042","postal_code":"71114","name":"Keramat"},{"id":"6305042006","district_id":"6305042","postal_code":"71114","name":"Antasari"},{"id":"6305042007","district_id":"6305042","postal_code":"0","name":"Jingah Babaris"},{"id":"6305042008","district_id":"6305042","postal_code":"71114","name":"Banua Hanyar"},{"id":"6305042009","district_id":"6305042","postal_code":"71114","name":"Banua Halat Kiri"},{"id":"6305042010","district_id":"6305042","postal_code":"71114","name":"Banua Halat Kanan"},{"id":"6305042011","district_id":"6305042","postal_code":"71114","name":"Perintis Raya"},{"id":"6305042012","district_id":"6305042","postal_code":"71114","name":"Kakaran"},{"id":"6305042013","district_id":"6305042","postal_code":"71114","name":"Antasan Hilir"},{"id":"6305042014","district_id":"6305042","postal_code":"71114","name":"Lumbu Raya"},{"id":"6305042015","district_id":"6305042","postal_code":"71114","name":"Banua Halar Hulu"},{"id":"6305042016","district_id":"6305042","postal_code":"71114","name":"Badaun"}]