[{"id":"6305062001","district_id":"6305062","postal_code":"71171","name":"Keladan"},{"id":"6305062002","district_id":"6305062","postal_code":"71171","name":"Sungai Selai"},{"id":"6305062003","district_id":"6305062","postal_code":"71171","name":"Pariok"},{"id":"6305062004","district_id":"6305062","postal_code":"71171","name":"Margasari Hilir"},{"id":"6305062005","district_id":"6305062","postal_code":"71171","name":"Batalas"},{"id":"6305062006","district_id":"6305062","postal_code":"71171","name":"Rawana"},{"id":"6305062007","district_id":"6305062","postal_code":"71171","name":"Buas-buas"},{"id":"6305062008","district_id":"6305062","postal_code":"71171","name":"Teluk Haur"},{"id":"6305062009","district_id":"6305062","postal_code":"71171","name":"Sungai Puting"},{"id":"6305062010","district_id":"6305062","postal_code":"71171","name":"Sawaja"},{"id":"6305062011","district_id":"6305062","postal_code":"71171","name":"Sungai Selai Hilir"},{"id":"6305062012","district_id":"6305062","postal_code":"71171","name":"Buas-buas Hilir"},{"id":"6305062013","district_id":"6305062","postal_code":"71171","name":"Rawana Hulu"}]