[{"id":"6306052005","district_id":"6306052","postal_code":"71216","name":"Gambah Luar"},{"id":"6306052006","district_id":"6306052","postal_code":"71216","name":"Gambah Luar Muka"},{"id":"6306052007","district_id":"6306052","postal_code":"71215","name":"Gambah Dalam"},{"id":"6306052008","district_id":"6306052","postal_code":"71215","name":"Gambah Dalam Barat"},{"id":"6306052009","district_id":"6306052","postal_code":"71217","name":"Sungai Kupang"},{"id":"6306052010","district_id":"6306052","postal_code":"71217","name":"Bangkau"},{"id":"6306052011","district_id":"6306052","postal_code":"71213","name":"Lungau"},{"id":"6306052012","district_id":"6306052","postal_code":"71213","name":"Sungai Paring"},{"id":"6306052013","district_id":"6306052","postal_code":"71213","name":"Bariang"},{"id":"6306052014","district_id":"6306052","postal_code":"71213","name":"Amawang Kiri"},{"id":"6306052015","district_id":"6306052","postal_code":"71213","name":"Amawang Kiri Muka"},{"id":"6306052016","district_id":"6306052","postal_code":"71213","name":"Amawang Kanan"},{"id":"6306052017","district_id":"6306052","postal_code":"71214","name":"Tibung Raya"},{"id":"6306052018","district_id":"6306052","postal_code":"71217","name":"Baluti"}]