[{"id":"6311082001","district_id":"6311082","postal_code":"71667","name":"Dayak Pitap"},{"id":"6311082002","district_id":"6311082","postal_code":"71667","name":"Tebing Tinggi"},{"id":"6311082003","district_id":"6311082","postal_code":"71667","name":"Sungsum"},{"id":"6311082004","district_id":"6311082","postal_code":"71667","name":"Juuh"},{"id":"6311082005","district_id":"6311082","postal_code":"71667","name":"Mayanau"},{"id":"6311082006","district_id":"6311082","postal_code":"71667","name":"Simpang Bumbuan"},{"id":"6311082007","district_id":"6311082","postal_code":"71667","name":"Auh"},{"id":"6311082008","district_id":"6311082","postal_code":"71667","name":"Gunung Batu"},{"id":"6311082009","district_id":"6311082","postal_code":"71667","name":"Langkap"},{"id":"6311082010","district_id":"6311082","postal_code":"71667","name":"Simpang Nadong"},{"id":"6311082011","district_id":"6311082","postal_code":"71667","name":"Ajung"},{"id":"6311082012","district_id":"6311082","postal_code":"71667","name":"Kambiyain"}]