[{"id":"6402022001","district_id":"6402022","postal_code":"75571","name":"Jonggon Desa"},{"id":"6402022002","district_id":"6402022","postal_code":"75571","name":"Sungai Payang"},{"id":"6402022003","district_id":"6402022","postal_code":"75571","name":"Jembayan"},{"id":"6402022004","district_id":"6402022","postal_code":"75571","name":"Loa Kulu Kota"},{"id":"6402022005","district_id":"6402022","postal_code":"75571","name":"Loh Sumber"},{"id":"6402022006","district_id":"6402022","postal_code":"75571","name":"Ponoragan"},{"id":"6402022007","district_id":"6402022","postal_code":"75571","name":"Rempanga"},{"id":"6402022008","district_id":"6402022","postal_code":"75571","name":"Margahayu"},{"id":"6402022009","district_id":"6402022","postal_code":"75571","name":"Karya Utama"},{"id":"6402022010","district_id":"6402022","postal_code":"75571","name":"Lung Anai"},{"id":"6402022011","district_id":"6402022","postal_code":"0","name":"Jembayan Tengah"},{"id":"6402022012","district_id":"6402022","postal_code":"75571","name":"Jembayan Dalam"},{"id":"6402022013","district_id":"6402022","postal_code":"75571","name":"Sepakat"},{"id":"6402022014","district_id":"6402022","postal_code":"75571","name":"Sumber Sari"},{"id":"6402022015","district_id":"6402022","postal_code":"75571","name":"Jongkang"}]