[{"id":"6402061001","district_id":"6402061","postal_code":"75511","name":"Jahab"},{"id":"6402061002","district_id":"6402061","postal_code":"75513","name":"Loa Ipuh"},{"id":"6402061003","district_id":"6402061","postal_code":"75511","name":"Bukit Biru"},{"id":"6402061004","district_id":"6402061","postal_code":"75511","name":"Timbau"},{"id":"6402061005","district_id":"6402061","postal_code":"75512","name":"Melayu"},{"id":"6402061006","district_id":"6402061","postal_code":"75514","name":"Panji"},{"id":"6402061007","district_id":"6402061","postal_code":"75515","name":"Sukarame"},{"id":"6402061008","district_id":"6402061","postal_code":"75511","name":"Kampung Baru"},{"id":"6402061009","district_id":"6402061","postal_code":"75511","name":"Loa Tebu"},{"id":"6402061010","district_id":"6402061","postal_code":"75517","name":"Mangkurawang"},{"id":"6402061011","district_id":"6402061","postal_code":"75511","name":"Maluhu"},{"id":"6402061013","district_id":"6402061","postal_code":"75511","name":"Loa Ipuh Darat"}]