[{"id":"6407102015","district_id":"6407102","postal_code":"75774","name":"Jerang Dayak"},{"id":"6407102016","district_id":"6407102","postal_code":"75774","name":"Mendung"},{"id":"6407102017","district_id":"6407102","postal_code":"75774","name":"Jerang Melayu"},{"id":"6407102018","district_id":"6407102","postal_code":"75774","name":"Dasaq"},{"id":"6407102020","district_id":"6407102","postal_code":"75774","name":"Tepian Ulaq"},{"id":"6407102021","district_id":"6407102","postal_code":"75774","name":"Sebelang"},{"id":"6407102022","district_id":"6407102","postal_code":"75774","name":"Muara Baroh"},{"id":"6407102023","district_id":"6407102","postal_code":"75774","name":"Teluk Tempudau"},{"id":"6407102024","district_id":"6407102","postal_code":"75774","name":"Tanjung Laong"},{"id":"6407102025","district_id":"6407102","postal_code":"75774","name":"Tanjung Pagar"},{"id":"6407102029","district_id":"6407102","postal_code":"75774","name":"Gunung Bayan"},{"id":"6407102030","district_id":"6407102","postal_code":"75774","name":"Muara Beloan"}]