[{"id":"6503192001","district_id":"6503192","postal_code":"77455","name":"Pa"},{"id":"6503192002","district_id":"6503192","postal_code":"77455","name":"Long Puak"},{"id":"6503192003","district_id":"6503192","postal_code":"77455","name":"Long Mangan"},{"id":"6503192004","district_id":"6503192","postal_code":"77455","name":"Buduk Kubul"},{"id":"6503192005","district_id":"6503192","postal_code":"77455","name":"Long Kabid"},{"id":"6503192006","district_id":"6503192","postal_code":"77455","name":"Pa"},{"id":"6503192007","district_id":"6503192","postal_code":"77455","name":"Lembudud"},{"id":"6503192008","district_id":"6503192","postal_code":"77455","name":"Long Tugul"},{"id":"6503192009","district_id":"6503192","postal_code":"77455","name":"Pa"},{"id":"6503192010","district_id":"6503192","postal_code":"77455","name":"Pa"},{"id":"6503192011","district_id":"6503192","postal_code":"77455","name":"Pa"},{"id":"6503192012","district_id":"6503192","postal_code":"77455","name":"Pa"},{"id":"6503192013","district_id":"6503192","postal_code":"77455","name":"Pa"},{"id":"6503192014","district_id":"6503192","postal_code":"77455","name":"Lembada"},{"id":"6503192015","district_id":"6503192","postal_code":"77455","name":"Pa"},{"id":"6503192016","district_id":"6503192","postal_code":"77455","name":"Pa"},{"id":"6503192017","district_id":"6503192","postal_code":"77455","name":"Liang Aliq"},{"id":"6503192018","district_id":"6503192","postal_code":"77455","name":"Sembudud"},{"id":"6503192019","district_id":"6503192","postal_code":"77455","name":"Liang Turan"},{"id":"6503192020","district_id":"6503192","postal_code":"77455","name":"Liang Bua"},{"id":"6503192021","district_id":"6503192","postal_code":"77455","name":"Lepatar"},{"id":"6503192022","district_id":"6503192","postal_code":"77455","name":"Pa"},{"id":"6503192023","district_id":"6503192","postal_code":"77455","name":"Pa"},{"id":"6503192024","district_id":"6503192","postal_code":"77455","name":"Pa"},{"id":"6503192025","district_id":"6503192","postal_code":"77455","name":"Ma"}]