[{"id":"6503072001","district_id":"6503072","postal_code":"77454","name":"Long Pasia"},{"id":"6503072002","district_id":"6503072","postal_code":"77454","name":"Liang Lunuk"},{"id":"6503072003","district_id":"6503072","postal_code":"77454","name":"Pa"},{"id":"6503072004","district_id":"6503072","postal_code":"77454","name":"Pa"},{"id":"6503072005","district_id":"6503072","postal_code":"77454","name":"Pa"},{"id":"6503072006","district_id":"6503072","postal_code":"77454","name":"Pa"},{"id":"6503072007","district_id":"6503072","postal_code":"77454","name":"Pa"},{"id":"6503072009","district_id":"6503072","postal_code":"77454","name":"Pa"},{"id":"6503072010","district_id":"6503072","postal_code":"77454","name":"Long Birar"},{"id":"6503072011","district_id":"6503072","postal_code":"77454","name":"Pa"},{"id":"6503072016","district_id":"6503072","postal_code":"77454","name":"Long Budung"},{"id":"6503072018","district_id":"6503072","postal_code":"77454","name":"Long Pupung"},{"id":"6503072020","district_id":"6503072","postal_code":"77454","name":"Pa"}]