[{"id":"6503152001","district_id":"6503152","postal_code":"77450","name":"Payang"},{"id":"6503152002","district_id":"6503152","postal_code":"77450","name":"Suyadon"},{"id":"6503152003","district_id":"6503152","postal_code":"77450","name":"Bulu Mengolom"},{"id":"6503152004","district_id":"6503152","postal_code":"77450","name":"Tukulon"},{"id":"6503152005","district_id":"6503152","postal_code":"77450","name":"Ubol Sulok"},{"id":"6503152006","district_id":"6503152","postal_code":"77450","name":"Batung"},{"id":"6503152007","district_id":"6503152","postal_code":"77450","name":"Ubol Alung"},{"id":"6503152008","district_id":"6503152","postal_code":"77450","name":"Nansapan"},{"id":"6503152009","district_id":"6503152","postal_code":"77450","name":"Samunti"},{"id":"6503152010","district_id":"6503152","postal_code":"77450","name":"Semata"},{"id":"6503152011","district_id":"6503152","postal_code":"77450","name":"Sungoi"},{"id":"6503152012","district_id":"6503152","postal_code":"77450","name":"Salan"},{"id":"6503152013","district_id":"6503152","postal_code":"77450","name":"Sinampila I"},{"id":"6503152014","district_id":"6503152","postal_code":"77450","name":"Paluan"},{"id":"6503152015","district_id":"6503152","postal_code":"77450","name":"Sedalit"},{"id":"6503152016","district_id":"6503152","postal_code":"77450","name":"Tambalang Hilir"},{"id":"6503152017","district_id":"6503152","postal_code":"77450","name":"Tadungus"},{"id":"6503152018","district_id":"6503152","postal_code":"77450","name":"Sinampila Ii"},{"id":"6503152019","district_id":"6503152","postal_code":"77450","name":"Kalambuku"},{"id":"6503152020","district_id":"6503152","postal_code":"77450","name":"Jukup"},{"id":"6503152021","district_id":"6503152","postal_code":"77450","name":"Long Bulu"},{"id":"6503152022","district_id":"6503152","postal_code":"77450","name":"Sumentobol"},{"id":"6503152023","district_id":"6503152","postal_code":"77450","name":"Linsayung"},{"id":"6503152024","district_id":"6503152","postal_code":"77450","name":"Tumantalas"},{"id":"6503152025","district_id":"6503152","postal_code":"77450","name":"Sanal"},{"id":"6503152026","district_id":"6503152","postal_code":"77450","name":"Limpakon"},{"id":"6503152027","district_id":"6503152","postal_code":"77450","name":"Labuk"},{"id":"6503152028","district_id":"6503152","postal_code":"77450","name":"Nantukidan"},{"id":"6503152029","district_id":"6503152","postal_code":"77450","name":"Labang"},{"id":"6503152030","district_id":"6503152","postal_code":"77450","name":"Sumantipal"},{"id":"6503152031","district_id":"6503152","postal_code":"77450","name":"Ngawol"},{"id":"6503152032","district_id":"6503152","postal_code":"77450","name":"Bululaun Hilir"},{"id":"6503152033","district_id":"6503152","postal_code":"77450","name":"Lagas"},{"id":"6503152034","district_id":"6503152","postal_code":"77450","name":"Panas"},{"id":"6503152035","district_id":"6503152","postal_code":"77450","name":"Langgason"},{"id":"6503152036","district_id":"6503152","postal_code":"77450","name":"Tambalang Hulu"},{"id":"6503152037","district_id":"6503152","postal_code":"77450","name":"Kuyo"},{"id":"6503152038","district_id":"6503152","postal_code":"77450","name":"Bokok"},{"id":"6503152039","district_id":"6503152","postal_code":"77450","name":"Tau Lumbis"},{"id":"6503152040","district_id":"6503152","postal_code":"77450","name":"Bululaun Hulu"},{"id":"6503152041","district_id":"6503152","postal_code":"77450","name":"Kalisun"},{"id":"6503152042","district_id":"6503152","postal_code":"77450","name":"Mamasin"},{"id":"6503152043","district_id":"6503152","postal_code":"77450","name":"Sibalu"},{"id":"6503152044","district_id":"6503152","postal_code":"77450","name":"Duyan"},{"id":"6503152045","district_id":"6503152","postal_code":"77450","name":"Tuntulibing"},{"id":"6503152046","district_id":"6503152","postal_code":"77450","name":"Tetagas"},{"id":"6503152047","district_id":"6503152","postal_code":"77450","name":"Kabungolor"},{"id":"6503152048","district_id":"6503152","postal_code":"77450","name":"Lipaga"},{"id":"6503152049","district_id":"6503152","postal_code":"77450","name":"Tantalujuk"}]