[{"id":"7101332001","district_id":"7101332","postal_code":"95733","name":"Serasi"},{"id":"7101332002","district_id":"7101332","postal_code":"95733","name":"Kanaan"},{"id":"7101332003","district_id":"7101332","postal_code":"95733","name":"Toruakat"},{"id":"7101332004","district_id":"7101332","postal_code":"95733","name":"Pusian"},{"id":"7101332005","district_id":"7101332","postal_code":"95733","name":"Ponompiaan"},{"id":"7101332006","district_id":"7101332","postal_code":"95733","name":"Mototabian"},{"id":"7101332007","district_id":"7101332","postal_code":"95733","name":"Bumbungon"},{"id":"7101332008","district_id":"7101332","postal_code":"95733","name":"Siniyung"},{"id":"7101332009","district_id":"7101332","postal_code":"95733","name":"Siniyung Satu"},{"id":"7101332010","district_id":"7101332","postal_code":"95733","name":"Dumoga Satu"},{"id":"7101332011","district_id":"7101332","postal_code":"95733","name":"Pusian Selatan"},{"id":"7101332012","district_id":"7101332","postal_code":"95733","name":"Pusian Barat"}]