[{"id":"7103152001","district_id":"7103152","postal_code":"95858","name":"Simueng"},{"id":"7103152002","district_id":"7103152","postal_code":"95858","name":"Bentung"},{"id":"7103152003","district_id":"7103152","postal_code":"95858","name":"Lesabe"},{"id":"7103152004","district_id":"7103152","postal_code":"95858","name":"Malammenggu"},{"id":"7103152005","district_id":"7103152","postal_code":"95858","name":"Palareng"},{"id":"7103152007","district_id":"7103152","postal_code":"95858","name":"Binebas"},{"id":"7103152008","district_id":"7103152","postal_code":"95858","name":"Mandoi"},{"id":"7103152015","district_id":"7103152","postal_code":"95858","name":"Batuwingkung"},{"id":"7103152016","district_id":"7103152","postal_code":"95858","name":"Birahi"},{"id":"7103152017","district_id":"7103152","postal_code":"95858","name":"Laotongan"},{"id":"7103152018","district_id":"7103152","postal_code":"95858","name":"Bukide"},{"id":"7103152019","district_id":"7103152","postal_code":"95858","name":"Kalagheng"},{"id":"7103152020","district_id":"7103152","postal_code":"95858","name":"Lesabe I"},{"id":"7103152021","district_id":"7103152","postal_code":"95858","name":"Bulo"}]