[{"id":"7105082001","district_id":"7105082","postal_code":"95959","name":"Blongko"},{"id":"7105082002","district_id":"7105082","postal_code":"95959","name":"Boyongpante"},{"id":"7105082003","district_id":"7105082","postal_code":"95959","name":"Tiniawangko"},{"id":"7105082004","district_id":"7105082","postal_code":"95959","name":"Ongkaw I"},{"id":"7105082005","district_id":"7105082","postal_code":"95959","name":"Ongkaw Ii"},{"id":"7105082006","district_id":"7105082","postal_code":"95959","name":"Aergale"},{"id":"7105082007","district_id":"7105082","postal_code":"95959","name":"Poigar I"},{"id":"7105082008","district_id":"7105082","postal_code":"95959","name":"Poigar Ii"},{"id":"7105082009","district_id":"7105082","postal_code":"95959","name":"Durian"},{"id":"7105082010","district_id":"7105082","postal_code":"95959","name":"Tanamon"},{"id":"7105082011","district_id":"7105082","postal_code":"95959","name":"Ongkaw Tiga"},{"id":"7105082012","district_id":"7105082","postal_code":"95959","name":"Boyongpante Dua"},{"id":"7105082013","district_id":"7105082","postal_code":"95959","name":"Tanamon Utara"}]