[{"id":"7106042001","district_id":"7106042","postal_code":"95376","name":"Tiwoho"},{"id":"7106042002","district_id":"7106042","postal_code":"95376","name":"Wori"},{"id":"7106042003","district_id":"7106042","postal_code":"95376","name":"Kima Bajo"},{"id":"7106042004","district_id":"7106042","postal_code":"95376","name":"Talawaan Bantik"},{"id":"7106042005","district_id":"7106042","postal_code":"95376","name":"Talawaan Atas"},{"id":"7106042006","district_id":"7106042","postal_code":"95376","name":"Budo"},{"id":"7106042007","district_id":"7106042","postal_code":"95376","name":"Darunu"},{"id":"7106042008","district_id":"7106042","postal_code":"95376","name":"Mantehage Iii Tinongko"},{"id":"7106042009","district_id":"7106042","postal_code":"95376","name":"Nain"},{"id":"7106042010","district_id":"7106042","postal_code":"95376","name":"Mantehage\/buhias"},{"id":"7106042011","district_id":"7106042","postal_code":"95376","name":"Mantehage\/bango"},{"id":"7106042012","district_id":"7106042","postal_code":"95376","name":"Mantehage Ii Tangkasi"},{"id":"7106042013","district_id":"7106042","postal_code":"95376","name":"Kulu"},{"id":"7106042014","district_id":"7106042","postal_code":"95376","name":"Bulo"},{"id":"7106042015","district_id":"7106042","postal_code":"95376","name":"Lansa"},{"id":"7106042016","district_id":"7106042","postal_code":"95376","name":"Lantung"},{"id":"7106042017","district_id":"7106042","postal_code":"95376","name":"Pontoh"},{"id":"7106042018","district_id":"7106042","postal_code":"95376","name":"Minaesa"},{"id":"7106042019","district_id":"7106042","postal_code":"95376","name":"Nain Tatampi"},{"id":"7106042020","district_id":"7106042","postal_code":"95376","name":"Nain Satu"}]