[{"id":"7107042001","district_id":"7107042","postal_code":"95999","name":"Ratatotok Satu"},{"id":"7107042002","district_id":"7107042","postal_code":"95999","name":"Ratatotok Dua"},{"id":"7107042003","district_id":"7107042","postal_code":"95999","name":"Ratatotok Selatan"},{"id":"7107042004","district_id":"7107042","postal_code":"95999","name":"Ratatotok Timur"},{"id":"7107042005","district_id":"7107042","postal_code":"95999","name":"Basaan"},{"id":"7107042006","district_id":"7107042","postal_code":"95999","name":"Basaan Satu"},{"id":"7107042007","district_id":"7107042","postal_code":"95999","name":"Morea"},{"id":"7107042008","district_id":"7107042","postal_code":"95999","name":"Morea Satu"},{"id":"7107042009","district_id":"7107042","postal_code":"95999","name":"Soyoan"},{"id":"7107042010","district_id":"7107042","postal_code":"95999","name":"Basaan Dua"},{"id":"7107042011","district_id":"7107042","postal_code":"95999","name":"Ratatotok Utara"},{"id":"7107042012","district_id":"7107042","postal_code":"95999","name":"Ratatotok Tenggara"},{"id":"7107042013","district_id":"7107042","postal_code":"95999","name":"Ratatotok Tengah"},{"id":"7107042014","district_id":"7107042","postal_code":"95999","name":"Ratatotok"},{"id":"7107042015","district_id":"7107042","postal_code":"95999","name":"Ratatotok Muara"}]