[{"id":"7201112001","district_id":"7201112","postal_code":"94723","name":"Kayutanyo"},{"id":"7201112002","district_id":"7201112","postal_code":"94723","name":"Pohi"},{"id":"7201112003","district_id":"7201112","postal_code":"94723","name":"Hunduhon"},{"id":"7201112004","district_id":"7201112","postal_code":"94723","name":"Baya"},{"id":"7201112005","district_id":"7201112","postal_code":"94723","name":"Uwedikan"},{"id":"7201112006","district_id":"7201112","postal_code":"0","name":"Bantayan"},{"id":"7201112007","district_id":"7201112","postal_code":"94723","name":"Lauwon"},{"id":"7201112008","district_id":"7201112","postal_code":"94723","name":"Boitan"},{"id":"7201112009","district_id":"7201112","postal_code":"94723","name":"Molino"},{"id":"7201112010","district_id":"7201112","postal_code":"94723","name":"Louk"},{"id":"7201112011","district_id":"7201112","postal_code":"94723","name":"Lontos"},{"id":"7201112012","district_id":"7201112","postal_code":"94723","name":"Indang Sari"},{"id":"7201112013","district_id":"7201112","postal_code":"94723","name":"Bukit Mulya"}]