[{"id":"7203112001","district_id":"7203112","postal_code":"94354","name":"Ombo"},{"id":"7203112002","district_id":"7203112","postal_code":"94354","name":"Tondo"},{"id":"7203112003","district_id":"7203112","postal_code":"94354","name":"Jonooge"},{"id":"7203112004","district_id":"7203112","postal_code":"94354","name":"Dampal"},{"id":"7203112005","district_id":"7203112","postal_code":"94354","name":"Sipi"},{"id":"7203112006","district_id":"7203112","postal_code":"94354","name":"Tanjung Padang"},{"id":"7203112007","district_id":"7203112","postal_code":"94354","name":"Balintuma"},{"id":"7203112008","district_id":"7203112","postal_code":"94354","name":"Sibado"},{"id":"7203112009","district_id":"7203112","postal_code":"94354","name":"Tompe"},{"id":"7203112010","district_id":"7203112","postal_code":"94354","name":"Lompio"},{"id":"7203112011","district_id":"7203112","postal_code":"94354","name":"Lende"},{"id":"7203112012","district_id":"7203112","postal_code":"94354","name":"Lende Tovea"},{"id":"7203112013","district_id":"7203112","postal_code":"94354","name":"Ujumbou."}]