[{"id":"7204022001","district_id":"7204022","postal_code":"94553","name":"Banagan"},{"id":"7204022002","district_id":"7204022","postal_code":"94553","name":"Kabinuang"},{"id":"7204022003","district_id":"7204022","postal_code":"94553","name":"Ogotua"},{"id":"7204022004","district_id":"7204022","postal_code":"94553","name":"Tompoh"},{"id":"7204022005","district_id":"7204022","postal_code":"94553","name":"Bambapula"},{"id":"7204022006","district_id":"7204022","postal_code":"94553","name":"Malambigu"},{"id":"7204022007","district_id":"7204022","postal_code":"94553","name":"Simatang Tanjung"},{"id":"7204022008","district_id":"7204022","postal_code":"94553","name":"Simatang Utara"},{"id":"7204022009","district_id":"7204022","postal_code":"94553","name":"Sese"},{"id":"7204022010","district_id":"7204022","postal_code":"94553","name":"Ogolali"},{"id":"7204022011","district_id":"7204022","postal_code":"94553","name":"Balaroa"},{"id":"7204022012","district_id":"7204022","postal_code":"94553","name":"Stadong"}]