[{"id":"7206102001","district_id":"7206102","postal_code":"94974","name":"Bete-bete"},{"id":"7206102002","district_id":"7206102","postal_code":"94974","name":"Padabahao"},{"id":"7206102003","district_id":"7206102","postal_code":"94974","name":"Labota"},{"id":"7206102004","district_id":"7206102","postal_code":"94974","name":"Fatufia"},{"id":"7206102005","district_id":"7206102","postal_code":"94974","name":"Keurea"},{"id":"7206102006","district_id":"7206102","postal_code":"94974","name":"Bahodopi"},{"id":"7206102007","district_id":"7206102","postal_code":"94974","name":"Lalampu"},{"id":"7206102008","district_id":"7206102","postal_code":"94974","name":"Siumbatu"},{"id":"7206102009","district_id":"7206102","postal_code":"94974","name":"Dampala"},{"id":"7206102010","district_id":"7206102","postal_code":"94974","name":"Le-le"},{"id":"7206102011","district_id":"7206102","postal_code":"94974","name":"Baho Makmur"},{"id":"7206102012","district_id":"7206102","postal_code":"94974","name":"Makartijaya"}]