[{"id":"7207092001","district_id":"7207092","postal_code":"94882","name":"Bonepuso"},{"id":"7207092002","district_id":"7207092","postal_code":"94882","name":"Palabatu Ii"},{"id":"7207092003","district_id":"7207092","postal_code":"94882","name":"Tatarandang"},{"id":"7207092004","district_id":"7207092","postal_code":"94882","name":"Pandaluk"},{"id":"7207092005","district_id":"7207092","postal_code":"94882","name":"Osan"},{"id":"7207092006","district_id":"7207092","postal_code":"94882","name":"Balalon"},{"id":"7207092007","district_id":"7207092","postal_code":"94882","name":"Sabelak"},{"id":"7207092008","district_id":"7207092","postal_code":"94882","name":"Suit"},{"id":"7207092009","district_id":"7207092","postal_code":"94882","name":"Lolantang"},{"id":"7207092010","district_id":"7207092","postal_code":"94882","name":"Toi-toi"},{"id":"7207092011","district_id":"7207092","postal_code":"94882","name":"Palabatu I"},{"id":"7207092012","district_id":"7207092","postal_code":"94882","name":"Mangais"},{"id":"7207092013","district_id":"7207092","postal_code":"94882","name":"Unu"},{"id":"7207092014","district_id":"7207092","postal_code":"94882","name":"Lemelu"},{"id":"7207092015","district_id":"7207092","postal_code":"94882","name":"Babang"},{"id":"7207092016","district_id":"7207092","postal_code":"94882","name":"Momotan"},{"id":"7207092017","district_id":"7207092","postal_code":"94882","name":"Boluni"},{"id":"7207092018","district_id":"7207092","postal_code":"94882","name":"Labotankandi"},{"id":"7207092019","district_id":"7207092","postal_code":"94882","name":"Alasan Nggolobuton"},{"id":"7207092020","district_id":"7207092","postal_code":"94882","name":"Pipilogot Paipaisu"}]