[{"id":"7207062014","district_id":"7207062","postal_code":"94882","name":"Tolo"},{"id":"7207062015","district_id":"7207062","postal_code":"94882","name":"Lalandai"},{"id":"7207062016","district_id":"7207062","postal_code":"94882","name":"Montomisan"},{"id":"7207062017","district_id":"7207062","postal_code":"94882","name":"Sosom"},{"id":"7207062019","district_id":"7207062","postal_code":"94882","name":"Bulagi Ii"},{"id":"7207062020","district_id":"7207062","postal_code":"94882","name":"Boloy"},{"id":"7207062021","district_id":"7207062","postal_code":"94882","name":"Meselesek"},{"id":"7207062022","district_id":"7207062","postal_code":"94882","name":"Oluno"},{"id":"7207062023","district_id":"7207062","postal_code":"94882","name":"Sumondung"},{"id":"7207062024","district_id":"7207062","postal_code":"94882","name":"Pelingseasa"},{"id":"7207062025","district_id":"7207062","postal_code":"94882","name":"Komba-komba"},{"id":"7207062035","district_id":"7207062","postal_code":"94882","name":"Alul"},{"id":"7207062038","district_id":"7207062","postal_code":"94882","name":"Toolon"},{"id":"7207062039","district_id":"7207062","postal_code":"94882","name":"Kambal"},{"id":"7207062040","district_id":"7207062","postal_code":"94882","name":"Kayubet"}]