[{"id":"7209022001","district_id":"7209022","postal_code":"94686","name":"Bungayo"},{"id":"7209022002","district_id":"7209022","postal_code":"94686","name":"Benteng"},{"id":"7209022003","district_id":"7209022","postal_code":"94686","name":"Bangkagi"},{"id":"7209022004","district_id":"7209022","postal_code":"94686","name":"Tongkabo"},{"id":"7209022005","district_id":"7209022","postal_code":"94686","name":"Pulau Enam"},{"id":"7209022006","district_id":"7209022","postal_code":"94686","name":"Katupat"},{"id":"7209022007","district_id":"7209022","postal_code":"94686","name":"Awo"},{"id":"7209022008","district_id":"7209022","postal_code":"94686","name":"Kololio"},{"id":"7209022009","district_id":"7209022","postal_code":"94686","name":"Urulepe"},{"id":"7209022010","district_id":"7209022","postal_code":"94686","name":"Lembanato"},{"id":"7209022011","district_id":"7209022","postal_code":"94686","name":"Lebiti"},{"id":"7209022012","district_id":"7209022","postal_code":"94686","name":"Tobil"},{"id":"7209022013","district_id":"7209022","postal_code":"94686","name":"Baulu"},{"id":"7209022014","district_id":"7209022","postal_code":"94686","name":"Motobiai"},{"id":"7209022015","district_id":"7209022","postal_code":"94686","name":"Sampobae"},{"id":"7209022016","district_id":"7209022","postal_code":"94686","name":"Titirii"}]