[{"id":"7212042001","district_id":"7212042","postal_code":"94966","name":"Beteleme"},{"id":"7212042002","district_id":"7212042","postal_code":"94966","name":"Uluanso"},{"id":"7212042003","district_id":"7212042","postal_code":"94966","name":"Mora"},{"id":"7212042004","district_id":"7212042","postal_code":"94966","name":"Waraa"},{"id":"7212042005","district_id":"7212042","postal_code":"94966","name":"Tingkeao"},{"id":"7212042006","district_id":"7212042","postal_code":"94966","name":"Wawopada"},{"id":"7212042007","district_id":"7212042","postal_code":"94966","name":"Korowalelo"},{"id":"7212042008","district_id":"7212042","postal_code":"94966","name":"Tinompo"},{"id":"7212042009","district_id":"7212042","postal_code":"94966","name":"Kumpi"},{"id":"7212042010","district_id":"7212042","postal_code":"94966","name":"Korompeeli"},{"id":"7212042011","district_id":"7212042","postal_code":"94966","name":"Lemboroma"},{"id":"7212042012","district_id":"7212042","postal_code":"94966","name":"Korowou"},{"id":"7212042013","district_id":"7212042","postal_code":"94966","name":"Lembobaru"},{"id":"7212042014","district_id":"7212042","postal_code":"94966","name":"Korobonde"}]