[{"id":"7302072004","district_id":"7302072","postal_code":"92552","name":"Bontobulaeng"},{"id":"7302072005","district_id":"7302072","postal_code":"92552","name":"Bulo Bulo"},{"id":"7302072006","district_id":"7302072","postal_code":"92552","name":"Bontominasa"},{"id":"7302072007","district_id":"7302072","postal_code":"92552","name":"Balangtaroang"},{"id":"7302072008","district_id":"7302072","postal_code":"92552","name":"Barugae"},{"id":"7302072009","district_id":"7302072","postal_code":"92552","name":"Salassae"},{"id":"7302072010","district_id":"7302072","postal_code":"92552","name":"Kambuno"},{"id":"7302072011","district_id":"7302072","postal_code":"92552","name":"Jojjolo"},{"id":"7302072012","district_id":"7302072","postal_code":"92552","name":"Sapobonto"},{"id":"7302072013","district_id":"7302072","postal_code":"92552","name":"Tibona"},{"id":"7302072014","district_id":"7302072","postal_code":"92552","name":"Balangpesoang"},{"id":"7302072015","district_id":"7302072","postal_code":"92552","name":"Batulohe"},{"id":"7302072016","district_id":"7302072","postal_code":"92552","name":"Bontomangiring"},{"id":"7302072017","district_id":"7302072","postal_code":"92552","name":"Baruga Riattang"}]