[{"id":"7302042002","district_id":"7302042","postal_code":"92572","name":"Dwitiro"},{"id":"7302042003","district_id":"7302042","postal_code":"92572","name":"Tritiro"},{"id":"7302042004","district_id":"7302042","postal_code":"92572","name":"Batang"},{"id":"7302042005","district_id":"7302042","postal_code":"92572","name":"Bontotangnga"},{"id":"7302042006","district_id":"7302042","postal_code":"92572","name":"Caramming"},{"id":"7302042007","district_id":"7302042","postal_code":"92572","name":"Tamalanrea"},{"id":"7302042008","district_id":"7302042","postal_code":"92572","name":"Bontobarua"},{"id":"7302042009","district_id":"7302042","postal_code":"92572","name":"Pakubalaho"},{"id":"7302042010","district_id":"7302042","postal_code":"92572","name":"Bontomarannu"},{"id":"7302042011","district_id":"7302042","postal_code":"92572","name":"Bontobulaeng"},{"id":"7302042012","district_id":"7302042","postal_code":"92572","name":"Buhung Bundang"},{"id":"7302042013","district_id":"7302042","postal_code":"92572","name":"Lamanda"}]