[{"id":"7302102001","district_id":"7302102","postal_code":"92553","name":"Bontomanai"},{"id":"7302102003","district_id":"7302102","postal_code":"92553","name":"Bontobangun"},{"id":"7302102004","district_id":"7302102","postal_code":"92553","name":"Karama"},{"id":"7302102005","district_id":"7302102","postal_code":"92553","name":"Bontolohe"},{"id":"7302102006","district_id":"7302102","postal_code":"92553","name":"Bajiminasa"},{"id":"7302102007","district_id":"7302102","postal_code":"92553","name":"Bonto Matene"},{"id":"7302102008","district_id":"7302102","postal_code":"92553","name":"Tanah Harapan"},{"id":"7302102009","district_id":"7302102","postal_code":"92553","name":"Batukaroppa"},{"id":"7302102010","district_id":"7302102","postal_code":"92553","name":"Bontoharu"},{"id":"7302102011","district_id":"7302102","postal_code":"92553","name":"Swatani"},{"id":"7302102012","district_id":"7302102","postal_code":"92553","name":"Bulolohe"},{"id":"7302102013","district_id":"7302102","postal_code":"92553","name":"Anrang"},{"id":"7302102014","district_id":"7302102","postal_code":"92553","name":"Pangalloang"},{"id":"7302102015","district_id":"7302102","postal_code":"92553","name":"Topanda"}]