[{"id":"7302082002","district_id":"7302082","postal_code":"92517","name":"Mattirowalie"},{"id":"7302082003","district_id":"7302082","postal_code":"92517","name":"Kindang"},{"id":"7302082004","district_id":"7302082","postal_code":"92517","name":"Arinhua"},{"id":"7302082005","district_id":"7302082","postal_code":"92517","name":"Tamaona"},{"id":"7302082006","district_id":"7302082","postal_code":"92517","name":"Benteng Palioi"},{"id":"7302082007","district_id":"7302082","postal_code":"92517","name":"Balibo"},{"id":"7302082008","district_id":"7302082","postal_code":"92517","name":"Garuntungan"},{"id":"7302082009","district_id":"7302082","postal_code":"92517","name":"Orogading"},{"id":"7302082010","district_id":"7302082","postal_code":"92517","name":"Sipaenre"},{"id":"7302082011","district_id":"7302082","postal_code":"92517","name":"Kahayya"},{"id":"7302082012","district_id":"7302082","postal_code":"92517","name":"Somba Palioli"},{"id":"7302082013","district_id":"7302082","postal_code":"92517","name":"Sopa"}]