[{"id":"7304102001","district_id":"7304102","postal_code":"92371","name":"Rumbia"},{"id":"7304102002","district_id":"7304102","postal_code":"92371","name":"Lebangmanai"},{"id":"7304102003","district_id":"7304102","postal_code":"92371","name":"Bontomanai"},{"id":"7304102004","district_id":"7304102","postal_code":"92572","name":"Bontotiro"},{"id":"7304102005","district_id":"7304102","postal_code":"92516","name":"Loka"},{"id":"7304102006","district_id":"7304102","postal_code":"92371","name":"Tompobulu"},{"id":"7304102007","district_id":"7304102","postal_code":"92371","name":"Kassi"},{"id":"7304102008","district_id":"7304102","postal_code":"92371","name":"Pallantikang"},{"id":"7304102009","district_id":"7304102","postal_code":"92371","name":"Lebangmanai Utara"},{"id":"7304102010","district_id":"7304102","postal_code":"92371","name":"Bontocini"},{"id":"7304102011","district_id":"7304102","postal_code":"92314","name":"Janetallasa"},{"id":"7304102012","district_id":"7304102","postal_code":"92371","name":"Ujung Bulu"}]