[{"id":"7305042007","district_id":"7305042","postal_code":"92221","name":"Lassang"},{"id":"7305042008","district_id":"7305042","postal_code":"92221","name":"Kampung Beru"},{"id":"7305042009","district_id":"7305042","postal_code":"92221","name":"Parappunganta"},{"id":"7305042010","district_id":"7305042","postal_code":"92221","name":"Towata"},{"id":"7305042011","district_id":"7305042","postal_code":"92221","name":"Barugaya"},{"id":"7305042012","district_id":"7305042","postal_code":"92221","name":"Komara"},{"id":"7305042013","district_id":"7305042","postal_code":"92221","name":"Timbuseng"},{"id":"7305042014","district_id":"7305042","postal_code":"92221","name":"Massamaturu"},{"id":"7305042015","district_id":"7305042","postal_code":"92221","name":"Parang Baddo"},{"id":"7305042016","district_id":"7305042","postal_code":"92221","name":"Lassang Barat"},{"id":"7305042017","district_id":"7305042","postal_code":"92221","name":"Balangtanaya"},{"id":"7305042018","district_id":"7305042","postal_code":"92221","name":"Kale Komara"}]