[{"id":"7306072004","district_id":"7306072","postal_code":"92161","name":"Bontoala"},{"id":"7306072005","district_id":"7306072","postal_code":"92161","name":"Pallangga"},{"id":"7306072006","district_id":"7306072","postal_code":"92161","name":"Julubori"},{"id":"7306072007","district_id":"7306072","postal_code":"92161","name":"Kampili"},{"id":"7306072008","district_id":"7306072","postal_code":"92161","name":"Panakkukang"},{"id":"7306072009","district_id":"7306072","postal_code":"92161","name":"Bontoramba"},{"id":"7306072010","district_id":"7306072","postal_code":"92161","name":"Jene Tallasa"},{"id":"7306072011","district_id":"7306072","postal_code":"92161","name":"Julukanaya"},{"id":"7306072012","district_id":"7306072","postal_code":"92161","name":"Julupamai"},{"id":"7306072013","district_id":"7306072","postal_code":"92161","name":"Bungaejaya"},{"id":"7306072014","district_id":"7306072","postal_code":"92161","name":"Toddotoa"},{"id":"7306072016","district_id":"7306072","postal_code":"92161","name":"Taeng"}]