[{"id":"7308142002","district_id":"7308142","postal_code":"92762","name":"Lilina Ajangale"},{"id":"7308142003","district_id":"7308142","postal_code":"92762","name":"Cani Sirenreng"},{"id":"7308142004","district_id":"7308142","postal_code":"92762","name":"Ulaweng Cinnong"},{"id":"7308142005","district_id":"7308142","postal_code":"0","name":"Pallawarukka"},{"id":"7308142006","district_id":"7308142","postal_code":"92762","name":"Jompie"},{"id":"7308142007","district_id":"7308142","postal_code":"92762","name":"Sappewalie"},{"id":"7308142008","district_id":"7308142","postal_code":"92762","name":"Lamakkaraseng"},{"id":"7308142009","district_id":"7308142","postal_code":"92762","name":"Mula Menree"},{"id":"7308142010","district_id":"7308142","postal_code":"92762","name":"Tea Musu"},{"id":"7308142011","district_id":"7308142","postal_code":"92762","name":"Tea Malala"},{"id":"7308142012","district_id":"7308142","postal_code":"92762","name":"Galung"},{"id":"7308142013","district_id":"7308142","postal_code":"92762","name":"Tadang Palie"},{"id":"7308142014","district_id":"7308142","postal_code":"92762","name":"Timusu"},{"id":"7308142015","district_id":"7308142","postal_code":"92762","name":"Manurunge"}]