[{"id":"7308242001","district_id":"7308242","postal_code":"92756","name":"Liliriattang"},{"id":"7308242002","district_id":"7308242","postal_code":"92756","name":"Mattaropurae"},{"id":"7308242003","district_id":"7308242","postal_code":"92756","name":"Ulaweng Riaja"},{"id":"7308242004","district_id":"7308242","postal_code":"92756","name":"Waempubbu"},{"id":"7308242005","district_id":"7308242","postal_code":"92756","name":"Waemputtange"},{"id":"7308242006","district_id":"7308242","postal_code":"92756","name":"Amali Riattang"},{"id":"7308242007","district_id":"7308242","postal_code":"92756","name":"Tassipi"},{"id":"7308242008","district_id":"7308242","postal_code":"92756","name":"Wellulang"},{"id":"7308242009","district_id":"7308242","postal_code":"92756","name":"Benteng Tellue"},{"id":"7308242010","district_id":"7308242","postal_code":"92756","name":"Tacipong"},{"id":"7308242011","district_id":"7308242","postal_code":"92756","name":"Laponrong"},{"id":"7308242012","district_id":"7308242","postal_code":"92756","name":"Ajanglaleng"},{"id":"7308242013","district_id":"7308242","postal_code":"92756","name":"Tocinnong"},{"id":"7308242014","district_id":"7308242","postal_code":"92756","name":"Bila"}]