[{"id":"7308032002","district_id":"7308032","postal_code":"92777","name":"Raja"},{"id":"7308032003","district_id":"7308032","postal_code":"92777","name":"Abbumpungeng"},{"id":"7308032004","district_id":"7308032","postal_code":"92777","name":"Bulu Tanah"},{"id":"7308032005","district_id":"7308032","postal_code":"92777","name":"Gona"},{"id":"7308032006","district_id":"7308032","postal_code":"92777","name":"Buareng"},{"id":"7308032007","district_id":"7308032","postal_code":"92777","name":"Polewali"},{"id":"7308032008","district_id":"7308032","postal_code":"92777","name":"Padaelo"},{"id":"7308032009","district_id":"7308032","postal_code":"92777","name":"Ancu"},{"id":"7308032010","district_id":"7308032","postal_code":"92777","name":"Tarasu"},{"id":"7308032011","district_id":"7308032","postal_code":"92777","name":"Lemo"},{"id":"7308032012","district_id":"7308032","postal_code":"92777","name":"Kalero"},{"id":"7308032013","district_id":"7308032","postal_code":"92777","name":"Lappabosse"},{"id":"7308032014","district_id":"7308032","postal_code":"92777","name":"Waetuo"},{"id":"7308032015","district_id":"7308032","postal_code":"92777","name":"Pude"},{"id":"7308032016","district_id":"7308032","postal_code":"92777","name":"Angkue"},{"id":"7308032017","district_id":"7308032","postal_code":"92777","name":"Massangkae"},{"id":"7308032018","district_id":"7308032","postal_code":"92777","name":"Mallahae"}]