[{"id":"7308202002","district_id":"7308202","postal_code":"92754","name":"Pacubbe"},{"id":"7308202003","district_id":"7308202","postal_code":"92754","name":"Panyiwi"},{"id":"7308202004","district_id":"7308202","postal_code":"92754","name":"Latonro"},{"id":"7308202005","district_id":"7308202","postal_code":"92754","name":"Watu"},{"id":"7308202006","district_id":"7308202","postal_code":"92754","name":"Nagauleng"},{"id":"7308202007","district_id":"7308202","postal_code":"92754","name":"Cenrana"},{"id":"7308202008","district_id":"7308202","postal_code":"92754","name":"Pallime"},{"id":"7308202009","district_id":"7308202","postal_code":"92754","name":"Laoni"},{"id":"7308202010","district_id":"7308202","postal_code":"92754","name":"Labotto"},{"id":"7308202011","district_id":"7308202","postal_code":"92754","name":"Awang Cenrana"},{"id":"7308202012","district_id":"7308202","postal_code":"92754","name":"Labongnge"},{"id":"7308202013","district_id":"7308202","postal_code":"92754","name":"Ajalase"},{"id":"7308202014","district_id":"7308202","postal_code":"92754","name":"Pusungnge"},{"id":"7308202015","district_id":"7308202","postal_code":"92754","name":"Pallae"},{"id":"7308202016","district_id":"7308202","postal_code":"92754","name":"Watang Ta"}]