[{"id":"7308162002","district_id":"7308162","postal_code":"92776","name":"Carebbu"},{"id":"7308162003","district_id":"7308162","postal_code":"92776","name":"Cumpiga"},{"id":"7308162004","district_id":"7308162","postal_code":"92776","name":"Paccing"},{"id":"7308162005","district_id":"7308162","postal_code":"92776","name":"Lattekko"},{"id":"7308162006","district_id":"7308162","postal_code":"92776","name":"Matuju"},{"id":"7308162007","district_id":"7308162","postal_code":"92776","name":"Unra"},{"id":"7308162008","district_id":"7308162","postal_code":"92776","name":"Kading"},{"id":"7308162009","district_id":"7308162","postal_code":"92776","name":"Mallari"},{"id":"7308162010","district_id":"7308162","postal_code":"92776","name":"Kajuara"},{"id":"7308162011","district_id":"7308162","postal_code":"92776","name":"Jaling"},{"id":"7308162012","district_id":"7308162","postal_code":"92776","name":"Bulumparee"},{"id":"7308162013","district_id":"7308162","postal_code":"92776","name":"Abbanuang"},{"id":"7308162014","district_id":"7308162","postal_code":"92776","name":"Lappoase"},{"id":"7308162015","district_id":"7308162","postal_code":"92776","name":"Awolagading"},{"id":"7308162016","district_id":"7308162","postal_code":"92776","name":"Carigading"},{"id":"7308162017","district_id":"7308162","postal_code":"92776","name":"Cakke Bone"},{"id":"7308162018","district_id":"7308162","postal_code":"92776","name":"Mappalo Ulaweng"}]