[{"id":"7313052005","district_id":"7313052","postal_code":"90991","name":"Tosora"},{"id":"7313052006","district_id":"7313052","postal_code":"90991","name":"Cinnong Tabi"},{"id":"7313052007","district_id":"7313052","postal_code":"90991","name":"Rumpia"},{"id":"7313052008","district_id":"7313052","postal_code":"90991","name":"Laerung"},{"id":"7313052009","district_id":"7313052","postal_code":"90991","name":"Lamiku"},{"id":"7313052010","district_id":"7313052","postal_code":"90991","name":"Bottobenteng"},{"id":"7313052011","district_id":"7313052","postal_code":"90991","name":"Bottotanre"},{"id":"7313052012","district_id":"7313052","postal_code":"90991","name":"Tua"},{"id":"7313052013","district_id":"7313052","postal_code":"90991","name":"Tajo"},{"id":"7313052014","district_id":"7313052","postal_code":"90991","name":"Tengnga"},{"id":"7313052015","district_id":"7313052","postal_code":"90991","name":"Liu"},{"id":"7313052016","district_id":"7313052","postal_code":"90991","name":"Tellulimpoe"},{"id":"7313052017","district_id":"7313052","postal_code":"90991","name":"Bottopenno"},{"id":"7313052018","district_id":"7313052","postal_code":"90991","name":"Watanrumpia"}]