[{"id":"7313082005","district_id":"7313082","postal_code":"90951","name":"Nepo"},{"id":"7313082006","district_id":"7313082","postal_code":"90951","name":"Lowa"},{"id":"7313082007","district_id":"7313082","postal_code":"90951","name":"Inalipue"},{"id":"7313082008","district_id":"7313082","postal_code":"90951","name":"Pakkana"},{"id":"7313082009","district_id":"7313082","postal_code":"90951","name":"Wajoriaja"},{"id":"7313082010","district_id":"7313082","postal_code":"90951","name":"Wewangrewu"},{"id":"7313082011","district_id":"7313082","postal_code":"90951","name":"Wae Tuwo"},{"id":"7313082012","district_id":"7313082","postal_code":"90951","name":"Assorajang"},{"id":"7313082013","district_id":"7313082","postal_code":"90951","name":"Ujungnge"},{"id":"7313082014","district_id":"7313082","postal_code":"90951","name":"Pajalele"},{"id":"7313082015","district_id":"7313082","postal_code":"90951","name":"Mario"},{"id":"7313082016","district_id":"7313082","postal_code":"90951","name":"Palippu"},{"id":"7313082017","district_id":"7313082","postal_code":"90951","name":"Tonralipue"},{"id":"7313082018","district_id":"7313082","postal_code":"90951","name":"Ujungbaru"},{"id":"7313082019","district_id":"7313082","postal_code":"90951","name":"Mannagae"}]