[{"id":"7316032003","district_id":"7316032","postal_code":"91753","name":"Banti"},{"id":"7316032005","district_id":"7316032","postal_code":"91753","name":"Bontongan"},{"id":"7316032006","district_id":"7316032","postal_code":"91753","name":"Salukanan"},{"id":"7316032007","district_id":"7316032","postal_code":"91753","name":"Parinding"},{"id":"7316032010","district_id":"7316032","postal_code":"91753","name":"Tirowali"},{"id":"7316032011","district_id":"7316032","postal_code":"91753","name":"Pepandungan"},{"id":"7316032012","district_id":"7316032","postal_code":"91753","name":"Kendenan"},{"id":"7316032015","district_id":"7316032","postal_code":"91753","name":"Perangian"},{"id":"7316032019","district_id":"7316032","postal_code":"91753","name":"Janggurara"},{"id":"7316032020","district_id":"7316032","postal_code":"91753","name":"Kadingeh"},{"id":"7316032022","district_id":"7316032","postal_code":"91753","name":"Bonebone"},{"id":"7316032023","district_id":"7316032","postal_code":"91753","name":"Pandung Batu"}]