[{"id":"7318022002","district_id":"7318022","postal_code":"91896","name":"Seseng"},{"id":"7318022004","district_id":"7318022","postal_code":"91896","name":"Pali"},{"id":"7318022007","district_id":"7318022","postal_code":"91896","name":"Tiroan"},{"id":"7318022008","district_id":"7318022","postal_code":"91896","name":"Balla"},{"id":"7318022009","district_id":"7318022","postal_code":"91896","name":"Letek"},{"id":"7318022010","district_id":"7318022","postal_code":"91896","name":"Kole Palian"},{"id":"7318022011","district_id":"7318022","postal_code":"91896","name":"Patongloan"},{"id":"7318022012","district_id":"7318022","postal_code":"91896","name":"Sasak"},{"id":"7318022013","district_id":"7318022","postal_code":"91896","name":"Bau"},{"id":"7318022014","district_id":"7318022","postal_code":"91896","name":"Sandana"},{"id":"7318022015","district_id":"7318022","postal_code":"91896","name":"Rembo Rembo"},{"id":"7318022016","district_id":"7318022","postal_code":"91896","name":"Burasia"},{"id":"7318022017","district_id":"7318022","postal_code":"91896","name":"Kandua"},{"id":"7318022018","district_id":"7318022","postal_code":"91896","name":"Buttu Limbong"}]