[{"id":"7318122004","district_id":"7318122","postal_code":"91870","name":"Gasing"},{"id":"7318122006","district_id":"7318122","postal_code":"91870","name":"Uluway"},{"id":"7318122012","district_id":"7318122","postal_code":"91870","name":"Randanan"},{"id":"7318122015","district_id":"7318122","postal_code":"91870","name":"Buntu Tangti"},{"id":"7318122017","district_id":"7318122","postal_code":"91870","name":"Rante Dada"},{"id":"7318122018","district_id":"7318122","postal_code":"91870","name":"Patengko"},{"id":"7318122019","district_id":"7318122","postal_code":"91870","name":"Simbuang"},{"id":"7318122020","district_id":"7318122","postal_code":"91870","name":"Pakala"},{"id":"7318122021","district_id":"7318122","postal_code":"91870","name":"Uluway Barat"},{"id":"7318122022","district_id":"7318122","postal_code":"91870","name":"Marinding"},{"id":"7318122025","district_id":"7318122","postal_code":"91870","name":"Palipu"},{"id":"7318122026","district_id":"7318122","postal_code":"91870","name":"Kepe Tinoring"},{"id":"7318122027","district_id":"7318122","postal_code":"91870","name":"Buntu Datu"}]