[{"id":"7322072001","district_id":"7322072","postal_code":"92956","name":"Tirobali"},{"id":"7322072002","district_id":"7322072","postal_code":"92956","name":"Malimongan"},{"id":"7322072003","district_id":"7322072","postal_code":"92956","name":"Tanamakaleang"},{"id":"7322072004","district_id":"7322072","postal_code":"92956","name":"Padang Balua"},{"id":"7322072005","district_id":"7322072","postal_code":"92956","name":"Padang Raya"},{"id":"7322072006","district_id":"7322072","postal_code":"92956","name":"Embonatana"},{"id":"7322072007","district_id":"7322072","postal_code":"92956","name":"Hono"},{"id":"7322072008","district_id":"7322072","postal_code":"92956","name":"Beroppa"},{"id":"7322072009","district_id":"7322072","postal_code":"92956","name":"Lodang"},{"id":"7322072010","district_id":"7322072","postal_code":"92956","name":"Taloto"},{"id":"7322072011","district_id":"7322072","postal_code":"92956","name":"Hoyane"},{"id":"7322072012","district_id":"7322072","postal_code":"92956","name":"Marante"}]