[{"id":"7322102001","district_id":"7322102","postal_code":"92917","name":"Mappedeceng"},{"id":"7322102002","district_id":"7322102","postal_code":"92917","name":"Cendana Putih"},{"id":"7322102003","district_id":"7322102","postal_code":"92917","name":"Hasana"},{"id":"7322102004","district_id":"7322102","postal_code":"92917","name":"Kapidi"},{"id":"7322102005","district_id":"7322102","postal_code":"92917","name":"Uraso"},{"id":"7322102006","district_id":"7322102","postal_code":"92917","name":"Benteng"},{"id":"7322102007","district_id":"7322102","postal_code":"92917","name":"Ujung Mattajang"},{"id":"7322102009","district_id":"7322102","postal_code":"92917","name":"Cendana Putih I"},{"id":"7322102010","district_id":"7322102","postal_code":"92917","name":"Sumber Wangi"},{"id":"7322102011","district_id":"7322102","postal_code":"92917","name":"Mangalle"},{"id":"7322102012","district_id":"7322102","postal_code":"92917","name":"Mekar Jaya Tondok"},{"id":"7322102013","district_id":"7322102","postal_code":"92917","name":"Cendana Putih Ii"},{"id":"7322102014","district_id":"7322102","postal_code":"92917","name":"Sumber Harum"},{"id":"7322102015","district_id":"7322102","postal_code":"92917","name":"Tarak Tallu"},{"id":"7322102016","district_id":"7322102","postal_code":"92917","name":"Harapan"}]