[{"id":"7401102002","district_id":"7401102","postal_code":"93553","name":"Donggala"},{"id":"7401102003","district_id":"7401102","postal_code":"93553","name":"Ululapao-pao"},{"id":"7401102008","district_id":"7401102","postal_code":"93553","name":"Tolowe Ponrewaru"},{"id":"7401102009","district_id":"7401102","postal_code":"93553","name":"Lapao-pao"},{"id":"7401102010","district_id":"7401102","postal_code":"93553","name":"Langgomali"},{"id":"7401102011","district_id":"7401102","postal_code":"93553","name":"Lalonaha"},{"id":"7401102012","district_id":"7401102","postal_code":"93553","name":"Lana"},{"id":"7401102015","district_id":"7401102","postal_code":"93553","name":"Lalonggopi"},{"id":"7401102016","district_id":"7401102","postal_code":"93553","name":"Muara Lapao-pao"},{"id":"7401102018","district_id":"7401102","postal_code":"93553","name":"Samaenre"},{"id":"7401102019","district_id":"7401102","postal_code":"93553","name":"Iwoimopuro"},{"id":"7401102021","district_id":"7401102","postal_code":"93553","name":"Ulu Rina"}]