[{"id":"7401202002","district_id":"7401202","postal_code":"93521","name":"Konaweha"},{"id":"7401202003","district_id":"7401202","postal_code":"93521","name":"Kaloloa"},{"id":"7401202004","district_id":"7401202","postal_code":"93521","name":"Tamboli"},{"id":"7401202005","district_id":"7401202","postal_code":"93521","name":"Lambolemo"},{"id":"7401202006","district_id":"7401202","postal_code":"93521","name":"Amamutu"},{"id":"7401202007","district_id":"7401202","postal_code":"93521","name":"Lawulo"},{"id":"7401202008","district_id":"7401202","postal_code":"93521","name":"Awa"},{"id":"7401202009","district_id":"7401202","postal_code":"93521","name":"Latuo"},{"id":"7401202010","district_id":"7401202","postal_code":"93521","name":"Wawo Tambali"},{"id":"7401202011","district_id":"7401202","postal_code":"93521","name":"Malaha"},{"id":"7401202012","district_id":"7401202","postal_code":"93521","name":"Sani-sani"},{"id":"7401202014","district_id":"7401202","postal_code":"93521","name":"Ulu Konaweha"},{"id":"7401202015","district_id":"7401202","postal_code":"93521","name":"Puu Tamboli"},{"id":"7401202016","district_id":"7401202","postal_code":"93521","name":"Ulaweng"},{"id":"7401202017","district_id":"7401202","postal_code":"93521","name":"Puu Lawulo"},{"id":"7401202018","district_id":"7401202","postal_code":"93521","name":"Liku"},{"id":"7401202019","district_id":"7401202","postal_code":"93521","name":"Meura"}]