[{"id":"7401182001","district_id":"7401182","postal_code":"93564","name":"Lamedai"},{"id":"7401182002","district_id":"7401182","postal_code":"93564","name":"Tanggetada"},{"id":"7401182004","district_id":"7401182","postal_code":"93564","name":"Pewisoa Jaya"},{"id":"7401182005","district_id":"7401182","postal_code":"93564","name":"Tondowolio"},{"id":"7401182006","district_id":"7401182","postal_code":"93564","name":"Popalia"},{"id":"7401182007","district_id":"7401182","postal_code":"93564","name":"Lalonggolosua"},{"id":"7401182008","district_id":"7401182","postal_code":"93564","name":"Petudua"},{"id":"7401182009","district_id":"7401182","postal_code":"93564","name":"Rahanggada"},{"id":"7401182010","district_id":"7401182","postal_code":"93564","name":"Palewai"},{"id":"7401182011","district_id":"7401182","postal_code":"93564","name":"Puundaipa"},{"id":"7401182012","district_id":"7401182","postal_code":"93564","name":"Oneeha"},{"id":"7401182013","district_id":"7401182","postal_code":"93564","name":"Lamoiko"},{"id":"7401182014","district_id":"7401182","postal_code":"93564","name":"Tinggo"}]