[{"id":"7402152006","district_id":"7402152","postal_code":"93460","name":"Lalonggowuna"},{"id":"7402152007","district_id":"7402152","postal_code":"93460","name":"Asao"},{"id":"7402152008","district_id":"7402152","postal_code":"93460","name":"Waworoda Jaya"},{"id":"7402152009","district_id":"7402152","postal_code":"93460","name":"Sanuanggamo"},{"id":"7402152010","district_id":"7402152","postal_code":"93460","name":"Puundopi"},{"id":"7402152011","district_id":"7402152","postal_code":"93460","name":"Ambopi"},{"id":"7402152012","district_id":"7402152","postal_code":"93460","name":"Andeposunde"},{"id":"7402152013","district_id":"7402152","postal_code":"93460","name":"Momea"},{"id":"7402152014","district_id":"7402152","postal_code":"93460","name":"Anggohu"},{"id":"7402152015","district_id":"7402152","postal_code":"93460","name":"Olua Ao"},{"id":"7402152016","district_id":"7402152","postal_code":"93460","name":"Nambeaboru"},{"id":"7402152017","district_id":"7402152","postal_code":"93460","name":"Olo Onua"},{"id":"7402152018","district_id":"7402152","postal_code":"93460","name":"Ambepulu"},{"id":"7402152019","district_id":"7402152","postal_code":"93460","name":"Barowila"},{"id":"7402152020","district_id":"7402152","postal_code":"93460","name":"Andalambe"}]