[{"id":"7402412001","district_id":"7402412","postal_code":"93469","name":"Wonggeduku"},{"id":"7402412002","district_id":"7402412","postal_code":"93469","name":"Puday"},{"id":"7402412003","district_id":"7402412","postal_code":"93469","name":"Waturay"},{"id":"7402412004","district_id":"7402412","postal_code":"93469","name":"Tobimeita"},{"id":"7402412005","district_id":"7402412","postal_code":"93469","name":"Kasukia"},{"id":"7402412006","district_id":"7402412","postal_code":"93469","name":"Baruga"},{"id":"7402412007","district_id":"7402412","postal_code":"93469","name":"Teteona"},{"id":"7402412008","district_id":"7402412","postal_code":"93469","name":"Ambuwiu"},{"id":"7402412009","district_id":"7402412","postal_code":"93469","name":"Linonggasay"},{"id":"7402412010","district_id":"7402412","postal_code":"93469","name":"Lambangi"},{"id":"7402412011","district_id":"7402412","postal_code":"93469","name":"Lahotutu"},{"id":"7402412012","district_id":"7402412","postal_code":"93469","name":"Lamokuni"},{"id":"7402412013","district_id":"7402412","postal_code":"93469","name":"Ranotundobu"},{"id":"7402412014","district_id":"7402412","postal_code":"93469","name":"Anggadola"}]