[{"id":"7402112002","district_id":"7402112","postal_code":"93451","name":"Atowatu"},{"id":"7402112004","district_id":"7402112","postal_code":"93451","name":"Waworaha"},{"id":"7402112006","district_id":"7402112","postal_code":"93451","name":"Sorue Jaya"},{"id":"7402112010","district_id":"7402112","postal_code":"93451","name":"Soropia"},{"id":"7402112011","district_id":"7402112","postal_code":"93451","name":"Tapulaga"},{"id":"7402112012","district_id":"7402112","postal_code":"93451","name":"Sawapudo"},{"id":"7402112014","district_id":"7402112","postal_code":"93451","name":"Bokori"},{"id":"7402112015","district_id":"7402112","postal_code":"93451","name":"Saponda"},{"id":"7402112016","district_id":"7402112","postal_code":"93451","name":"Mekar"},{"id":"7402112017","district_id":"7402112","postal_code":"93451","name":"Bajo Indah"},{"id":"7402112022","district_id":"7402112","postal_code":"93451","name":"Telaga Biru"},{"id":"7402112023","district_id":"7402112","postal_code":"93451","name":"Leppe"},{"id":"7402112024","district_id":"7402112","postal_code":"93451","name":"Bajoe"},{"id":"7402112025","district_id":"7402112","postal_code":"93451","name":"Saponda Laut"}]