[{"id":"7404242006","district_id":"7404242","postal_code":"93757","name":"Ambuau Indah"},{"id":"7404242007","district_id":"7404242","postal_code":"93757","name":"Kinapani Makmur"},{"id":"7404242008","district_id":"7404242","postal_code":"93757","name":"Mopaano"},{"id":"7404242009","district_id":"7404242","postal_code":"93757","name":"Umalaoge"},{"id":"7404242010","district_id":"7404242","postal_code":"93757","name":"Lasalimu"},{"id":"7404242011","district_id":"7404242","postal_code":"93757","name":"Wajah Jaya"},{"id":"7404242012","district_id":"7404242","postal_code":"93757","name":"Siontapina"},{"id":"7404242013","district_id":"7404242","postal_code":"93757","name":"Siomanuru"},{"id":"7404242016","district_id":"7404242","postal_code":"93757","name":"Mulya Jaya"},{"id":"7404242017","district_id":"7404242","postal_code":"93757","name":"Harapan Jaya"},{"id":"7404242018","district_id":"7404242","postal_code":"93757","name":"Sangia Arano"},{"id":"7404242019","district_id":"7404242","postal_code":"93757","name":"Megabahari"},{"id":"7404242020","district_id":"7404242","postal_code":"93757","name":"Sumber Agung"},{"id":"7404242021","district_id":"7404242","postal_code":"93757","name":"Rejo Sari"},{"id":"7404242022","district_id":"7404242","postal_code":"93757","name":"Ambuau Togo"},{"id":"7404242023","district_id":"7404242","postal_code":"93757","name":"Balimu"}]