[{"id":"7404222001","district_id":"7404222","postal_code":"93755","name":"Barangka"},{"id":"7404222002","district_id":"7404222","postal_code":"93755","name":"Wakalambe"},{"id":"7404222003","district_id":"7404222","postal_code":"93755","name":"Boneatiro"},{"id":"7404222004","district_id":"7404222","postal_code":"93755","name":"Lambusango"},{"id":"7404222007","district_id":"7404222","postal_code":"93755","name":"Todanga"},{"id":"7404222008","district_id":"7404222","postal_code":"93755","name":"Tuangila"},{"id":"7404222009","district_id":"7404222","postal_code":"93755","name":"Waondo Wolio"},{"id":"7404222010","district_id":"7404222","postal_code":"93755","name":"Bukit Asri"},{"id":"7404222011","district_id":"7404222","postal_code":"93755","name":"Kamelanta"},{"id":"7404222012","district_id":"7404222","postal_code":"93755","name":"Lambusango Timur"},{"id":"7404222013","district_id":"7404222","postal_code":"93755","name":"Wakuli"},{"id":"7404222014","district_id":"7404222","postal_code":"93755","name":"Mabulugo"},{"id":"7404222015","district_id":"7404222","postal_code":"93755","name":"Wambulu"},{"id":"7404222016","district_id":"7404222","postal_code":"93755","name":"Tumada"},{"id":"7404222017","district_id":"7404222","postal_code":"93755","name":"Boneatiro Barat"}]