[{"id":"7405122001","district_id":"7405122","postal_code":"93885","name":"Lambodi Jaya"},{"id":"7405122002","district_id":"7405122","postal_code":"93885","name":"Atari Jaya"},{"id":"7405122003","district_id":"7405122","postal_code":"93885","name":"Mokupa Jaya"},{"id":"7405122004","district_id":"7405122","postal_code":"93885","name":"Lambandia"},{"id":"7405122006","district_id":"7405122","postal_code":"93885","name":"Kapuwila"},{"id":"7405122007","district_id":"7405122","postal_code":"93885","name":"Puunangga"},{"id":"7405122008","district_id":"7405122","postal_code":"93885","name":"Teteinea"},{"id":"7405122009","district_id":"7405122","postal_code":"93885","name":"Puurema Subur"},{"id":"7405122010","district_id":"7405122","postal_code":"93885","name":"Lelembu Jaya"},{"id":"7405122011","district_id":"7405122","postal_code":"93885","name":"Sukamukti"},{"id":"7405122012","district_id":"7405122","postal_code":"93885","name":"Potuho Jaya"},{"id":"7405122013","district_id":"7405122","postal_code":"93885","name":"Mondoke"},{"id":"7405122014","district_id":"7405122","postal_code":"93885","name":"Sumber Jaya"},{"id":"7405122015","district_id":"7405122","postal_code":"93885","name":"Merongga Raya"},{"id":"7405122016","district_id":"7405122","postal_code":"93885","name":"Tombeleu"},{"id":"7405122017","district_id":"7405122","postal_code":"93885","name":"Padaleu"},{"id":"7405122018","district_id":"7405122","postal_code":"93885","name":"Lalouesamba"}]