[{"id":"7414012001","district_id":"7414012","postal_code":"93763","name":"Metere"},{"id":"7414012002","district_id":"7414012","postal_code":"93763","name":"Lolibu"},{"id":"7414012003","district_id":"7414012","postal_code":"93763","name":"Wajogu"},{"id":"7414012004","district_id":"7414012","postal_code":"93763","name":"Moko"},{"id":"7414012005","district_id":"7414012","postal_code":"93763","name":"Mone"},{"id":"7414012006","district_id":"7414012","postal_code":"93763","name":"Matawine"},{"id":"7414012009","district_id":"7414012","postal_code":"93763","name":"Nepa Mekar"},{"id":"7414012011","district_id":"7414012","postal_code":"93763","name":"Madongka"},{"id":"7414012012","district_id":"7414012","postal_code":"93763","name":"Waraa"},{"id":"7414012013","district_id":"7414012","postal_code":"93763","name":"Wongko Lakudo"},{"id":"7414012014","district_id":"7414012","postal_code":"93763","name":"One Waara"},{"id":"7414012015","district_id":"7414012","postal_code":"93763","name":"Teluk Lasongko"}]