[{"id":"7471061001","district_id":"7471061","postal_code":"93234","name":"Puday"},{"id":"7471061002","district_id":"7471061","postal_code":"93234","name":"Lapulu"},{"id":"7471061003","district_id":"7471061","postal_code":"93234","name":"Abeli"},{"id":"7471061004","district_id":"7471061","postal_code":"93234","name":"Benuanirae"},{"id":"7471061005","district_id":"7471061","postal_code":"93237","name":"Tobimeita"},{"id":"7471061006","district_id":"7471061","postal_code":"93234","name":"Anggalomelai"},{"id":"7471061007","district_id":"7471061","postal_code":"93235","name":"Talia"},{"id":"7471061008","district_id":"7471061","postal_code":"93235","name":"Poasia"},{"id":"7471061009","district_id":"7471061","postal_code":"93234","name":"Bungkutoko"},{"id":"7471061010","district_id":"7471061","postal_code":"93236","name":"Petoaha"},{"id":"7471061011","district_id":"7471061","postal_code":"93236","name":"Nambo"},{"id":"7471061012","district_id":"7471061","postal_code":"93238","name":"Sambuli"},{"id":"7471061013","district_id":"7471061","postal_code":"93238","name":"Tondonggeu"}]