[{"id":"7503042003","district_id":"7503042","postal_code":"96573","name":"Tamboo"},{"id":"7503042004","district_id":"7503042","postal_code":"96573","name":"Bilungala"},{"id":"7503042005","district_id":"7503042","postal_code":"96573","name":"Uabanga"},{"id":"7503042008","district_id":"7503042","postal_code":"96573","name":"Tolotio"},{"id":"7503042012","district_id":"7503042","postal_code":"96573","name":"Tongo"},{"id":"7503042025","district_id":"7503042","postal_code":"96573","name":"Bilungala Utara"},{"id":"7503042026","district_id":"7503042","postal_code":"96573","name":"Tihu"},{"id":"7503042027","district_id":"7503042","postal_code":"96573","name":"Tunas Jaya"},{"id":"7503042028","district_id":"7503042","postal_code":"96573","name":"Lembah Hijau"},{"id":"7503042029","district_id":"7503042","postal_code":"96573","name":"Batu Hijau"},{"id":"7503042031","district_id":"7503042","postal_code":"96573","name":"Ombulo Hijau"},{"id":"7503042032","district_id":"7503042","postal_code":"96573","name":"Kemiri"},{"id":"7503042033","district_id":"7503042","postal_code":"96573","name":"Pelita Hijau"}]