[{"id":"7505012003","district_id":"7505012","postal_code":"96516","name":"Imana"},{"id":"7505012004","district_id":"7505012","postal_code":"96516","name":"Bintana"},{"id":"7505012005","district_id":"7505012","postal_code":"96516","name":"Buata"},{"id":"7505012006","district_id":"7505012","postal_code":"96516","name":"Pinontoyonga"},{"id":"7505012007","district_id":"7505012","postal_code":"96516","name":"Monggupo"},{"id":"7505012008","district_id":"7505012","postal_code":"96516","name":"Kotajin"},{"id":"7505012011","district_id":"7505012","postal_code":"96516","name":"Ilomata"},{"id":"7505012013","district_id":"7505012","postal_code":"96516","name":"Iloheluma"},{"id":"7505012014","district_id":"7505012","postal_code":"96516","name":"Wapalo"},{"id":"7505012015","district_id":"7505012","postal_code":"96516","name":"Posono"},{"id":"7505012016","district_id":"7505012","postal_code":"96516","name":"Sigaso"},{"id":"7505012017","district_id":"7505012","postal_code":"96516","name":"Tombulilato"},{"id":"7505012018","district_id":"7505012","postal_code":"96516","name":"Kotajin Utara"},{"id":"7505012019","district_id":"7505012","postal_code":"96516","name":"Oluhuta"}]