[{"id":"7605022003","district_id":"7605022","postal_code":"91451","name":"Adolang"},{"id":"7605022004","district_id":"7605022","postal_code":"91451","name":"Bababulo"},{"id":"7605022005","district_id":"7605022","postal_code":"91451","name":"Bonde"},{"id":"7605022006","district_id":"7605022","postal_code":"91451","name":"Betteng"},{"id":"7605022007","district_id":"7605022","postal_code":"91451","name":"Simbang"},{"id":"7605022008","district_id":"7605022","postal_code":"91451","name":"Bonde Utara"},{"id":"7605022009","district_id":"7605022","postal_code":"91451","name":"Bababulo Utara"},{"id":"7605022010","district_id":"7605022","postal_code":"91451","name":"Buttu Pamboang"},{"id":"7605022011","district_id":"7605022","postal_code":"91451","name":"Banua Adolang"},{"id":"7605022012","district_id":"7605022","postal_code":"91451","name":"Adolang Dhua"},{"id":"7605022013","district_id":"7605022","postal_code":"91451","name":"Tinambung"},{"id":"7605022014","district_id":"7605022","postal_code":"91451","name":"Pesuloang"},{"id":"7605022015","district_id":"7605022","postal_code":"91451","name":"Balombong"}]