[{"id":"7606042001","district_id":"7606042","postal_code":"91464","name":"Budong-budong"},{"id":"7606042002","district_id":"7606042","postal_code":"91464","name":"Topoyo"},{"id":"7606042003","district_id":"7606042","postal_code":"91464","name":"Tumbu"},{"id":"7606042004","district_id":"7606042","postal_code":"91464","name":"Kabubu"},{"id":"7606042005","district_id":"7606042","postal_code":"91464","name":"Waeputeh"},{"id":"7606042006","district_id":"7606042","postal_code":"91464","name":"Tangkou"},{"id":"7606042007","district_id":"7606042","postal_code":"91464","name":"Tabolang"},{"id":"7606042008","district_id":"7606042","postal_code":"91464","name":"Paraili"},{"id":"7606042009","district_id":"7606042","postal_code":"91464","name":"Salupangkang"},{"id":"7606042010","district_id":"7606042","postal_code":"91464","name":"Salupangkang Iv"},{"id":"7606042011","district_id":"7606042","postal_code":"91464","name":"Tappilina"},{"id":"7606042012","district_id":"7606042","postal_code":"91464","name":"Bambamanurung"},{"id":"7606042013","district_id":"7606042","postal_code":"91464","name":"Salulekbo"},{"id":"7606042014","district_id":"7606042","postal_code":"91464","name":"Pangalloang"},{"id":"7606042015","district_id":"7606042","postal_code":"91464","name":"Sinabatta"}]