[{"id":"8101252001","district_id":"8101252","postal_code":"97533","name":"Kobi"},{"id":"8101252002","district_id":"8101252","postal_code":"97533","name":"Sariputih"},{"id":"8101252003","district_id":"8101252","postal_code":"97533","name":"Maneo Rendah"},{"id":"8101252004","district_id":"8101252","postal_code":"97533","name":"Kobimukti"},{"id":"8101252005","district_id":"8101252","postal_code":"97533","name":"Leaway"},{"id":"8101252006","district_id":"8101252","postal_code":"97533","name":"Samal"},{"id":"8101252007","district_id":"8101252","postal_code":"97533","name":"Morokai"},{"id":"8101252008","district_id":"8101252","postal_code":"97533","name":"Waimusi"},{"id":"8101252009","district_id":"8101252","postal_code":"97533","name":"Way Asih"},{"id":"8101252010","district_id":"8101252","postal_code":"97533","name":"Waitonipa"},{"id":"8101252011","district_id":"8101252","postal_code":"97533","name":"Marasahua"},{"id":"8101252012","district_id":"8101252","postal_code":"97533","name":"Kabauhari"}]