[{"id":"8102012014","district_id":"8102012","postal_code":"97622","name":"Langgur"},{"id":"8102012015","district_id":"8102012","postal_code":"97622","name":"Faan"},{"id":"8102012016","district_id":"8102012","postal_code":"97622","name":"Sathean"},{"id":"8102012017","district_id":"8102012","postal_code":"97622","name":"Ibra"},{"id":"8102012018","district_id":"8102012","postal_code":"97622","name":"Ngabub"},{"id":"8102012048","district_id":"8102012","postal_code":"97622","name":"Ohoidertawun"},{"id":"8102012049","district_id":"8102012","postal_code":"97622","name":"Kelanit"},{"id":"8102012051","district_id":"8102012","postal_code":"97622","name":"Kolser"},{"id":"8102012052","district_id":"8102012","postal_code":"97622","name":"Letman"},{"id":"8102012057","district_id":"8102012","postal_code":"97622","name":"Wearlilir"},{"id":"8102012067","district_id":"8102012","postal_code":"97622","name":"Ohoider Atas"},{"id":"8102012068","district_id":"8102012","postal_code":"97622","name":"Dudunwahan"},{"id":"8102012069","district_id":"8102012","postal_code":"97622","name":"Loon"},{"id":"8102012071","district_id":"8102012","postal_code":"97622","name":"Sitniohoi"}]