[{"id":"8105112001","district_id":"8105112","postal_code":"97596","name":"Kilkoda"},{"id":"8105112002","district_id":"8105112","postal_code":"97596","name":"Miran"},{"id":"8105112003","district_id":"8105112","postal_code":"97596","name":"Kota Sirih"},{"id":"8105112004","district_id":"8105112","postal_code":"97596","name":"Amarwatu"},{"id":"8105112005","district_id":"8105112","postal_code":"97596","name":"Aran"},{"id":"8105112006","district_id":"8105112","postal_code":"97596","name":"Tuha"},{"id":"8105112007","district_id":"8105112","postal_code":"97596","name":"Bas"},{"id":"8105112008","district_id":"8105112","postal_code":"97596","name":"Tunas Ilur"},{"id":"8105112009","district_id":"8105112","postal_code":"97596","name":"Sagey"},{"id":"8105112010","district_id":"8105112","postal_code":"97596","name":"Armada"},{"id":"8105112011","district_id":"8105112","postal_code":"97596","name":"Waisalan"},{"id":"8105112012","district_id":"8105112","postal_code":"97596","name":"Basarin"},{"id":"8105112013","district_id":"8105112","postal_code":"97596","name":"Goha"},{"id":"8105112014","district_id":"8105112","postal_code":"97596","name":"Rarat"},{"id":"8105112015","district_id":"8105112","postal_code":"97596","name":"Miran Gota"},{"id":"8105112016","district_id":"8105112","postal_code":"97596","name":"Adar"},{"id":"8105112017","district_id":"8105112","postal_code":"97596","name":"Tinarin"},{"id":"8105112018","district_id":"8105112","postal_code":"97596","name":"Etaralu"},{"id":"8105112019","district_id":"8105112","postal_code":"97596","name":"Kiltufa"},{"id":"8105112020","district_id":"8105112","postal_code":"97596","name":"Miran Kilian"},{"id":"8105112021","district_id":"8105112","postal_code":"97596","name":"Miran Keledar"},{"id":"8105112022","district_id":"8105112","postal_code":"97596","name":"Miran Manaban"},{"id":"8105112023","district_id":"8105112","postal_code":"97596","name":"Miran Rumuar"}]