[{"id":"8106032001","district_id":"8106032","postal_code":"97559","name":"Murnaten"},{"id":"8106032002","district_id":"8106032","postal_code":"97559","name":"Nikulukan"},{"id":"8106032003","district_id":"8106032","postal_code":"97559","name":"Niwelehu"},{"id":"8106032004","district_id":"8106032","postal_code":"97559","name":"Nuniali"},{"id":"8106032005","district_id":"8106032","postal_code":"97559","name":"Lisabata"},{"id":"8106032006","district_id":"8106032","postal_code":"97559","name":"Wakolo"},{"id":"8106032007","district_id":"8106032","postal_code":"97559","name":"Patahuwe"},{"id":"8106032008","district_id":"8106032","postal_code":"97559","name":"Taniwel"},{"id":"8106032009","district_id":"8106032","postal_code":"97559","name":"Hulung"},{"id":"8106032010","district_id":"8106032","postal_code":"97559","name":"Kasieh"},{"id":"8106032011","district_id":"8106032","postal_code":"97559","name":"Nukuhai"},{"id":"8106032012","district_id":"8106032","postal_code":"97559","name":"Pasinalo"},{"id":"8106032028","district_id":"8106032","postal_code":"97559","name":"Uweth"},{"id":"8106032029","district_id":"8106032","postal_code":"97559","name":"Laturake"},{"id":"8106032030","district_id":"8106032","postal_code":"97559","name":"Buria"},{"id":"8106032031","district_id":"8106032","postal_code":"97559","name":"Riring"},{"id":"8106032032","district_id":"8106032","postal_code":"97559","name":"Rumahsoal"},{"id":"8106032033","district_id":"8106032","postal_code":"97559","name":"Lohiasapalewa"},{"id":"8106032034","district_id":"8106032","postal_code":"97559","name":"Niniari"}]