[{"id":"8107012001","district_id":"8107012","postal_code":"97662","name":"Ujir"},{"id":"8107012002","district_id":"8107012","postal_code":"97662","name":"Nafar"},{"id":"8107012003","district_id":"8107012","postal_code":"97662","name":"Kobraur"},{"id":"8107012004","district_id":"8107012","postal_code":"97662","name":"Lau-lau"},{"id":"8107012005","district_id":"8107012","postal_code":"97662","name":"Gorar"},{"id":"8107012006","district_id":"8107012","postal_code":"97662","name":"Tungu"},{"id":"8107012007","district_id":"8107012","postal_code":"97662","name":"Tunguwatu"},{"id":"8107012008","district_id":"8107012","postal_code":"97662","name":"Jabulenga"},{"id":"8107012009","district_id":"8107012","postal_code":"97662","name":"Wokam"},{"id":"8107012010","district_id":"8107012","postal_code":"97662","name":"Karangguli"},{"id":"8107012011","district_id":"8107012","postal_code":"97662","name":"Durjela"},{"id":"8107012014","district_id":"8107012","postal_code":"97662","name":"Wangel"},{"id":"8107012015","district_id":"8107012","postal_code":"97662","name":"Samang"}]