[{"id":"8201012001","district_id":"8201012","postal_code":"97752","name":"Gufasa"},{"id":"8201012002","district_id":"8201012","postal_code":"97752","name":"Guaimaadu"},{"id":"8201012003","district_id":"8201012","postal_code":"97752","name":"Jalan Baru"},{"id":"8201012004","district_id":"8201012","postal_code":"97752","name":"Gam Lamo"},{"id":"8201012005","district_id":"8201012","postal_code":"97752","name":"Soakonora"},{"id":"8201012006","district_id":"8201012","postal_code":"97752","name":"Galala"},{"id":"8201012007","district_id":"8201012","postal_code":"97752","name":"Bobanehena"},{"id":"8201012008","district_id":"8201012","postal_code":"97752","name":"Payo"},{"id":"8201012009","district_id":"8201012","postal_code":"97752","name":"Bobo"},{"id":"8201012010","district_id":"8201012","postal_code":"97752","name":"Saria"},{"id":"8201012011","district_id":"8201012","postal_code":"97752","name":"Idam Dehe"},{"id":"8201012012","district_id":"8201012","postal_code":"97752","name":"Idamdehe Gamsungi"},{"id":"8201012013","district_id":"8201012","postal_code":"97752","name":"Marmabati"},{"id":"8201012014","district_id":"8201012","postal_code":"97752","name":"Gamtala"},{"id":"8201012015","district_id":"8201012","postal_code":"97752","name":"Lolory"},{"id":"8201012016","district_id":"8201012","postal_code":"97752","name":"Toboso"},{"id":"8201012017","district_id":"8201012","postal_code":"97752","name":"Huku-huku Kie"},{"id":"8201012018","district_id":"8201012","postal_code":"97752","name":"Acango"},{"id":"8201012019","district_id":"8201012","postal_code":"97752","name":"Tedeng"},{"id":"8201012020","district_id":"8201012","postal_code":"97752","name":"Akediri"},{"id":"8201012021","district_id":"8201012","postal_code":"97752","name":"Pornity"},{"id":"8201012022","district_id":"8201012","postal_code":"97752","name":"Buku Matiti"},{"id":"8201012023","district_id":"8201012","postal_code":"97752","name":"Todowongi"},{"id":"8201012024","district_id":"8201012","postal_code":"97752","name":"Tuada"},{"id":"8201012025","district_id":"8201012","postal_code":"97752","name":"Matui"},{"id":"8201012026","district_id":"8201012","postal_code":"97752","name":"Buku Bualawa"},{"id":"8201012027","district_id":"8201012","postal_code":"97752","name":"Tauro"},{"id":"8201012034","district_id":"8201012","postal_code":"97752","name":"Hate Bicara"},{"id":"8201012035","district_id":"8201012","postal_code":"97752","name":"Guaria"},{"id":"8201012036","district_id":"8201012","postal_code":"97752","name":"Pateng"},{"id":"8201012037","district_id":"8201012","postal_code":"97752","name":"Bobo Jiko"},{"id":"8201012038","district_id":"8201012","postal_code":"97752","name":"Ulo"},{"id":"8201012039","district_id":"8201012","postal_code":"97752","name":"Kuripasai"},{"id":"8201012040","district_id":"8201012","postal_code":"97752","name":"Buku Maadu"}]