[{"id":"8203092001","district_id":"8203092","postal_code":"97763","name":"Dorume"},{"id":"8203092002","district_id":"8203092","postal_code":"97763","name":"Apule"},{"id":"8203092003","district_id":"8203092","postal_code":"97763","name":"Asimiro"},{"id":"8203092004","district_id":"8203092","postal_code":"97763","name":"Doitia"},{"id":"8203092005","district_id":"8203092","postal_code":"97763","name":"Ngajam"},{"id":"8203092006","district_id":"8203092","postal_code":"97763","name":"Kailupa"},{"id":"8203092007","district_id":"8203092","postal_code":"97763","name":"Gisik"},{"id":"8203092008","district_id":"8203092","postal_code":"97763","name":"Kapa Kapa"},{"id":"8203092009","district_id":"8203092","postal_code":"97763","name":"Pacao"},{"id":"8203092010","district_id":"8203092","postal_code":"97763","name":"Tate"},{"id":"8203092011","district_id":"8203092","postal_code":"97763","name":"Posi- Posi"},{"id":"8203092012","district_id":"8203092","postal_code":"97763","name":"Supu"},{"id":"8203092022","district_id":"8203092","postal_code":"97763","name":"Igo"},{"id":"8203092023","district_id":"8203092","postal_code":"97763","name":"Galao"},{"id":"8203092024","district_id":"8203092","postal_code":"97763","name":"Teru-teru"},{"id":"8203092026","district_id":"8203092","postal_code":"97763","name":"Wori Moi"},{"id":"8203092027","district_id":"8203092","postal_code":"97763","name":"Podol"},{"id":"8203092028","district_id":"8203092","postal_code":"97763","name":"Momojiu"}]