[{"id":"8203212001","district_id":"8203212","postal_code":"97764","name":"Gaga Apok"},{"id":"8203212002","district_id":"8203212","postal_code":"97764","name":"Ngoali"},{"id":"8203212003","district_id":"8203212","postal_code":"97764","name":"Momoda"},{"id":"8203212004","district_id":"8203212","postal_code":"97764","name":"Toliwang"},{"id":"8203212005","district_id":"8203212","postal_code":"97764","name":"Tolabit"},{"id":"8203212006","district_id":"8203212","postal_code":"97764","name":"Leleseng"},{"id":"8203212007","district_id":"8203212","postal_code":"97764","name":"Soa Hukum"},{"id":"8203212008","district_id":"8203212","postal_code":"97764","name":"Soa Maetek"},{"id":"8203212009","district_id":"8203212","postal_code":"97764","name":"Bailengit"},{"id":"8203212010","district_id":"8203212","postal_code":"97764","name":"Tuguis"},{"id":"8203212011","district_id":"8203212","postal_code":"97764","name":"Parseba"},{"id":"8203212012","district_id":"8203212","postal_code":"97764","name":"Pitago"},{"id":"8203212013","district_id":"8203212","postal_code":"97764","name":"Kai"},{"id":"8203212014","district_id":"8203212","postal_code":"97764","name":"Toboulamo"},{"id":"8203212015","district_id":"8203212","postal_code":"97764","name":"Makarti"},{"id":"8203212016","district_id":"8203212","postal_code":"97764","name":"Sangaji Jaya"},{"id":"8203212017","district_id":"8203212","postal_code":"97764","name":"Takimo"},{"id":"8203212018","district_id":"8203212","postal_code":"97764","name":"Torawat"},{"id":"8203212019","district_id":"8203212","postal_code":"97764","name":"Wonosari"},{"id":"8203212020","district_id":"8203212","postal_code":"97764","name":"Beringin Agung"},{"id":"8203212021","district_id":"8203212","postal_code":"97764","name":"Margomolyo"}]