[{"id":"8206042001","district_id":"8206042","postal_code":"97866","name":"Nusa Jaya"},{"id":"8206042002","district_id":"8206042","postal_code":"97866","name":"Nusa Ambu"},{"id":"8206042003","district_id":"8206042","postal_code":"97866","name":"Loleba"},{"id":"8206042004","district_id":"8206042","postal_code":"97866","name":"Waijoi"},{"id":"8206042005","district_id":"8206042","postal_code":"97866","name":"Pintatu"},{"id":"8206042006","district_id":"8206042","postal_code":"97866","name":"Minamin"},{"id":"8206042007","district_id":"8206042","postal_code":"97866","name":"Saramaake"},{"id":"8206042008","district_id":"8206042","postal_code":"97866","name":"Fayaul"},{"id":"8206042009","district_id":"8206042","postal_code":"97866","name":"Bina Gara"},{"id":"8206042010","district_id":"8206042","postal_code":"97866","name":"Wasile"},{"id":"8206042011","district_id":"8206042","postal_code":"97866","name":"Tomares"},{"id":"8206042012","district_id":"8206042","postal_code":"97866","name":"Tabanalow"},{"id":"8206042013","district_id":"8206042","postal_code":"97866","name":"Saolat"},{"id":"8206042014","district_id":"8206042","postal_code":"97866","name":"Nanas"},{"id":"8206042015","district_id":"8206042","postal_code":"97866","name":"Talaga Jaya"},{"id":"8206042016","district_id":"8206042","postal_code":"97866","name":"Sondo-sondo"},{"id":"8206042017","district_id":"8206042","postal_code":"97866","name":"Ino Jaya"},{"id":"8206042018","district_id":"8206042","postal_code":"97866","name":"Ake Jawi"},{"id":"8206042019","district_id":"8206042","postal_code":"97866","name":"Ekor"},{"id":"8206042020","district_id":"8206042","postal_code":"97866","name":"Ekorino"},{"id":"8206042021","district_id":"8206042","postal_code":"97866","name":"Jiko Moi"},{"id":"8206042022","district_id":"8206042","postal_code":"97866","name":"Tanure"},{"id":"8206042023","district_id":"8206042","postal_code":"97866","name":"Yawal"},{"id":"8206042024","district_id":"8206042","postal_code":"97866","name":"Bukutio"}]