[{"id":"9101022001","district_id":"9101022","postal_code":"99634","name":"Muting"},{"id":"9101022003","district_id":"9101022","postal_code":"99634","name":"Boha"},{"id":"9101022005","district_id":"9101022","postal_code":"99634","name":"Wan"},{"id":"9101022006","district_id":"9101022","postal_code":"99634","name":"Kolam"},{"id":"9101022007","district_id":"9101022","postal_code":"99634","name":"Selauw"},{"id":"9101022008","district_id":"9101022","postal_code":"99634","name":"Pachas"},{"id":"9101022010","district_id":"9101022","postal_code":"99634","name":"Seed Agung"},{"id":"9101022011","district_id":"9101022","postal_code":"99634","name":"Enggol Jaya"},{"id":"9101022012","district_id":"9101022","postal_code":"99634","name":"Manway Bop"},{"id":"9101022013","district_id":"9101022","postal_code":"99634","name":"Efkab Makmur"},{"id":"9101022014","district_id":"9101022","postal_code":"99634","name":"Sigabel Jaya"},{"id":"9101022015","district_id":"9101022","postal_code":"99634","name":"Andaito"}]