[{"id":"9102342003","district_id":"9102342","postal_code":"99554","name":"Heatnem"},{"id":"9102342008","district_id":"9102342","postal_code":"99554","name":"Wililimo"},{"id":"9102342009","district_id":"9102342","postal_code":"99554","name":"Yabem"},{"id":"9102342012","district_id":"9102342","postal_code":"99554","name":"Waukahilapok"},{"id":"9102342013","district_id":"9102342","postal_code":"99554","name":"Aleak"},{"id":"9102342014","district_id":"9102342","postal_code":"99554","name":"Inanekelok"},{"id":"9102342015","district_id":"9102342","postal_code":"99554","name":"Witalak"},{"id":"9102342016","district_id":"9102342","postal_code":"99554","name":"Mulukmo"},{"id":"9102342017","district_id":"9102342","postal_code":"99554","name":"Landia"},{"id":"9102342018","district_id":"9102342","postal_code":"99554","name":"Filia"},{"id":"9102342019","district_id":"9102342","postal_code":"99554","name":"Isugunik"},{"id":"9102342027","district_id":"9102342","postal_code":"0","name":"Hitelowa"},{"id":"9102342028","district_id":"9102342","postal_code":"99554","name":"Duabalek"}]