[{"id":"9103072001","district_id":"9103072","postal_code":"99361","name":"Gemebs"},{"id":"9103072002","district_id":"9103072","postal_code":"99361","name":"Singgri"},{"id":"9103072003","district_id":"9103072","postal_code":"99361","name":"Meyu"},{"id":"9103072004","district_id":"9103072","postal_code":"99361","name":"Benyom"},{"id":"9103072005","district_id":"9103072","postal_code":"99361","name":"Oyengsi"},{"id":"9103072006","district_id":"9103072","postal_code":"99361","name":"Singgriway"},{"id":"9103072009","district_id":"9103072","postal_code":"99361","name":"Imsar"},{"id":"9103072010","district_id":"9103072","postal_code":"99361","name":"Kuipons"},{"id":"9103072014","district_id":"9103072","postal_code":"99361","name":"Yenggu Baru"},{"id":"9103072015","district_id":"9103072","postal_code":"99361","name":"Yenggu Lama"},{"id":"9103072017","district_id":"9103072","postal_code":"99361","name":"Kuwase"},{"id":"9103072018","district_id":"9103072","postal_code":"99361","name":"Kaitemung"},{"id":"9103072019","district_id":"9103072","postal_code":"99361","name":"Pobaim"}]