[{"id":"9105102001","district_id":"9105102","postal_code":"98653","name":"Ambai I"},{"id":"9105102002","district_id":"9105102","postal_code":"98653","name":"Saweru"},{"id":"9105102004","district_id":"9105102","postal_code":"98653","name":"Kawipi"},{"id":"9105102005","district_id":"9105102","postal_code":"98653","name":"Wamori"},{"id":"9105102006","district_id":"9105102","postal_code":"98653","name":"Adiwipi"},{"id":"9105102007","district_id":"9105102","postal_code":"98653","name":"Umani"},{"id":"9105102008","district_id":"9105102","postal_code":"98653","name":"Ambai Ii"},{"id":"9105102009","district_id":"9105102","postal_code":"98653","name":"Mambawi"},{"id":"9105102010","district_id":"9105102","postal_code":"98653","name":"Baisore"},{"id":"9105102011","district_id":"9105102","postal_code":"98653","name":"Rondepi"},{"id":"9105102012","district_id":"9105102","postal_code":"98653","name":"Dorau"},{"id":"9105102013","district_id":"9105102","postal_code":"98653","name":"Perea"},{"id":"9105102014","district_id":"9105102","postal_code":"98653","name":"Imboriawa"},{"id":"9105102015","district_id":"9105102","postal_code":"98653","name":"Bairei"},{"id":"9105102016","district_id":"9105102","postal_code":"98653","name":"Aiwaraggani"},{"id":"9105102017","district_id":"9105102","postal_code":"98653","name":"Toroa"},{"id":"9105102018","district_id":"9105102","postal_code":"98653","name":"Nuniandei"},{"id":"9105102019","district_id":"9105102","postal_code":"98653","name":"Marawi"}]