[{"id":"9106152001","district_id":"9106152","postal_code":"98546","name":"Farusi"},{"id":"9106152002","district_id":"9106152","postal_code":"98546","name":"Mandenderi"},{"id":"9106152003","district_id":"9106152","postal_code":"98546","name":"Swainober"},{"id":"9106152004","district_id":"9106152","postal_code":"98546","name":"Mardori"},{"id":"9106152005","district_id":"9106152","postal_code":"98546","name":"Swaipak"},{"id":"9106152006","district_id":"9106152","postal_code":"98546","name":"Yenbepioper"},{"id":"9106152007","district_id":"9106152","postal_code":"98546","name":"Sarwa"},{"id":"9106152008","district_id":"9106152","postal_code":"98546","name":"Napdori"},{"id":"9106152009","district_id":"9106152","postal_code":"98546","name":"Ramdori"},{"id":"9106152010","district_id":"9106152","postal_code":"98546","name":"Busdori"},{"id":"9106152011","district_id":"9106152","postal_code":"98546","name":"Wombrisau"},{"id":"9106152012","district_id":"9106152","postal_code":"98546","name":"Orkdori"},{"id":"9106152013","district_id":"9106152","postal_code":"98546","name":"Saswarbo"},{"id":"9106152014","district_id":"9106152","postal_code":"98546","name":"Andoina"},{"id":"9106152015","district_id":"9106152","postal_code":"98546","name":"Insusbari"}]