[{"id":"9106022001","district_id":"9106022","postal_code":"98544","name":"Sarwom"},{"id":"9106022002","district_id":"9106022","postal_code":"98544","name":"Andei"},{"id":"9106022004","district_id":"9106022","postal_code":"98544","name":"Waromi"},{"id":"9106022006","district_id":"9106022","postal_code":"98544","name":"Kobeoser"},{"id":"9106022007","district_id":"9106022","postal_code":"98544","name":"Mambesak"},{"id":"9106022008","district_id":"9106022","postal_code":"98544","name":"Saukobye"},{"id":"9106022010","district_id":"9106022","postal_code":"98544","name":"Yobdi"},{"id":"9106022012","district_id":"9106022","postal_code":"98544","name":"Dernafi"},{"id":"9106022013","district_id":"9106022","postal_code":"98544","name":"Rosayendi"},{"id":"9106022016","district_id":"9106022","postal_code":"98544","name":"Warsansan"},{"id":"9106022017","district_id":"9106022","postal_code":"98544","name":"Nermnu"},{"id":"9106022018","district_id":"9106022","postal_code":"98544","name":"Korem"},{"id":"9106022019","district_id":"9106022","postal_code":"98544","name":"Mnuswor"},{"id":"9106022020","district_id":"9106022","postal_code":"98544","name":"Dofyo Wafor"},{"id":"9106022021","district_id":"9106022","postal_code":"98544","name":"Warbon"},{"id":"9106022022","district_id":"9106022","postal_code":"98544","name":"Wari"}]