[{"id":"9106042003","district_id":"9106042","postal_code":"98564","name":"Namber"},{"id":"9106042004","district_id":"9106042","postal_code":"98564","name":"Baruki"},{"id":"9106042005","district_id":"9106042","postal_code":"98564","name":"Kameri"},{"id":"9106042008","district_id":"9106042","postal_code":"98564","name":"Warido"},{"id":"9106042012","district_id":"9106042","postal_code":"98564","name":"Sub Manggunsi"},{"id":"9106042013","district_id":"9106042","postal_code":"98564","name":"Serbin"},{"id":"9106042014","district_id":"9106042","postal_code":"98564","name":"Kansai"},{"id":"9106042015","district_id":"9106042","postal_code":"98564","name":"Pomdori"},{"id":"9106042019","district_id":"9106042","postal_code":"98564","name":"Semayen"},{"id":"9106042020","district_id":"9106042","postal_code":"98564","name":"Mambodo Sawai"},{"id":"9106042021","district_id":"9106042","postal_code":"98564","name":"Rimbaraya"},{"id":"9106042022","district_id":"9106042","postal_code":"98564","name":"Pomdori Sup"}]