[{"id":"9106012007","district_id":"9106012","postal_code":"98527","name":"Mnubabo"},{"id":"9106012008","district_id":"9106012","postal_code":"98533","name":"Swapodibo"},{"id":"9106012009","district_id":"9106012","postal_code":"98528","name":"Mokmer"},{"id":"9106012010","district_id":"9106012","postal_code":"98519","name":"Inggiri"},{"id":"9106012011","district_id":"9106012","postal_code":"98529","name":"Parai"},{"id":"9106012012","district_id":"9106012","postal_code":"98531","name":"Samau"},{"id":"9106012013","district_id":"9106012","postal_code":"98522","name":"Insrom"},{"id":"9106012014","district_id":"9106012","postal_code":"98518","name":"Anggraidi"},{"id":"9106012015","district_id":"9106012","postal_code":"98526","name":"Manswam"},{"id":"9106012017","district_id":"9106012","postal_code":"98532","name":"Sanumi"},{"id":"9106012018","district_id":"9106012","postal_code":"98525","name":"Manggandisapi"},{"id":"9106012019","district_id":"9106012","postal_code":"98524","name":"Karyendi"},{"id":"9106012020","district_id":"9106012","postal_code":"98523","name":"Kababur"},{"id":"9106012021","district_id":"9106012","postal_code":"98516","name":"Babrinbo"},{"id":"9106012022","district_id":"9106012","postal_code":"98521","name":"Inggupi"}]