[{"id":"9108042004","district_id":"9108042","postal_code":"98731","name":"Toyaimoti"},{"id":"9108042005","district_id":"9108042","postal_code":"98731","name":"Agapo"},{"id":"9108042007","district_id":"9108042","postal_code":"98731","name":"Abatadi"},{"id":"9108042009","district_id":"9108042","postal_code":"98731","name":"Dauwagu"},{"id":"9108042014","district_id":"9108042","postal_code":"98731","name":"Baguwo"},{"id":"9108042015","district_id":"9108042","postal_code":"98731","name":"Makidini"},{"id":"9108042034","district_id":"9108042","postal_code":"98731","name":"Tagiya"},{"id":"9108042036","district_id":"9108042","postal_code":"98731","name":"Emai"},{"id":"9108042038","district_id":"9108042","postal_code":"98731","name":"Dinubutu"},{"id":"9108042039","district_id":"9108042","postal_code":"98731","name":"Bodatadi"},{"id":"9108042040","district_id":"9108042","postal_code":"98731","name":"Ibouwagu"},{"id":"9108042041","district_id":"9108042","postal_code":"98731","name":"Ganeyetaka"},{"id":"9108042044","district_id":"9108042","postal_code":"98731","name":"Duwadide"}]