[{"id":"9108192001","district_id":"9108192","postal_code":"98715","name":"Kebo Ii"},{"id":"9108192004","district_id":"9108192","postal_code":"98715","name":"Togowa"},{"id":"9108192005","district_id":"9108192","postal_code":"98715","name":"Ibumaida"},{"id":"9108192009","district_id":"9108192","postal_code":"98715","name":"Kagupagu"},{"id":"9108192010","district_id":"9108192","postal_code":"98715","name":"Ayaiga"},{"id":"9108192012","district_id":"9108192","postal_code":"98715","name":"Geibu"},{"id":"9108192013","district_id":"9108192","postal_code":"98715","name":"Yokadagi"},{"id":"9108192014","district_id":"9108192","postal_code":"98715","name":"Bunaida"},{"id":"9108192017","district_id":"9108192","postal_code":"98715","name":"Kedege"},{"id":"9108192018","district_id":"9108192","postal_code":"98715","name":"Uwaiye"},{"id":"9108192019","district_id":"9108192","postal_code":"98715","name":"Dawawa"},{"id":"9108192020","district_id":"9108192","postal_code":"98715","name":"Mugimeketago"},{"id":"9108192021","district_id":"9108192","postal_code":"98715","name":"Tuwamakida"}]