[{"id":"9113192001","district_id":"9113192","postal_code":"99718","name":"Lokon"},{"id":"9113192002","district_id":"9113192","postal_code":"99718","name":"Luarima"},{"id":"9113192003","district_id":"9113192","postal_code":"99718","name":"Werima"},{"id":"9113192004","district_id":"9113192","postal_code":"99718","name":"Hanoasuok"},{"id":"9113192005","district_id":"9113192","postal_code":"99718","name":"Wesagalep"},{"id":"9113192006","district_id":"9113192","postal_code":"99718","name":"Wesama"},{"id":"9113192007","district_id":"9113192","postal_code":"99718","name":"Weasi"},{"id":"9113192008","district_id":"9113192","postal_code":"99718","name":"Weriaput"},{"id":"9113192009","district_id":"9113192","postal_code":"99718","name":"Suesi"},{"id":"9113192010","district_id":"9113192","postal_code":"99718","name":"Nesuwen"},{"id":"9113192011","district_id":"9113192","postal_code":"99718","name":"Esema Husage"},{"id":"9113192012","district_id":"9113192","postal_code":"99718","name":"Libuk"},{"id":"9113192013","district_id":"9113192","postal_code":"99718","name":"Hagawen"},{"id":"9113192014","district_id":"9113192","postal_code":"99718","name":"Hepia"}]