[{"id":"9114072003","district_id":"9114072","postal_code":"99063","name":"Wina"},{"id":"9114072004","district_id":"9114072","postal_code":"99063","name":"Gualo"},{"id":"9114072006","district_id":"9114072","postal_code":"99063","name":"Bimbogul"},{"id":"9114072014","district_id":"9114072","postal_code":"99063","name":"Yugumengga"},{"id":"9114072015","district_id":"9114072","postal_code":"99063","name":"Wariru"},{"id":"9114072016","district_id":"9114072","postal_code":"99063","name":"Yugubuk"},{"id":"9114072017","district_id":"9114072","postal_code":"99063","name":"Akima"},{"id":"9114072018","district_id":"9114072","postal_code":"99063","name":"Malela"},{"id":"9114072019","district_id":"9114072","postal_code":"99063","name":"Nakwil"},{"id":"9114072020","district_id":"9114072","postal_code":"99063","name":"Finai"},{"id":"9114072021","district_id":"9114072","postal_code":"99063","name":"Holandia"},{"id":"9114072022","district_id":"9114072","postal_code":"99063","name":"Tawi"},{"id":"9114072024","district_id":"9114072","postal_code":"99063","name":"Yogweme"}]