[{"id":"9114132001","district_id":"9114132","postal_code":"99032","name":"Mondagul"},{"id":"9114132003","district_id":"9114132","postal_code":"99032","name":"Timojimo"},{"id":"9114132005","district_id":"9114132","postal_code":"99032","name":"Tabowanimbo"},{"id":"9114132006","district_id":"9114132","postal_code":"99032","name":"Nelawi"},{"id":"9114132007","district_id":"9114132","postal_code":"99032","name":"Woromolome"},{"id":"9114132008","district_id":"9114132","postal_code":"99032","name":"Kendemaya"},{"id":"9114132009","district_id":"9114132","postal_code":"99032","name":"Palagi"},{"id":"9114132010","district_id":"9114132","postal_code":"99032","name":"Megapura"},{"id":"9114132011","district_id":"9114132","postal_code":"99032","name":"Wabuna"},{"id":"9114132012","district_id":"9114132","postal_code":"99032","name":"Minagame"},{"id":"9114132013","district_id":"9114132","postal_code":"99032","name":"Barename\/luanggi"},{"id":"9114132014","district_id":"9114132","postal_code":"99032","name":"Yilogonime\/tabinabo"}]