[{"id":"9116022001","district_id":"9116022","postal_code":"99663","name":"Mindiptana"},{"id":"9116022003","district_id":"9116022","postal_code":"99663","name":"Umap"},{"id":"9116022005","district_id":"9116022","postal_code":"99663","name":"Awayanka"},{"id":"9116022009","district_id":"9116022","postal_code":"99663","name":"Wanggatkibi"},{"id":"9116022012","district_id":"9116022","postal_code":"99663","name":"Epsembit"},{"id":"9116022013","district_id":"9116022","postal_code":"99663","name":"Andobit"},{"id":"9116022014","district_id":"9116022","postal_code":"99663","name":"Niyimbang"},{"id":"9116022015","district_id":"9116022","postal_code":"99663","name":"Anggumbit"},{"id":"9116022016","district_id":"9116022","postal_code":"99663","name":"Imko"},{"id":"9116022017","district_id":"9116022","postal_code":"99663","name":"Kamka"},{"id":"9116022018","district_id":"9116022","postal_code":"99663","name":"Osso"},{"id":"9116022019","district_id":"9116022","postal_code":"99663","name":"Tinggam"},{"id":"9116022023","district_id":"9116022","postal_code":"99663","name":"Kakuna"}]