[{"id":"9117052001","district_id":"9117052","postal_code":"99881","name":"Yagatsu"},{"id":"9117052002","district_id":"9117052","postal_code":"99881","name":"Amagatsu"},{"id":"9117052003","district_id":"9117052","postal_code":"99881","name":"Katage"},{"id":"9117052004","district_id":"9117052","postal_code":"99881","name":"Sogope"},{"id":"9117052005","district_id":"9117052","postal_code":"99881","name":"Wiyage"},{"id":"9117052006","district_id":"9117052","postal_code":"99881","name":"Kasima"},{"id":"9117052007","district_id":"9117052","postal_code":"99881","name":"Amenda"},{"id":"9117052008","district_id":"9117052","postal_code":"99881","name":"Kaibu"},{"id":"9117052009","district_id":"9117052","postal_code":"99881","name":"Omuro"},{"id":"9117052010","district_id":"9117052","postal_code":"99881","name":"Okor"},{"id":"9117052011","district_id":"9117052","postal_code":"99881","name":"Atsipim"},{"id":"9117052012","district_id":"9117052","postal_code":"99881","name":"Semtaipim"},{"id":"9117052013","district_id":"9117052","postal_code":"99881","name":"Geiripim"},{"id":"9117052014","district_id":"9117052","postal_code":"99881","name":"Warogom"},{"id":"9117052015","district_id":"9117052","postal_code":"99881","name":"Kaibusene"},{"id":"9117052016","district_id":"9117052","postal_code":"99881","name":"Arare"},{"id":"9117052017","district_id":"9117052","postal_code":"99881","name":"Paghai"},{"id":"9117052018","district_id":"9117052","postal_code":"99881","name":"Kerke"},{"id":"9117052019","district_id":"9117052","postal_code":"99881","name":"Mani"}]