[{"id":"9117082001","district_id":"9117082","postal_code":"99871","name":"Sepoh"},{"id":"9117082002","district_id":"9117082","postal_code":"99871","name":"Bagaram"},{"id":"9117082003","district_id":"9117082","postal_code":"99871","name":"Passue\/taim"},{"id":"9117082004","district_id":"9117082","postal_code":"99871","name":"Nohon"},{"id":"9117082005","district_id":"9117082","postal_code":"99871","name":"Kotiak"},{"id":"9117082006","district_id":"9117082","postal_code":"99871","name":"Menya"},{"id":"9117082007","district_id":"9117082","postal_code":"99871","name":"Tokhompatu"},{"id":"9117082008","district_id":"9117082","postal_code":"99871","name":"Kotup"},{"id":"9117082009","district_id":"9117082","postal_code":"99871","name":"Rimba Jaya\/gayu"},{"id":"9117082010","district_id":"9117082","postal_code":"99871","name":"Kaime"},{"id":"9117082011","district_id":"9117082","postal_code":"99871","name":"Baitate"},{"id":"9117082012","district_id":"9117082","postal_code":"99871","name":"Urufu"},{"id":"9117082013","district_id":"9117082","postal_code":"99871","name":"Afogoma"}]