[{"id":"9123102001","district_id":"9123102","postal_code":"99570","name":"Megalunik"},{"id":"9123102002","district_id":"9123102","postal_code":"99570","name":"Lugobak"},{"id":"9123102003","district_id":"9123102","postal_code":"99570","name":"Kanikbukme"},{"id":"9123102006","district_id":"9123102","postal_code":"99570","name":"Poga"},{"id":"9123102007","district_id":"9123102","postal_code":"99570","name":"Bigipaga"},{"id":"9123102011","district_id":"9123102","postal_code":"99570","name":"Luneri"},{"id":"9123102012","district_id":"9123102","postal_code":"99570","name":"Binipaga"},{"id":"9123102013","district_id":"9123102","postal_code":"99570","name":"Mugime"},{"id":"9123102014","district_id":"9123102","postal_code":"99570","name":"Brigme"},{"id":"9123102015","district_id":"9123102","postal_code":"99570","name":"Unikme"},{"id":"9123102016","district_id":"9123102","postal_code":"99570","name":"Binompaga"},{"id":"9123102017","district_id":"9123102","postal_code":"99570","name":"Lugwa"},{"id":"9123102018","district_id":"9123102","postal_code":"99570","name":"Guaneri"}]