[{"id":"9126072001","district_id":"9126072","postal_code":"98883","name":"Puweta I"},{"id":"9126072002","district_id":"9126072","postal_code":"98883","name":"Pouwouda"},{"id":"9126072003","district_id":"9126072","postal_code":"98883","name":"Puweta Ii"},{"id":"9126072004","district_id":"9126072","postal_code":"98883","name":"Botumoma"},{"id":"9126072005","district_id":"9126072","postal_code":"98883","name":"Obaibega"},{"id":"9126072006","district_id":"9126072","postal_code":"98883","name":"Digikebo"},{"id":"9126072007","district_id":"9126072","postal_code":"98883","name":"Bogiyoteugi"},{"id":"9126072008","district_id":"9126072","postal_code":"98883","name":"Matadi"},{"id":"9126072009","district_id":"9126072","postal_code":"98883","name":"Tuwaida"},{"id":"9126072010","district_id":"9126072","postal_code":"98883","name":"Yepo"},{"id":"9126072011","district_id":"9126072","postal_code":"98883","name":"Ugikagouda"},{"id":"9126072012","district_id":"9126072","postal_code":"98883","name":"Ugikebo"}]