[{"id":"9202172001","district_id":"9202172","postal_code":"98315","name":"Warkapi"},{"id":"9202172002","district_id":"9202172","postal_code":"98315","name":"Ayawi"},{"id":"9202172003","district_id":"9202172","postal_code":"98315","name":"Ukopti"},{"id":"9202172004","district_id":"9202172","postal_code":"98315","name":"Misabugoid"},{"id":"9202172005","district_id":"9202172","postal_code":"98315","name":"Mbatma"},{"id":"9202172006","district_id":"9202172","postal_code":"98315","name":"Urwambei"},{"id":"9202172007","district_id":"9202172","postal_code":"98315","name":"Imbeisika I"},{"id":"9202172008","district_id":"9202172","postal_code":"98315","name":"Imbeisika Ii"},{"id":"9202172009","district_id":"9202172","postal_code":"98315","name":"Warmawai"},{"id":"9202172010","district_id":"9202172","postal_code":"98315","name":"Rembuy"},{"id":"9202172011","district_id":"9202172","postal_code":"98315","name":"Imhasuma"},{"id":"9202172012","district_id":"9202172","postal_code":"98315","name":"Cuyehep"},{"id":"9202172013","district_id":"9202172","postal_code":"98315","name":"Hanghouw"},{"id":"9202172014","district_id":"9202172","postal_code":"98315","name":"Ningdip"},{"id":"9202172015","district_id":"9202172","postal_code":"98315","name":"Warami"},{"id":"9202172016","district_id":"9202172","postal_code":"98315","name":"Imboiti"},{"id":"9202172017","district_id":"9202172","postal_code":"98315","name":"Wariari"},{"id":"9202172018","district_id":"9202172","postal_code":"98315","name":"Indibo"},{"id":"9202172019","district_id":"9202172","postal_code":"98315","name":"Umnum"},{"id":"9202172020","district_id":"9202172","postal_code":"98315","name":"Ukemboisi"},{"id":"9202172021","district_id":"9202172","postal_code":"98315","name":"Menyumfoku"},{"id":"9202172022","district_id":"9202172","postal_code":"98315","name":"Wedoni"},{"id":"9202172023","district_id":"9202172","postal_code":"98315","name":"Mirowi"},{"id":"9202172024","district_id":"9202172","postal_code":"98315","name":"Warnyeti"}]