[{"id":"9202152003","district_id":"9202152","postal_code":"98313","name":"Katebu"},{"id":"9202152004","district_id":"9202152","postal_code":"98313","name":"Masyepi"},{"id":"9202152005","district_id":"9202152","postal_code":"98313","name":"Warmomi"},{"id":"9202152006","district_id":"9202152","postal_code":"98313","name":"Dihara"},{"id":"9202152007","district_id":"9202152","postal_code":"98313","name":"Waluri"},{"id":"9202152008","district_id":"9202152","postal_code":"98313","name":"Maruni"},{"id":"9202152009","district_id":"9202152","postal_code":"98313","name":"Misapmeysi"},{"id":"9202152010","district_id":"9202152","postal_code":"98313","name":"Wasai"},{"id":"9202152011","district_id":"9202152","postal_code":"98313","name":"Anggresi"},{"id":"9202152012","district_id":"9202152","postal_code":"98313","name":"Mupi"},{"id":"9202152013","district_id":"9202152","postal_code":"98313","name":"Warswami"},{"id":"9202152014","district_id":"9202152","postal_code":"98313","name":"Acemo"},{"id":"9202152015","district_id":"9202152","postal_code":"98313","name":"Wamesa"},{"id":"9202152016","district_id":"9202152","postal_code":"98313","name":"Dobut"},{"id":"9202152017","district_id":"9202152","postal_code":"98313","name":"Warkomi"},{"id":"9202152018","district_id":"9202152","postal_code":"98313","name":"Ngunimbouw"}]