[{"id":"9202212001","district_id":"9202212","postal_code":"98319","name":"Kaironi"},{"id":"9202212002","district_id":"9202212","postal_code":"98319","name":"Sidey"},{"id":"9202212003","district_id":"9202212","postal_code":"98319","name":"Waramui"},{"id":"9202212004","district_id":"9202212","postal_code":"98319","name":"Kassi"},{"id":"9202212005","district_id":"9202212","postal_code":"98319","name":"Saray"},{"id":"9202212006","district_id":"9202212","postal_code":"98319","name":"Sidey Baru"},{"id":"9202212007","district_id":"9202212","postal_code":"98319","name":"Sidey Makmur"},{"id":"9202212008","district_id":"9202212","postal_code":"98319","name":"Meyof I"},{"id":"9202212009","district_id":"9202212","postal_code":"98319","name":"Wariki"},{"id":"9202212010","district_id":"9202212","postal_code":"98319","name":"Womnowi"},{"id":"9202212011","district_id":"9202212","postal_code":"98319","name":"Manggupi"},{"id":"9202212012","district_id":"9202212","postal_code":"98319","name":"Sidey Jaya"}]