[{"id":"9209232001","district_id":"9209232","postal_code":"98393","name":"Inam"},{"id":"9209232002","district_id":"9209232","postal_code":"98393","name":"Jandurauw"},{"id":"9209232003","district_id":"9209232","postal_code":"98393","name":"Inambuari"},{"id":"9209232004","district_id":"9209232","postal_code":"98393","name":"Sitori"},{"id":"9209232005","district_id":"9209232","postal_code":"98393","name":"Untorey"},{"id":"9209232006","district_id":"9209232","postal_code":"98393","name":"Nabisai"},{"id":"9209232007","district_id":"9209232","postal_code":"98393","name":"Arumi"},{"id":"9209232008","district_id":"9209232","postal_code":"98393","name":"Karawi"},{"id":"9209232009","district_id":"9209232","postal_code":"98393","name":"Arampak"},{"id":"9209232010","district_id":"9209232","postal_code":"98393","name":"Kasi Inom"},{"id":"9209232011","district_id":"9209232","postal_code":"98393","name":"Ireji"},{"id":"9209232012","district_id":"9209232","postal_code":"98393","name":"Meycocforga"},{"id":"9209232013","district_id":"9209232","postal_code":"98393","name":"Wasabiti"}]