[{"id":"9210072001","district_id":"9210072","postal_code":"98265","name":"Fategomi"},{"id":"9210072002","district_id":"9210072","postal_code":"98265","name":"Tehak Besar"},{"id":"9210072003","district_id":"9210072","postal_code":"98265","name":"Fan"},{"id":"9210072004","district_id":"9210072","postal_code":"98265","name":"Gohsames"},{"id":"9210072005","district_id":"9210072","postal_code":"98265","name":"Asmuruf U"},{"id":"9210072006","district_id":"9210072","postal_code":"98265","name":"Mirafaan"},{"id":"9210072011","district_id":"9210072","postal_code":"98265","name":"Asmuruf Tee"},{"id":"9210072012","district_id":"9210072","postal_code":"98265","name":"Tehak Tee"},{"id":"9210072013","district_id":"9210072","postal_code":"98265","name":"Framafir"},{"id":"9210072014","district_id":"9210072","postal_code":"98265","name":"Subrit"},{"id":"9210072015","district_id":"9210072","postal_code":"98265","name":"Inta"},{"id":"9210072016","district_id":"9210072","postal_code":"98265","name":"Bahwat"}]