[{"id":"9211012001","district_id":"9211012","postal_code":"98324","name":"Ransiki"},{"id":"9211012002","district_id":"9211012","postal_code":"98324","name":"Nuhuwei"},{"id":"9211012003","district_id":"9211012","postal_code":"98324","name":"Yamboi"},{"id":"9211012004","district_id":"9211012","postal_code":"98324","name":"Tobou"},{"id":"9211012005","district_id":"9211012","postal_code":"98324","name":"Sabri"},{"id":"9211012006","district_id":"9211012","postal_code":"98324","name":"Bamaha"},{"id":"9211012007","district_id":"9211012","postal_code":"98324","name":"Abreso"},{"id":"9211012008","district_id":"9211012","postal_code":"98324","name":"Hamawi"},{"id":"9211012009","district_id":"9211012","postal_code":"98324","name":"Kobrey"},{"id":"9211012010","district_id":"9211012","postal_code":"98324","name":"Wamcei"},{"id":"9211012011","district_id":"9211012","postal_code":"98324","name":"Hamor"},{"id":"9211012012","district_id":"9211012","postal_code":"98324","name":"Susmorof"},{"id":"9211012013","district_id":"9211012","postal_code":"98324","name":"Mambrema"}]