[{"id":"9212082001","district_id":"9212082","postal_code":"98350","name":"Testega"},{"id":"9212082002","district_id":"9212082","postal_code":"98350","name":"Meidogda"},{"id":"9212082003","district_id":"9212082","postal_code":"98350","name":"Meifekeni"},{"id":"9212082004","district_id":"9212082","postal_code":"98350","name":"Demuora"},{"id":"9212082005","district_id":"9212082","postal_code":"98350","name":"Jigja"},{"id":"9212082006","district_id":"9212082","postal_code":"0","name":"Meigehenawu"},{"id":"9212082007","district_id":"9212082","postal_code":"98350","name":"Morumfeyi"},{"id":"9212082008","district_id":"9212082","postal_code":"98350","name":"Iba"},{"id":"9212082009","district_id":"9212082","postal_code":"98350","name":"Meimersa"},{"id":"9212082010","district_id":"9212082","postal_code":"98350","name":"Meifowoska"},{"id":"9212082011","district_id":"9212082","postal_code":"98350","name":"Meijugjijigja"},{"id":"9212082012","district_id":"9212082","postal_code":"98350","name":"Meifokeda"},{"id":"9212082013","district_id":"9212082","postal_code":"98350","name":"Dumbrey"},{"id":"9212082014","district_id":"9212082","postal_code":"98350","name":"Meksi"},{"id":"9212082015","district_id":"9212082","postal_code":"98350","name":"Asai Dua"}]